<?xml version="1.0" encoding="UTF-8"?>
<kml xmlns="http://www.opengis.net/kml/2.2">
  <Document>
    <name>2026環島Day7</name>
    <description>花蓮市區→花蓮玉里</description>
    <Style id="icon-1899-DB4436-nodesc-normal">
      <IconStyle>
        <color>ff3644db</color>
        <scale>1</scale>
        <Icon>
          <href>https://www.gstatic.com/mapspro/images/stock/503-wht-blank_maps.png</href>
        </Icon>
        <hotSpot x="32" xunits="pixels" y="64" yunits="insetPixels"/>
      </IconStyle>
      <LabelStyle>
        <scale>0</scale>
      </LabelStyle>
      <BalloonStyle>
        <text><![CDATA[<h3>$[name]</h3>]]></text>
      </BalloonStyle>
    </Style>
    <Style id="icon-1899-DB4436-nodesc-highlight">
      <IconStyle>
        <color>ff3644db</color>
        <scale>1</scale>
        <Icon>
          <href>https://www.gstatic.com/mapspro/images/stock/503-wht-blank_maps.png</href>
        </Icon>
        <hotSpot x="32" xunits="pixels" y="64" yunits="insetPixels"/>
      </IconStyle>
      <LabelStyle>
        <scale>1</scale>
      </LabelStyle>
      <BalloonStyle>
        <text><![CDATA[<h3>$[name]</h3>]]></text>
      </BalloonStyle>
    </Style>
    <StyleMap id="icon-1899-DB4436-nodesc">
      <Pair>
        <key>normal</key>
        <styleUrl>#icon-1899-DB4436-nodesc-normal</styleUrl>
      </Pair>
      <Pair>
        <key>highlight</key>
        <styleUrl>#icon-1899-DB4436-nodesc-highlight</styleUrl>
      </Pair>
    </StyleMap>
    <Style id="line-1267FF-5000-nodesc-normal">
      <LineStyle>
        <color>ffff6712</color>
        <width>5</width>
      </LineStyle>
      <BalloonStyle>
        <text><![CDATA[<h3>$[name]</h3>]]></text>
      </BalloonStyle>
    </Style>
    <Style id="line-1267FF-5000-nodesc-highlight">
      <LineStyle>
        <color>ffff6712</color>
        <width>7.5</width>
      </LineStyle>
      <BalloonStyle>
        <text><![CDATA[<h3>$[name]</h3>]]></text>
      </BalloonStyle>
    </Style>
    <StyleMap id="line-1267FF-5000-nodesc">
      <Pair>
        <key>normal</key>
        <styleUrl>#line-1267FF-5000-nodesc-normal</styleUrl>
      </Pair>
      <Pair>
        <key>highlight</key>
        <styleUrl>#line-1267FF-5000-nodesc-highlight</styleUrl>
      </Pair>
    </StyleMap>
    <Folder>
      <name>花蓮市區→花蓮玉里</name>
      <Placemark>
        <name>花蓮市區→花蓮玉里</name>
        <styleUrl>#line-1267FF-5000-nodesc</styleUrl>
        <LineString>
          <tessellate>1</tessellate>
          <coordinates>
            121.59627,23.97205,0
            121.59635,23.97195,0
            121.59659,23.97215,0
            121.59761,23.97102,0
            121.59772,23.97091,0
            121.59602,23.96983,0
            121.59426,23.96866,0
            121.59354,23.96798,0
            121.59343,23.96785,0
            121.59324,23.96759,0
            121.59312,23.96747,0
            121.59261,23.96691,0
            121.59194,23.96623,0
            121.59055,23.9647,0
            121.59036,23.96455,0
            121.59008,23.96452,0
            121.58975,23.9645,0
            121.58748,23.96428,0
            121.58742,23.96428,0
            121.58535,23.96412,0
            121.58413,23.96399,0
            121.58272,23.96388,0
            121.58216,23.96382,0
            121.58211,23.96381,0
            121.57785,23.96346,0
            121.57723,23.96338,0
            121.57713,23.96335,0
            121.5771,23.96335,0
            121.57701,23.96331,0
            121.57662,23.96307,0
            121.57479,23.96185,0
            121.57478,23.96185,0
            121.57079,23.95918,0
            121.5699,23.95872,0
            121.56949,23.95853,0
            121.56929,23.95842,0
            121.56917,23.95839,0
            121.56366,23.95461,0
            121.56303,23.95415,0
            121.55576,23.94923,0
            121.55562,23.94912,0
            121.55446,23.94831,0
            121.55139,23.94627,0
            121.54837,23.94417,0
            121.54807,23.94394,0
            121.5467,23.94273,0
            121.54663,23.94266,0
            121.54599,23.9421,0
            121.54544,23.94168,0
            121.54529,23.94159,0
            121.54526,23.94156,0
            121.5449,23.94131,0
            121.54486,23.94129,0
            121.54288,23.93957,0
            121.54227,23.93897,0
            121.5418,23.93856,0
            121.54163,23.93836,0
            121.54148,23.93812,0
            121.54147,23.93811,0
            121.54136,23.93791,0
            121.54038,23.93566,0
            121.5403,23.9355,0
            121.53684,23.92759,0
            121.5368,23.92748,0
            121.53677,23.92742,0
            121.53676,23.92738,0
            121.53664,23.92713,0
            121.53609,23.92585,0
            121.53604,23.92575,0
            121.53603,23.92572,0
            121.53565,23.92489,0
            121.53521,23.924,0
            121.53514,23.92381,0
            121.53492,23.92329,0
            121.53477,23.92297,0
            121.53465,23.92268,0
            121.53422,23.92145,0
            121.53137,23.91189,0
            121.53104,23.91071,0
            121.53047,23.90888,0
            121.53005,23.90726,0
            121.52934,23.90508,0
            121.52903,23.90394,0
            121.52716,23.8977,0
            121.52663,23.8957,0
            121.52588,23.89315,0
            121.52516,23.89093,0
            121.52437,23.88822,0
            121.52407,23.88707,0
            121.52396,23.8867,0
            121.52382,23.88615,0
            121.52374,23.88591,0
            121.52372,23.88582,0
            121.52369,23.88574,0
            121.52348,23.88532,0
            121.52332,23.88505,0
            121.52304,23.88465,0
            121.52222,23.88358,0
            121.52213,23.88342,0
            121.52103,23.8819,0
            121.52048,23.88108,0
            121.5204,23.88098,0
            121.52039,23.88098,0
            121.52018,23.88079,0
            121.52006,23.8807,0
            121.52004,23.88069,0
            121.51992,23.88061,0
            121.51989,23.8806,0
            121.51972,23.88052,0
            121.51945,23.88043,0
            121.51934,23.88041,0
            121.51915,23.88036,0
            121.51914,23.88036,0
            121.51883,23.88027,0
            121.51726,23.87988,0
            121.51725,23.87988,0
            121.51566,23.87948,0
            121.5156,23.87946,0
            121.51523,23.87937,0
            121.51522,23.87937,0
            121.51466,23.87923,0
            121.51412,23.87906,0
            121.51394,23.87897,0
            121.51387,23.87892,0
            121.51378,23.87887,0
            121.5136,23.87871,0
            121.51354,23.87864,0
            121.51345,23.87855,0
            121.51344,23.87852,0
            121.51342,23.87848,0
            121.5134,23.87845,0
            121.51324,23.87799,0
            121.51272,23.87665,0
            121.51254,23.87631,0
            121.51179,23.87427,0
            121.51099,23.87227,0
            121.51089,23.87205,0
            121.51085,23.87199,0
            121.51075,23.87181,0
            121.51006,23.87072,0
            121.50938,23.86976,0
            121.50922,23.8695,0
            121.50919,23.86946,0
            121.50916,23.86941,0
            121.50813,23.86702,0
            121.50808,23.86688,0
            121.50797,23.86664,0
            121.50756,23.86583,0
            121.50694,23.86441,0
            121.50662,23.8638,0
            121.50659,23.86376,0
            121.50622,23.86315,0
            121.5044,23.86054,0
            121.50189,23.85715,0
            121.50185,23.85711,0
            121.50001,23.85469,0
            121.49956,23.85405,0
            121.49955,23.85405,0
            121.49776,23.85169,0
            121.49708,23.85085,0
            121.49701,23.85079,0
            121.49673,23.85051,0
            121.49605,23.84978,0
            121.49542,23.84893,0
            121.49496,23.84825,0
            121.49482,23.84796,0
            121.49456,23.84727,0
            121.4945,23.84716,0
            121.4932,23.84541,0
            121.49224,23.84402,0
            121.49127,23.84268,0
            121.49083,23.842,0
            121.48674,23.83631,0
            121.4829,23.83079,0
            121.4816,23.82902,0
            121.47793,23.82382,0
            121.47758,23.82327,0
            121.47738,23.82292,0
            121.47688,23.82215,0
            121.47631,23.82135,0
            121.47569,23.8206,0
            121.47515,23.82001,0
            121.47507,23.8199,0
            121.47454,23.81937,0
            121.47324,23.8179,0
            121.47255,23.81725,0
            121.47085,23.81578,0
            121.47079,23.81572,0
            121.4707,23.81566,0
            121.47047,23.81548,0
            121.47008,23.81523,0
            121.46991,23.8151,0
            121.46774,23.81383,0
            121.46755,23.8137,0
            121.46709,23.81323,0
            121.46655,23.81275,0
            121.46622,23.81234,0
            121.46609,23.81216,0
            121.46581,23.81173,0
            121.46409,23.80854,0
            121.46407,23.80851,0
            121.46198,23.80461,0
            121.46135,23.80333,0
            121.46124,23.80306,0
            121.4612,23.80293,0
            121.4612,23.80292,0
            121.46116,23.80281,0
            121.46107,23.80234,0
            121.46107,23.80222,0
            121.46105,23.80199,0
            121.46108,23.80141,0
            121.46113,23.8011,0
            121.46143,23.79974,0
            121.46145,23.79956,0
            121.46191,23.7974,0
            121.46259,23.79392,0
            121.46281,23.793,0
            121.46296,23.79211,0
            121.46302,23.79124,0
            121.46301,23.79081,0
            121.46297,23.7902,0
            121.46293,23.78991,0
            121.46274,23.7889,0
            121.46263,23.78851,0
            121.46245,23.788,0
            121.4623,23.78765,0
            121.46206,23.78714,0
            121.46205,23.78713,0
            121.46201,23.78705,0
            121.46191,23.78681,0
            121.4618,23.78659,0
            121.46179,23.78656,0
            121.46177,23.78653,0
            121.46175,23.78647,0
            121.4614,23.78574,0
            121.46126,23.78541,0
            121.46121,23.78532,0
            121.45916,23.78085,0
            121.45803,23.77829,0
            121.4579,23.77793,0
            121.45775,23.77758,0
            121.45754,23.77697,0
            121.45744,23.77657,0
            121.45734,23.776,0
            121.45734,23.77596,0
            121.45737,23.77586,0
            121.4563,23.76927,0
            121.45628,23.7691,0
            121.45578,23.766,0
            121.45576,23.76571,0
            121.45575,23.76568,0
            121.45562,23.76486,0
            121.45555,23.76468,0
            121.4553,23.76302,0
            121.45492,23.76147,0
            121.45464,23.76054,0
            121.45429,23.75959,0
            121.45258,23.75552,0
            121.45232,23.75498,0
            121.45211,23.75447,0
            121.45211,23.75446,0
            121.45199,23.75416,0
            121.45194,23.75391,0
            121.45194,23.75358,0
            121.452,23.7531,0
            121.45205,23.7529,0
            121.45219,23.75246,0
            121.45224,23.75236,0
            121.45285,23.75134,0
            121.45345,23.75048,0
            121.45373,23.74999,0
            121.45386,23.74963,0
            121.45393,23.74923,0
            121.45392,23.74874,0
            121.45389,23.74852,0
            121.4538,23.74823,0
            121.45296,23.74615,0
            121.4527,23.74546,0
            121.45258,23.74518,0
            121.45238,23.74476,0
            121.45206,23.74391,0
            121.45177,23.7433,0
            121.45143,23.74245,0
            121.45134,23.74227,0
            121.45126,23.74216,0
            121.45122,23.74209,0
            121.4509,23.7417,0
            121.45067,23.74149,0
            121.45044,23.74133,0
            121.45013,23.74116,0
            121.44984,23.74104,0
            121.44938,23.74094,0
            121.44741,23.7406,0
            121.44716,23.74052,0
            121.44662,23.74021,0
            121.44632,23.73997,0
            121.44613,23.73977,0
            121.44601,23.7396,0
            121.44566,23.73892,0
            121.44555,23.73873,0
            121.44533,23.73824,0
            121.44491,23.73717,0
            121.44465,23.73661,0
            121.44329,23.73339,0
            121.44314,23.7331,0
            121.4431,23.73293,0
            121.4426,23.73164,0
            121.44237,23.73114,0
            121.44185,23.73029,0
            121.44138,23.72977,0
            121.44017,23.72855,0
            121.43923,23.72773,0
            121.43871,23.72725,0
            121.43711,23.72566,0
            121.43686,23.72545,0
            121.43635,23.72509,0
            121.43587,23.72486,0
            121.43559,23.72475,0
            121.43445,23.72436,0
            121.4343,23.72433,0
            121.4315,23.72339,0
            121.4314,23.72335,0
            121.43114,23.72327,0
            121.42979,23.72278,0
            121.42937,23.72258,0
            121.42908,23.72241,0
            121.42896,23.72232,0
            121.42853,23.72192,0
            121.42768,23.721,0
            121.42766,23.72097,0
            121.4261,23.71927,0
            121.42417,23.71726,0
            121.42393,23.71698,0
            121.42346,23.71633,0
            121.42334,23.71613,0
            121.42306,23.7156,0
            121.42283,23.71506,0
            121.4227,23.71465,0
            121.42241,23.71337,0
            121.42234,23.71296,0
            121.4219,23.71098,0
            121.42182,23.71072,0
            121.42166,23.71032,0
            121.42157,23.71013,0
            121.42153,23.71006,0
            121.42149,23.70997,0
            121.42125,23.70956,0
            121.42013,23.70812,0
            121.41972,23.70764,0
            121.41938,23.70733,0
            121.41914,23.70715,0
            121.41884,23.70697,0
            121.41868,23.70689,0
            121.41828,23.70673,0
            121.41769,23.70658,0
            121.41731,23.70651,0
            121.41676,23.70636,0
            121.4162,23.70616,0
            121.41601,23.70606,0
            121.41561,23.7058,0
            121.41544,23.70566,0
            121.4153,23.70552,0
            121.41511,23.7053,0
            121.41472,23.70476,0
            121.41251,23.70137,0
            121.41241,23.7012,0
            121.41241,23.70119,0
            121.41236,23.70113,0
            121.41043,23.69823,0
            121.41028,23.69798,0
            121.41004,23.69769,0
            121.40929,23.69652,0
            121.40918,23.69631,0
            121.40889,23.69558,0
            121.40879,23.69523,0
            121.40874,23.69497,0
            121.40867,23.69436,0
            121.40869,23.69347,0
            121.40875,23.69221,0
            121.40871,23.69213,0
            121.4087,23.69209,0
            121.40864,23.69139,0
            121.40857,23.69087,0
            121.40858,23.69026,0
            121.40875,23.68872,0
            121.40878,23.68793,0
            121.40885,23.68728,0
            121.40902,23.68654,0
            121.40927,23.6858,0
            121.40935,23.68547,0
            121.40936,23.68545,0
            121.40946,23.6851,0
            121.40949,23.68502,0
            121.40956,23.68488,0
            121.40964,23.68475,0
            121.40971,23.68468,0
            121.40995,23.68448,0
            121.41089,23.68376,0
            121.41215,23.6829,0
            121.41216,23.68289,0
            121.41325,23.68215,0
            121.41375,23.68192,0
            121.41425,23.68175,0
            121.41496,23.68159,0
            121.4161,23.6814,0
            121.41612,23.6814,0
            121.41631,23.68136,0
            121.41651,23.68133,0
            121.41669,23.68129,0
            121.4167,23.68129,0
            121.41698,23.68123,0
            121.41718,23.68115,0
            121.41737,23.68106,0
            121.41758,23.68094,0
            121.41787,23.6807,0
            121.41795,23.68061,0
            121.41818,23.68029,0
            121.41907,23.67893,0
            121.41918,23.67878,0
            121.42077,23.67632,0
            121.42088,23.67617,0
            121.42096,23.676,0
            121.42301,23.67283,0
            121.42308,23.67271,0
            121.42315,23.67257,0
            121.42317,23.67249,0
            121.4232,23.67226,0
            121.42321,23.67199,0
            121.42317,23.67173,0
            121.42313,23.67155,0
            121.42253,23.66941,0
            121.42229,23.66846,0
            121.42165,23.66625,0
            121.42131,23.66632,0
            121.42165,23.66625,0
            121.42068,23.66277,0
            121.4202,23.66091,0
            121.4202,23.6609,0
            121.42007,23.66043,0
            121.42001,23.66026,0
            121.41999,23.66022,0
            121.41999,23.66021,0
            121.41993,23.66004,0
            121.4199,23.66,0
            121.41975,23.65973,0
            121.41935,23.65917,0
            121.4191,23.65876,0
            121.41905,23.65864,0
            121.41905,23.65863,0
            121.41891,23.65813,0
            121.41893,23.65805,0
            121.41774,23.65395,0
            121.4175,23.65323,0
            121.41697,23.65129,0
            121.41689,23.65105,0
            121.41615,23.64846,0
            121.41611,23.64828,0
            121.41587,23.64748,0
            121.41585,23.64737,0
            121.41575,23.64697,0
            121.41307,23.63748,0
            121.41304,23.63746,0
            121.41303,23.63744,0
            121.41283,23.63688,0
            121.41275,23.6367,0
            121.41261,23.63645,0
            121.41242,23.63607,0
            121.4123,23.63586,0
            121.41202,23.63545,0
            121.41162,23.63495,0
            121.41134,23.63465,0
            121.41108,23.6344,0
            121.41037,23.6338,0
            121.40671,23.63084,0
            121.40643,23.63059,0
            121.4061,23.63027,0
            121.40564,23.62973,0
            121.40514,23.62905,0
            121.40507,23.62892,0
            121.4047,23.62834,0
            121.40338,23.62598,0
            121.40141,23.62257,0
            121.40127,23.62236,0
            121.40103,23.62194,0
            121.40084,23.62166,0
            121.40056,23.6213,0
            121.40006,23.62071,0
            121.39989,23.62053,0
            121.39851,23.61927,0
            121.3977,23.61849,0
            121.39667,23.61755,0
            121.3966,23.61747,0
            121.39647,23.61734,0
            121.39629,23.61712,0
            121.39629,23.61711,0
            121.39622,23.61704,0
            121.39619,23.61698,0
            121.39604,23.61679,0
            121.39578,23.61639,0
            121.39556,23.61596,0
            121.39544,23.61569,0
            121.39529,23.61528,0
            121.39517,23.61478,0
            121.39511,23.6144,0
            121.39491,23.61107,0
            121.39481,23.61042,0
            121.39464,23.60972,0
            121.39452,23.60938,0
            121.39434,23.60896,0
            121.39417,23.60865,0
            121.3933,23.60691,0
            121.39323,23.60675,0
            121.39292,23.60612,0
            121.3926,23.60553,0
            121.39245,23.60522,0
            121.39241,23.60512,0
            121.39229,23.60491,0
            121.39219,23.60471,0
            121.39218,23.6047,0
            121.39143,23.60319,0
            121.39103,23.60244,0
            121.38998,23.60034,0
            121.38987,23.60014,0
            121.38937,23.59913,0
            121.38936,23.59912,0
            121.38898,23.59819,0
            121.38873,23.59738,0
            121.38845,23.5966,0
            121.38815,23.59597,0
            121.38777,23.59526,0
            121.38775,23.59524,0
            121.38768,23.59512,0
            121.38767,23.59511,0
            121.38309,23.58796,0
            121.38302,23.58788,0
            121.38287,23.58757,0
            121.38261,23.58688,0
            121.38251,23.5865,0
            121.38246,23.58623,0
            121.38243,23.58601,0
            121.3824,23.58587,0
            121.38239,23.5854,0
            121.3824,23.58521,0
            121.3825,23.58441,0
            121.38264,23.58367,0
            121.38271,23.58316,0
            121.38321,23.58033,0
            121.38322,23.5802,0
            121.38332,23.57946,0
            121.38334,23.57897,0
            121.38332,23.57855,0
            121.38329,23.57825,0
            121.38328,23.578,0
            121.38321,23.57725,0
            121.38315,23.57622,0
            121.3831,23.57574,0
            121.38305,23.57501,0
            121.38302,23.57474,0
            121.383,23.57423,0
            121.38294,23.57358,0
            121.38291,23.57307,0
            121.38283,23.57235,0
            121.38277,23.57097,0
            121.38237,23.56588,0
            121.38234,23.56522,0
            121.38234,23.56505,0
            121.38214,23.56232,0
            121.38208,23.56184,0
            121.38203,23.56157,0
            121.3818,23.56093,0
            121.38148,23.56014,0
            121.38003,23.55689,0
            121.37964,23.55588,0
            121.37951,23.55545,0
            121.37947,23.55537,0
            121.37944,23.55528,0
            121.37854,23.55309,0
            121.37849,23.55287,0
            121.37764,23.54974,0
            121.37756,23.54929,0
            121.37739,23.54785,0
            121.37722,23.54593,0
            121.37717,23.54477,0
            121.37716,23.54416,0
            121.37713,23.54369,0
            121.37748,23.53305,0
            121.3775,23.53274,0
            121.37754,23.53238,0
            121.37763,23.53193,0
            121.37818,23.53042,0
            121.37819,23.53038,0
            121.37828,23.53012,0
            121.37831,23.53005,0
            121.37836,23.52989,0
            121.37838,23.52985,0
            121.37846,23.5296,0
            121.37851,23.52937,0
            121.37863,23.52861,0
            121.37864,23.52839,0
            121.37864,23.52804,0
            121.37861,23.52776,0
            121.37854,23.5273,0
            121.37853,23.52727,0
            121.37841,23.5266,0
            121.37834,23.52634,0
            121.3783,23.52608,0
            121.37826,23.52593,0
            121.37823,23.52575,0
            121.37728,23.52145,0
            121.37722,23.52109,0
            121.37682,23.51926,0
            121.37673,23.51876,0
            121.37662,23.5183,0
            121.37653,23.51774,0
            121.37652,23.51771,0
            121.37622,23.51512,0
            121.37595,23.51442,0
            121.37575,23.51415,0
            121.37513,23.51356,0
            121.37487,23.51334,0
            121.37486,23.51332,0
            121.37469,23.51313,0
            121.37452,23.51289,0
            121.37433,23.51252,0
            121.37426,23.51235,0
            121.3741,23.51202,0
            121.37409,23.51199,0
            121.37397,23.51173,0
            121.37364,23.51094,0
            121.37357,23.51074,0
            121.37338,23.5103,0
            121.37258,23.50826,0
            121.37173,23.50623,0
            121.3716,23.50596,0
            121.37127,23.50512,0
            121.37085,23.50416,0
            121.37004,23.50211,0
            121.36908,23.49983,0
            121.36882,23.49917,0
            121.36882,23.49916,0
            121.36881,23.49916,0
            121.36881,23.49915,0
            121.36603,23.49248,0
            121.3658,23.49184,0
            121.36566,23.49155,0
            121.36493,23.48981,0
            121.36364,23.4866,0
            121.36311,23.48543,0
            121.36262,23.48418,0
            121.36245,23.48383,0
            121.36244,23.4838,0
            121.36176,23.48261,0
            121.35903,23.47823,0
            121.35818,23.47676,0
            121.3581,23.4766,0
            121.35733,23.47527,0
            121.35726,23.47513,0
            121.35719,23.47501,0
            121.3568,23.47424,0
            121.35672,23.47401,0
            121.35669,23.47394,0
            121.35664,23.47374,0
            121.35662,23.4736,0
            121.35662,23.47356,0
            121.35663,23.4735,0
            121.35664,23.47327,0
            121.35678,23.47261,0
            121.35679,23.47253,0
            121.3568,23.47233,0
            121.3568,23.47197,0
            121.3567,23.4711,0
            121.35673,23.47093,0
            121.35675,23.47075,0
            121.3568,23.47055,0
            121.3568,23.47054,0
            121.35688,23.47044,0
            121.35691,23.47041,0
            121.35694,23.47039,0
            121.35698,23.47037,0
            121.35707,23.47034,0
            121.35714,23.47033,0
            121.35724,23.47033,0
            121.3573,23.47035,0
            121.35735,23.47036,0
            121.35741,23.47039,0
            121.35747,23.47043,0
            121.35754,23.4705,0
            121.35758,23.47056,0
            121.35759,23.47057,0
            121.3579,23.47121,0
            121.35793,23.47125,0
            121.35805,23.47145,0
            121.35846,23.47195,0
            121.35857,23.4721,0
            121.35895,23.47257,0
            121.35904,23.47261,0
            121.35921,23.47284,0
            121.35937,23.47298,0
            121.35946,23.47301,0
            121.35964,23.47305,0
            121.35984,23.47305,0
            121.36004,23.47298,0
            121.36018,23.47292,0
            121.36054,23.47271,0
            121.36061,23.47264,0
            121.3607,23.47251,0
            121.36075,23.47239,0
            121.36076,23.47238,0
            121.36083,23.47225,0
            121.36087,23.47215,0
            121.36088,23.47209,0
            121.36088,23.47191,0
            121.36086,23.47181,0
            121.36086,23.47177,0
            121.36075,23.47152,0
            121.36062,23.47135,0
            121.36052,23.47126,0
            121.36046,23.47119,0
            121.3604,23.47107,0
            121.3601,23.47071,0
            121.36005,23.47062,0
            121.35997,23.47039,0
            121.35994,23.47028,0
            121.35991,23.47008,0
            121.35985,23.46927,0
            121.3598,23.46898,0
            121.35976,23.46884,0
            121.35973,23.46878,0
            121.35966,23.46859,0
            121.35955,23.4684,0
            121.35943,23.46824,0
            121.35853,23.4672,0
            121.35594,23.46438,0
            121.35566,23.46401,0
            121.35447,23.46158,0
            121.35434,23.46129,0
            121.35414,23.46077,0
            121.35398,23.46041,0
            121.35389,23.46018,0
            121.35374,23.4589,0
            121.35373,23.45886,0
            121.35364,23.4581,0
            121.35349,23.45648,0
            121.35329,23.45492,0
            121.35317,23.45376,0
            121.35319,23.45336,0
            121.35321,23.45318,0
            121.35323,23.45275,0
            121.35327,23.45249,0
            121.35327,23.45246,0
            121.35333,23.4521,0
            121.35348,23.45165,0
            121.35369,23.45128,0
            121.35371,23.45119,0
            121.35413,23.45047,0
            121.35427,23.45025,0
            121.35446,23.44989,0
            121.35454,23.44969,0
            121.35457,23.44957,0
            121.35461,23.4493,0
            121.35473,23.44814,0
            121.35473,23.44811,0
            121.35474,23.44809,0
            121.35474,23.44808,0
            121.35478,23.44804,0
            121.35479,23.44792,0
            121.35479,23.44779,0
            121.35488,23.44702,0
            121.35495,23.4462,0
            121.35496,23.44616,0
            121.35496,23.44611,0
            121.35491,23.44577,0
            121.35483,23.44551,0
            121.35467,23.44517,0
            121.35449,23.44487,0
            121.35436,23.44469,0
            121.35419,23.44451,0
            121.35413,23.44446,0
            121.35406,23.44442,0
            121.35395,23.44437,0
            121.35381,23.44433,0
            121.35369,23.44431,0
            121.35354,23.44431,0
            121.35332,23.44435,0
            121.35287,23.44456,0
            121.35271,23.44467,0
            121.35262,23.44476,0
            121.35261,23.44479,0
            121.35259,23.44482,0
            121.35253,23.445,0
            121.35249,23.44526,0
            121.35249,23.44534,0
            121.35252,23.44544,0
            121.35264,23.44566,0
            121.35279,23.44582,0
            121.35292,23.44599,0
            121.35298,23.44611,0
            121.35299,23.44619,0
            121.35299,23.44625,0
            121.35297,23.44635,0
            121.35295,23.44642,0
            121.35287,23.44659,0
            121.3528,23.44665,0
            121.35268,23.44671,0
            121.35217,23.44689,0
            121.35205,23.44694,0
            121.35162,23.44709,0
            121.35151,23.44715,0
            121.35129,23.44734,0
            121.35122,23.44747,0
            121.35119,23.44758,0
            121.35119,23.44764,0
            121.35116,23.44781,0
            121.35113,23.44808,0
            121.35108,23.44824,0
            121.35104,23.44832,0
            121.35096,23.44841,0
            121.35085,23.44849,0
            121.35066,23.44854,0
            121.35049,23.44854,0
            121.35034,23.44848,0
            121.35018,23.44836,0
            121.35001,23.44817,0
            121.34985,23.44795,0
            121.34973,23.4477,0
            121.34969,23.4475,0
            121.34965,23.44713,0
            121.34965,23.44705,0
            121.34995,23.44611,0
            121.34996,23.44593,0
            121.34993,23.4457,0
            121.34988,23.44548,0
            121.34973,23.44494,0
            121.34972,23.44486,0
            121.34973,23.44472,0
            121.34977,23.44451,0
            121.34982,23.44435,0
            121.34997,23.44408,0
            121.35015,23.44386,0
            121.3504,23.44365,0
            121.35076,23.44341,0
            121.35109,23.44313,0
            121.35119,23.44301,0
            121.35125,23.44285,0
            121.35127,23.44272,0
            121.35127,23.44233,0
            121.35126,23.44212,0
            121.35129,23.44201,0
            121.35133,23.44191,0
            121.35142,23.4418,0
            121.3515,23.44172,0
            121.35157,23.44168,0
            121.35169,23.44163,0
            121.35181,23.44159,0
            121.35236,23.44148,0
            121.35271,23.44134,0
            121.35299,23.44118,0
            121.35339,23.44093,0
            121.35399,23.4406,0
            121.35414,23.44046,0
            121.35425,23.44031,0
            121.3543,23.44022,0
            121.35436,23.44005,0
            121.35439,23.43992,0
            121.35438,23.43974,0
            121.35436,23.43962,0
            121.35427,23.4393,0
            121.35411,23.43887,0
            121.35411,23.43886,0
            121.35365,23.43791,0
            121.35361,23.43784,0
            121.35346,23.43744,0
            121.35313,23.43619,0
            121.35304,23.43596,0
            121.35288,23.43576,0
            121.35265,23.43553,0
            121.35241,23.43535,0
            121.352,23.4351,0
            121.35182,23.43496,0
            121.35171,23.43484,0
            121.3514,23.43438,0
            121.34922,23.43048,0
            121.34897,23.43007,0
            121.34799,23.42833,0
            121.34793,23.42821,0
            121.34767,23.42784,0
            121.34764,23.42778,0
            121.34636,23.42422,0
            121.34587,23.42308,0
            121.34561,23.4224,0
            121.33881,23.40586,0
            121.33853,23.40525,0
            121.33706,23.40163,0
            121.33634,23.40002,0
            121.33608,23.39938,0
            121.33558,23.39826,0
            121.33323,23.39264,0
            121.3332,23.39259,0
            121.33317,23.3925,0
            121.33012,23.38525,0
            121.32996,23.38477,0
            121.32987,23.3844,0
            121.32981,23.38381,0
            121.32978,23.38247,0
            121.32953,23.3792,0
            121.32941,23.37663,0
            121.32936,23.37591,0
            121.32928,23.37538,0
            121.32918,23.37493,0
            121.32902,23.37437,0
            121.32885,23.37391,0
            121.32497,23.36236,0
            121.32495,23.36227,0
            121.32398,23.35938,0
            121.32389,23.35906,0
            121.32386,23.35888,0
            121.32382,23.35885,0
            121.3238,23.35882,0
            121.32373,23.35851,0
            121.32344,23.35765,0
            121.32304,23.35634,0
            121.32281,23.35579,0
            121.32268,23.35555,0
            121.32252,23.35521,0
            121.32243,23.35504,0
            121.32184,23.35404,0
            121.32174,23.35389,0
            121.32072,23.35265,0
            121.32048,23.35226,0
            121.32031,23.35186,0
            121.32027,23.35173,0
            121.3202,23.35156,0
            121.31983,23.35054,0
            121.31976,23.35037,0
            121.31857,23.34709,0
            121.31999,23.34669,0
            121.31969,23.34588,0
          </coordinates>
        </LineString>
      </Placemark>
      <Placemark>
        <name>花蓮縣花蓮市主權里中原路花蓮縣花蓮市中原國民小學</name>
        <styleUrl>#icon-1899-DB4436-nodesc</styleUrl>
        <Point>
          <coordinates>
            121.5962739,23.9720455,0
          </coordinates>
        </Point>
      </Placemark>
      <Placemark>
        <name>花蓮縣光復鄉光復車站</name>
        <styleUrl>#icon-1899-DB4436-nodesc</styleUrl>
        <Point>
          <coordinates>
            121.4213087,23.6663235,0
          </coordinates>
        </Point>
      </Placemark>
      <Placemark>
        <name>花蓮縣瑞穗鄉舞鶴村中正南路二段北回歸線標誌公園</name>
        <styleUrl>#icon-1899-DB4436-nodesc</styleUrl>
        <Point>
          <coordinates>
            121.3572704,23.4658357,0
          </coordinates>
        </Point>
      </Placemark>
      <Placemark>
        <name>花蓮縣玉里鎮永昌里中華路國立玉里高級中學</name>
        <styleUrl>#icon-1899-DB4436-nodesc</styleUrl>
        <Point>
          <coordinates>
            121.3196887,23.3458841,0
          </coordinates>
        </Point>
      </Placemark>
    </Folder>
  </Document>
</kml>
