<?xml version="1.0" encoding="UTF-8"?>
<kml xmlns="http://www.opengis.net/kml/2.2">
  <Document>
    <name>2026環島Day13</name>
    <description>嘉義→埔里</description>
    <Style id="icon-1899-DB4436-nodesc-normal">
      <IconStyle>
        <color>ff3644db</color>
        <scale>1</scale>
        <Icon>
          <href>https://www.gstatic.com/mapspro/images/stock/503-wht-blank_maps.png</href>
        </Icon>
        <hotSpot x="32" xunits="pixels" y="64" yunits="insetPixels"/>
      </IconStyle>
      <LabelStyle>
        <scale>0</scale>
      </LabelStyle>
      <BalloonStyle>
        <text><![CDATA[<h3>$[name]</h3>]]></text>
      </BalloonStyle>
    </Style>
    <Style id="icon-1899-DB4436-nodesc-highlight">
      <IconStyle>
        <color>ff3644db</color>
        <scale>1</scale>
        <Icon>
          <href>https://www.gstatic.com/mapspro/images/stock/503-wht-blank_maps.png</href>
        </Icon>
        <hotSpot x="32" xunits="pixels" y="64" yunits="insetPixels"/>
      </IconStyle>
      <LabelStyle>
        <scale>1</scale>
      </LabelStyle>
      <BalloonStyle>
        <text><![CDATA[<h3>$[name]</h3>]]></text>
      </BalloonStyle>
    </Style>
    <StyleMap id="icon-1899-DB4436-nodesc">
      <Pair>
        <key>normal</key>
        <styleUrl>#icon-1899-DB4436-nodesc-normal</styleUrl>
      </Pair>
      <Pair>
        <key>highlight</key>
        <styleUrl>#icon-1899-DB4436-nodesc-highlight</styleUrl>
      </Pair>
    </StyleMap>
    <Style id="line-1267FF-5000-nodesc-normal">
      <LineStyle>
        <color>ffff6712</color>
        <width>5</width>
      </LineStyle>
      <BalloonStyle>
        <text><![CDATA[<h3>$[name]</h3>]]></text>
      </BalloonStyle>
    </Style>
    <Style id="line-1267FF-5000-nodesc-highlight">
      <LineStyle>
        <color>ffff6712</color>
        <width>7.5</width>
      </LineStyle>
      <BalloonStyle>
        <text><![CDATA[<h3>$[name]</h3>]]></text>
      </BalloonStyle>
    </Style>
    <StyleMap id="line-1267FF-5000-nodesc">
      <Pair>
        <key>normal</key>
        <styleUrl>#line-1267FF-5000-nodesc-normal</styleUrl>
      </Pair>
      <Pair>
        <key>highlight</key>
        <styleUrl>#line-1267FF-5000-nodesc-highlight</styleUrl>
      </Pair>
    </StyleMap>
    <Folder>
      <name>(未命名的圖層)</name>
    </Folder>
    <Folder>
      <name>崇文國小→埔里酒廠</name>
      <Placemark>
        <name>崇文國小→埔里酒廠</name>
        <styleUrl>#line-1267FF-5000-nodesc</styleUrl>
        <LineString>
          <tessellate>1</tessellate>
          <coordinates>
            120.45286,23.47404,0
            120.45372,23.47411,0
            120.45384,23.47411,0
            120.45382,23.47425,0
            120.45382,23.47437,0
            120.45379,23.47477,0
            120.45375,23.4749,0
            120.4537,23.47529,0
            120.4537,23.47535,0
            120.4536,23.47632,0
            120.45359,23.47634,0
            120.45345,23.47773,0
            120.45345,23.47779,0
            120.4531,23.48031,0
            120.45289,23.48137,0
            120.45254,23.48252,0
            120.45257,23.48256,0
            120.45261,23.48263,0
            120.45262,23.48267,0
            120.45264,23.48269,0
            120.45269,23.48282,0
            120.45272,23.48286,0
            120.45275,23.48287,0
            120.45389,23.48306,0
            120.45386,23.4833,0
            120.45386,23.48334,0
            120.45364,23.48477,0
            120.45354,23.4856,0
            120.45346,23.48591,0
            120.45345,23.486,0
            120.45349,23.48614,0
            120.45348,23.48624,0
            120.45348,23.48634,0
            120.4533,23.48767,0
            120.45298,23.4896,0
            120.45294,23.49008,0
            120.45294,23.49032,0
            120.45269,23.49185,0
            120.45267,23.49206,0
            120.45264,23.49223,0
            120.45261,23.49233,0
            120.45249,23.49318,0
            120.4524,23.49364,0
            120.45206,23.49588,0
            120.452,23.4964,0
            120.45178,23.49698,0
            120.45174,23.49705,0
            120.45173,23.49705,0
            120.45156,23.49755,0
            120.4511,23.49867,0
            120.45079,23.49931,0
            120.44774,23.50444,0
            120.44765,23.50462,0
            120.44752,23.50499,0
            120.44715,23.50653,0
            120.44697,23.50717,0
            120.44622,23.50902,0
            120.44601,23.50946,0
            120.44598,23.5095,0
            120.44567,23.51005,0
            120.44323,23.51377,0
            120.44188,23.51611,0
            120.44141,23.51686,0
            120.44119,23.51726,0
            120.44106,23.51755,0
            120.44093,23.51794,0
            120.44079,23.51843,0
            120.44038,23.52027,0
            120.44029,23.52056,0
            120.43954,23.52374,0
            120.4395,23.52387,0
            120.43896,23.52631,0
            120.43846,23.52837,0
            120.43833,23.52879,0
            120.43807,23.52945,0
            120.4374,23.53074,0
            120.43738,23.53077,0
            120.43722,23.53121,0
            120.43722,23.53122,0
            120.43717,23.53141,0
            120.4369,23.53319,0
            120.43684,23.53371,0
            120.43638,23.5366,0
            120.43632,23.53679,0
            120.43612,23.53724,0
            120.43607,23.53732,0
            120.43393,23.54133,0
            120.4339,23.54137,0
            120.43367,23.5418,0
            120.43348,23.54226,0
            120.43331,23.54282,0
            120.43322,23.54353,0
            120.43324,23.54422,0
            120.43343,23.54687,0
            120.43358,23.5484,0
            120.43362,23.54916,0
            120.43407,23.55387,0
            120.43409,23.55446,0
            120.43407,23.55466,0
            120.43404,23.55476,0
            120.43392,23.55549,0
            120.43362,23.55679,0
            120.43361,23.55686,0
            120.43361,23.55698,0
            120.43369,23.55729,0
            120.43445,23.56107,0
            120.43446,23.56108,0
            120.4346,23.56181,0
            120.43462,23.56188,0
            120.43471,23.56235,0
            120.4348,23.56562,0
            120.43483,23.5658,0
            120.43508,23.56668,0
            120.43518,23.56711,0
            120.43524,23.56729,0
            120.43553,23.56802,0
            120.43573,23.56862,0
            120.43776,23.57388,0
            120.43792,23.57424,0
            120.43815,23.5749,0
            120.44173,23.58423,0
            120.44201,23.58485,0
            120.44208,23.58497,0
            120.44256,23.58598,0
            120.44267,23.58626,0
            120.44291,23.58726,0
            120.44291,23.58729,0
            120.4432,23.58848,0
            120.44332,23.58883,0
            120.44338,23.58897,0
            120.44369,23.58958,0
            120.44371,23.58961,0
            120.44393,23.59007,0
            120.44438,23.59122,0
            120.44444,23.59135,0
            120.4445,23.59155,0
            120.4445,23.59157,0
            120.44471,23.59214,0
            120.44478,23.59238,0
            120.4449,23.59289,0
            120.44504,23.59398,0
            120.44513,23.59513,0
            120.44592,23.59578,0
            120.44595,23.59578,0
            120.44597,23.59579,0
            120.44598,23.59579,0
            120.446,23.5958,0
            120.44601,23.5958,0
            120.44678,23.59648,0
            120.44723,23.59684,0
            120.4473,23.59685,0
            120.4479,23.59737,0
            120.44929,23.5985,0
            120.44946,23.59868,0
            120.44948,23.59875,0
            120.44956,23.59882,0
            120.4497,23.59886,0
            120.44984,23.59897,0
            120.45007,23.59921,0
            120.45021,23.59933,0
            120.45034,23.59942,0
            120.45349,23.60202,0
            120.45409,23.60259,0
            120.45415,23.60268,0
            120.45416,23.60269,0
            120.45419,23.60283,0
            120.45421,23.60315,0
            120.4542,23.60369,0
            120.45421,23.6037,0
            120.4542,23.60375,0
            120.45421,23.60444,0
            120.45423,23.60449,0
            120.45424,23.60455,0
            120.45434,23.60475,0
            120.45475,23.60538,0
            120.45482,23.60546,0
            120.4552,23.606,0
            120.45522,23.60605,0
            120.45524,23.60617,0
            120.45813,23.60671,0
            120.45857,23.60682,0
            120.45876,23.60691,0
            120.45906,23.60713,0
            120.45921,23.60726,0
            120.45963,23.6077,0
            120.46131,23.60965,0
            120.46147,23.60987,0
            120.46712,23.62115,0
            120.46767,23.62238,0
            120.46769,23.62245,0
            120.46776,23.62263,0
            120.46789,23.62322,0
            120.46866,23.62848,0
            120.46868,23.62868,0
            120.46868,23.62898,0
            120.46866,23.6293,0
            120.46864,23.62942,0
            120.46863,23.62954,0
            120.46823,23.63191,0
            120.46816,23.6325,0
            120.46816,23.63277,0
            120.46819,23.63313,0
            120.47474,23.66418,0
            120.47484,23.66458,0
            120.47516,23.66614,0
            120.47518,23.6662,0
            120.47519,23.66628,0
            120.47561,23.66821,0
            120.47579,23.66937,0
            120.47612,23.67188,0
            120.47613,23.67205,0
            120.47638,23.67391,0
            120.47637,23.67398,0
            120.47624,23.67687,0
            120.47624,23.6771,0
            120.47625,23.67715,0
            120.47632,23.67734,0
            120.47639,23.67747,0
            120.47645,23.67755,0
            120.47659,23.67769,0
            120.4767,23.67777,0
            120.47686,23.67785,0
            120.47697,23.67789,0
            120.47985,23.67843,0
            120.47992,23.67845,0
            120.47998,23.67846,0
            120.4801,23.6785,0
            120.48034,23.67864,0
            120.48054,23.67881,0
            120.48063,23.67894,0
            120.4807,23.67909,0
            120.48076,23.67928,0
            120.48126,23.68197,0
            120.48145,23.68326,0
            120.48144,23.68343,0
            120.48143,23.68348,0
            120.48142,23.6836,0
            120.48135,23.68394,0
            120.48123,23.68425,0
            120.48114,23.68457,0
            120.48111,23.68472,0
            120.48102,23.685,0
            120.48086,23.68539,0
            120.48071,23.68583,0
            120.4838,23.6857,0
            120.4841,23.68563,0
            120.4846,23.68547,0
            120.48541,23.68528,0
            120.48765,23.68467,0
            120.48997,23.68414,0
            120.49005,23.68411,0
            120.49062,23.68396,0
            120.49068,23.68395,0
            120.49076,23.68392,0
            120.49097,23.68387,0
            120.49199,23.68357,0
            120.49228,23.68352,0
            120.49263,23.68352,0
            120.49303,23.68359,0
            120.49304,23.6836,0
            120.49333,23.68371,0
            120.49437,23.68427,0
            120.50118,23.68831,0
            120.50151,23.68848,0
            120.51386,23.69394,0
            120.51418,23.69406,0
            120.51661,23.69482,0
            120.52051,23.69597,0
            120.52076,23.69603,0
            120.52153,23.69626,0
            120.52246,23.695,0
            120.5227,23.69476,0
            120.52289,23.6946,0
            120.52309,23.6945,0
            120.5233,23.69443,0
            120.52352,23.69439,0
            120.52375,23.69438,0
            120.52407,23.69442,0
            120.5273,23.69497,0
            120.52768,23.69505,0
            120.52774,23.69507,0
            120.53824,23.69683,0
            120.54091,23.69743,0
            120.54259,23.69775,0
            120.54334,23.69803,0
            120.54499,23.69888,0
            120.54529,23.69906,0
            120.54638,23.69956,0
            120.55007,23.70088,0
            120.5511,23.70131,0
            120.55197,23.70173,0
            120.55275,23.70222,0
            120.55304,23.70243,0
            120.55402,23.70324,0
            120.55432,23.70361,0
            120.55447,23.70387,0
            120.55458,23.7041,0
            120.55474,23.70435,0
            120.55596,23.70752,0
            120.55629,23.70859,0
            120.55667,23.71025,0
            120.5569,23.71186,0
            120.55695,23.71237,0
            120.55695,23.71274,0
            120.56283,23.71496,0
            120.56339,23.71519,0
            120.56456,23.71562,0
            120.56478,23.71577,0
            120.56655,23.7164,0
            120.56792,23.71685,0
            120.56857,23.7171,0
            120.57023,23.71767,0
            120.57034,23.7177,0
            120.57166,23.71815,0
            120.5717,23.71813,0
            120.57172,23.71813,0
            120.57181,23.71815,0
            120.57198,23.71822,0
            120.57202,23.71823,0
            120.57203,23.71824,0
            120.57472,23.71919,0
            120.57473,23.71919,0
            120.5748,23.71922,0
            120.57482,23.71924,0
            120.57484,23.71927,0
            120.57605,23.7197,0
            120.57616,23.71975,0
            120.58221,23.72191,0
            120.58246,23.72202,0
            120.58264,23.72212,0
            120.58338,23.72273,0
            120.58345,23.72281,0
            120.58438,23.72355,0
            120.58461,23.72377,0
            120.58728,23.72597,0
            120.59271,23.73059,0
            120.59399,23.73172,0
            120.59407,23.73178,0
            120.5942,23.73185,0
            120.59444,23.73205,0
            120.5945,23.73211,0
            120.595,23.73252,0
            120.59529,23.73279,0
            120.59547,23.73294,0
            120.59699,23.7349,0
            120.59708,23.73508,0
            120.5971,23.73517,0
            120.5974,23.7355,0
            120.59775,23.73593,0
            120.59776,23.73593,0
            120.5979,23.73612,0
            120.59795,23.73617,0
            120.59929,23.7379,0
            120.60013,23.73881,0
            120.60018,23.73888,0
            120.60228,23.74066,0
            120.60565,23.74332,0
            120.60591,23.74356,0
            120.60637,23.74416,0
            120.60692,23.74503,0
            120.60694,23.74508,0
            120.6072,23.74552,0
            120.6075,23.74598,0
            120.60761,23.74613,0
            120.60821,23.74705,0
            120.60882,23.74805,0
            120.60885,23.74811,0
            120.60937,23.74895,0
            120.61009,23.75056,0
            120.61023,23.7508,0
            120.6108,23.75193,0
            120.61099,23.75226,0
            120.61116,23.75252,0
            120.61124,23.75267,0
            120.61129,23.75283,0
            120.61128,23.7529,0
            120.61128,23.75295,0
            120.6112,23.75319,0
            120.61118,23.75323,0
            120.61113,23.75337,0
            120.61089,23.75422,0
            120.61088,23.75428,0
            120.61064,23.75516,0
            120.61054,23.75575,0
            120.6105,23.75638,0
            120.61049,23.75642,0
            120.61043,23.75726,0
            120.61052,23.75816,0
            120.61052,23.75824,0
            120.61053,23.75832,0
            120.61064,23.75884,0
            120.61076,23.75914,0
            120.61085,23.75932,0
            120.611,23.75955,0
            120.6111,23.75968,0
            120.61135,23.75995,0
            120.61155,23.76012,0
            120.61328,23.76147,0
            120.61529,23.76313,0
            120.61547,23.76323,0
            120.61778,23.76497,0
            120.62114,23.76737,0
            120.62118,23.76739,0
            120.6229,23.76862,0
            120.62667,23.77106,0
            120.62716,23.77135,0
            120.62772,23.77161,0
            120.62792,23.77169,0
            120.6287,23.77194,0
            120.62924,23.77206,0
            120.6299,23.77215,0
            120.63044,23.77218,0
            120.63114,23.77217,0
            120.63214,23.7721,0
            120.6323,23.77212,0
            120.63436,23.77198,0
            120.6345,23.77196,0
            120.63717,23.77174,0
            120.63749,23.77174,0
            120.63774,23.77178,0
            120.63779,23.7718,0
            120.63782,23.77182,0
            120.63793,23.77187,0
            120.63893,23.77244,0
            120.63932,23.77259,0
            120.63991,23.77271,0
            120.64096,23.77275,0
            120.64116,23.77274,0
            120.64122,23.77269,0
            120.64124,23.77268,0
            120.64153,23.7726,0
            120.6418,23.77249,0
            120.64192,23.77243,0
            120.64226,23.77222,0
            120.64254,23.77199,0
            120.64433,23.77006,0
            120.64446,23.7699,0
            120.64466,23.76957,0
            120.6448,23.76923,0
            120.64483,23.7691,0
            120.64484,23.76883,0
            120.6449,23.76856,0
            120.6449,23.76853,0
            120.64501,23.76791,0
            120.64509,23.76766,0
            120.64509,23.76765,0
            120.64515,23.76747,0
            120.64519,23.76739,0
            120.64521,23.76732,0
            120.64526,23.76723,0
            120.64547,23.76692,0
            120.64566,23.76671,0
            120.64575,23.76664,0
            120.6458,23.76662,0
            120.64646,23.7661,0
            120.64649,23.76607,0
            120.64662,23.76597,0
            120.64696,23.76561,0
            120.64714,23.76534,0
            120.64869,23.76228,0
            120.64873,23.76222,0
            120.6489,23.76187,0
            120.64891,23.76183,0
            120.64907,23.76146,0
            120.64919,23.76126,0
            120.64938,23.76103,0
            120.64963,23.76087,0
            120.64982,23.76079,0
            120.65011,23.76072,0
            120.6502,23.76071,0
            120.65192,23.76036,0
            120.65195,23.76035,0
            120.65679,23.75935,0
            120.65686,23.75933,0
            120.65699,23.75931,0
            120.65769,23.75915,0
            120.65775,23.75913,0
            120.66116,23.7583,0
            120.6619,23.75819,0
            120.66198,23.75817,0
            120.66317,23.75798,0
            120.66431,23.75787,0
            120.66492,23.75778,0
            120.66506,23.75775,0
            120.66933,23.75712,0
            120.67114,23.75682,0
            120.67127,23.75681,0
            120.67151,23.75675,0
            120.67189,23.75661,0
            120.67241,23.75628,0
            120.67258,23.75615,0
            120.67276,23.75598,0
            120.67294,23.75569,0
            120.67313,23.75533,0
            120.67337,23.755,0
            120.67355,23.75483,0
            120.67368,23.75475,0
            120.67383,23.75469,0
            120.674,23.75465,0
            120.67633,23.75424,0
            120.67644,23.75423,0
            120.67663,23.75426,0
            120.67722,23.75451,0
            120.67733,23.7546,0
            120.67805,23.75532,0
            120.67815,23.75551,0
            120.67828,23.75571,0
            120.67832,23.75579,0
            120.67916,23.7571,0
            120.67939,23.75738,0
            120.68002,23.75831,0
            120.68029,23.7586,0
            120.68062,23.75885,0
            120.68085,23.75895,0
            120.68106,23.75906,0
            120.68146,23.75923,0
            120.68229,23.75953,0
            120.68246,23.75961,0
            120.68318,23.75984,0
            120.68445,23.76016,0
            120.68583,23.76031,0
            120.68819,23.76046,0
            120.68914,23.76056,0
            120.6897,23.7606,0
            120.68986,23.76063,0
            120.69163,23.76072,0
            120.69203,23.76076,0
            120.69317,23.76112,0
            120.69337,23.76113,0
            120.69404,23.76135,0
            120.69919,23.76289,0
            120.70025,23.76326,0
            120.70205,23.76383,0
            120.70279,23.7641,0
            120.70314,23.7643,0
            120.70375,23.7647,0
            120.70412,23.7649,0
            120.70489,23.7654,0
            120.70532,23.76577,0
            120.70551,23.76597,0
            120.70576,23.76618,0
            120.70652,23.76695,0
            120.70657,23.76702,0
            120.7066,23.76705,0
            120.70665,23.76715,0
            120.70668,23.76733,0
            120.70696,23.76972,0
            120.70699,23.76982,0
            120.70724,23.77036,0
            120.70739,23.77063,0
            120.70744,23.77081,0
            120.70745,23.77087,0
            120.70745,23.77092,0
            120.7074,23.77115,0
            120.70718,23.77187,0
            120.70714,23.77206,0
            120.70714,23.7721,0
            120.70713,23.7721,0
            120.70713,23.77218,0
            120.70714,23.77221,0
            120.70714,23.77225,0
            120.70726,23.7727,0
            120.70738,23.77298,0
            120.70764,23.77347,0
            120.70805,23.77412,0
            120.70814,23.77422,0
            120.70817,23.77424,0
            120.70872,23.77474,0
            120.70895,23.77493,0
            120.70955,23.7755,0
            120.70998,23.77583,0
            120.71021,23.77596,0
            120.7106,23.77624,0
            120.7121,23.7771,0
            120.71229,23.77739,0
            120.71236,23.77758,0
            120.71241,23.77782,0
            120.71241,23.77793,0
            120.71238,23.77819,0
            120.7123,23.77867,0
            120.71195,23.78032,0
            120.71176,23.7811,0
            120.71168,23.78153,0
            120.71167,23.78172,0
            120.71169,23.78199,0
            120.71181,23.78238,0
            120.71208,23.78299,0
            120.71209,23.783,0
            120.71224,23.78333,0
            120.71227,23.78338,0
            120.71233,23.78351,0
            120.71235,23.78354,0
            120.71241,23.78371,0
            120.71248,23.78407,0
            120.71247,23.78449,0
            120.71243,23.78466,0
            120.71229,23.78503,0
            120.71222,23.78514,0
            120.71204,23.78536,0
            120.71186,23.78555,0
            120.71166,23.78571,0
            120.71063,23.78643,0
            120.71035,23.78666,0
            120.71018,23.78687,0
            120.70992,23.78726,0
            120.70974,23.78774,0
            120.70963,23.78823,0
            120.70962,23.78824,0
            120.70953,23.78874,0
            120.70944,23.78908,0
            120.70921,23.7897,0
            120.70881,23.79063,0
            120.70878,23.79075,0
            120.70876,23.79095,0
            120.70878,23.79135,0
            120.70882,23.79151,0
            120.70895,23.79181,0
            120.70966,23.793,0
            120.71007,23.79375,0
            120.71031,23.79424,0
            120.71062,23.79475,0
            120.71068,23.79482,0
            120.71104,23.79544,0
            120.71107,23.79551,0
            120.71111,23.79557,0
            120.71153,23.79638,0
            120.71303,23.79896,0
            120.71369,23.80023,0
            120.7137,23.80036,0
            120.71422,23.80137,0
            120.71468,23.80318,0
            120.71474,23.80336,0
            120.71488,23.80363,0
            120.71522,23.80418,0
            120.71526,23.80423,0
            120.71539,23.80447,0
            120.71545,23.80455,0
            120.71585,23.8052,0
            120.71626,23.80582,0
            120.71637,23.80595,0
            120.71775,23.80741,0
            120.71815,23.80777,0
            120.71919,23.80855,0
            120.71952,23.80882,0
            120.72057,23.80979,0
            120.72082,23.80997,0
            120.7212,23.81015,0
            120.72268,23.81106,0
            120.72281,23.81116,0
            120.72287,23.81124,0
            120.72293,23.81134,0
            120.72301,23.8115,0
            120.72304,23.81169,0
            120.72305,23.81172,0
            120.72305,23.81175,0
            120.72306,23.81179,0
            120.72305,23.81184,0
            120.72305,23.81188,0
            120.72248,23.81456,0
            120.7225,23.81467,0
            120.72252,23.81473,0
            120.72256,23.81479,0
            120.7226,23.81487,0
            120.72266,23.81494,0
            120.72271,23.81497,0
            120.72363,23.81528,0
            120.72396,23.81537,0
            120.72402,23.81537,0
            120.72409,23.81532,0
            120.7241,23.81532,0
            120.72465,23.81472,0
            120.72475,23.81465,0
            120.72483,23.81463,0
            120.72491,23.81462,0
            120.72512,23.81462,0
            120.72547,23.81464,0
            120.73104,23.81467,0
            120.7313,23.81469,0
            120.73161,23.81469,0
            120.73171,23.81468,0
            120.73191,23.81463,0
            120.73196,23.81461,0
            120.73215,23.81451,0
            120.73286,23.81383,0
            120.73299,23.81369,0
            120.73339,23.81334,0
            120.73456,23.81277,0
            120.73466,23.81273,0
            120.73492,23.81268,0
            120.73604,23.81252,0
            120.737,23.81241,0
            120.73814,23.81223,0
            120.73817,23.81222,0
            120.73879,23.81215,0
            120.73917,23.81214,0
            120.73935,23.81215,0
            120.73959,23.81219,0
            120.73974,23.81223,0
            120.74094,23.81266,0
            120.74118,23.81276,0
            120.74403,23.81372,0
            120.74446,23.81382,0
            120.74466,23.81384,0
            120.74498,23.81385,0
            120.74505,23.81386,0
            120.74655,23.81385,0
            120.74681,23.81387,0
            120.74698,23.8139,0
            120.74775,23.81414,0
            120.74798,23.81424,0
            120.74841,23.81438,0
            120.74866,23.81442,0
            120.752,23.81437,0
            120.75217,23.81438,0
            120.75243,23.81445,0
            120.75251,23.81449,0
            120.75416,23.81548,0
            120.7544,23.81561,0
            120.75451,23.81568,0
            120.75481,23.81581,0
            120.75502,23.81587,0
            120.75503,23.81587,0
            120.75638,23.81617,0
            120.75692,23.81626,0
            120.75705,23.81627,0
            120.75723,23.81627,0
            120.7585,23.81612,0
            120.75937,23.81594,0
            120.75961,23.81592,0
            120.76034,23.8159,0
            120.7604,23.81589,0
            120.76083,23.81589,0
            120.76099,23.81588,0
            120.76225,23.81587,0
            120.76234,23.81588,0
            120.76241,23.81588,0
            120.7625,23.81589,0
            120.76273,23.81596,0
            120.76277,23.81598,0
            120.7629,23.81608,0
            120.76293,23.81611,0
            120.76293,23.81612,0
            120.76295,23.81614,0
            120.76297,23.81617,0
            120.76298,23.8162,0
            120.76298,23.81623,0
            120.76299,23.81628,0
            120.76309,23.81735,0
            120.76309,23.81743,0
            120.76323,23.81915,0
            120.76326,23.81991,0
            120.76325,23.81996,0
            120.76326,23.82001,0
            120.76326,23.82005,0
            120.76327,23.82007,0
            120.76327,23.82011,0
            120.7633,23.8202,0
            120.76331,23.82021,0
            120.76332,23.82023,0
            120.76335,23.82026,0
            120.76337,23.82029,0
            120.76392,23.82092,0
            120.76398,23.821,0
            120.76413,23.82117,0
            120.76479,23.82209,0
            120.76481,23.82211,0
            120.76505,23.82243,0
            120.76538,23.8228,0
            120.76566,23.82307,0
            120.76584,23.82322,0
            120.76587,23.82323,0
            120.76595,23.82329,0
            120.76637,23.82352,0
            120.76649,23.82361,0
            120.76673,23.82387,0
            120.76708,23.82438,0
            120.76712,23.82442,0
            120.76715,23.82446,0
            120.76719,23.82448,0
            120.76722,23.82451,0
            120.7674,23.82462,0
            120.76796,23.82491,0
            120.7681,23.82504,0
            120.76836,23.82543,0
            120.76862,23.82586,0
            120.7687,23.82597,0
            120.76876,23.82607,0
            120.76881,23.82612,0
            120.76884,23.82616,0
            120.76896,23.82627,0
            120.76913,23.82639,0
            120.76995,23.82672,0
            120.77034,23.82686,0
            120.77141,23.82733,0
            120.77186,23.8275,0
            120.77202,23.82755,0
            120.77202,23.82756,0
            120.7723,23.8276,0
            120.7724,23.8276,0
            120.77248,23.82761,0
            120.77256,23.82761,0
            120.77263,23.8276,0
            120.77268,23.8276,0
            120.77301,23.82754,0
            120.77383,23.82718,0
            120.774,23.82709,0
            120.77404,23.82706,0
            120.77504,23.82651,0
            120.77507,23.8265,0
            120.77528,23.82639,0
            120.77542,23.82633,0
            120.77543,23.82633,0
            120.77547,23.82631,0
            120.7756,23.82628,0
            120.77575,23.82626,0
            120.776,23.82625,0
            120.77656,23.82714,0
            120.7767,23.8271,0
            120.77751,23.827,0
            120.77756,23.827,0
            120.77888,23.82687,0
            120.77942,23.82685,0
            120.78187,23.82692,0
            120.78472,23.82694,0
            120.78478,23.82693,0
            120.78486,23.8269,0
            120.7849,23.82686,0
            120.78493,23.82684,0
            120.78495,23.82682,0
            120.78499,23.8268,0
            120.78565,23.82661,0
            120.78603,23.82652,0
            120.78611,23.82652,0
            120.78624,23.8265,0
            120.78694,23.82651,0
            120.79257,23.82674,0
            120.79257,23.8267,0
            120.79256,23.82665,0
            120.79256,23.82662,0
            120.79257,23.82656,0
            120.79251,23.82572,0
            120.79251,23.82559,0
            120.79254,23.82515,0
            120.79261,23.82487,0
            120.79281,23.82376,0
            120.79289,23.82344,0
            120.79333,23.82196,0
            120.79333,23.82195,0
            120.79342,23.82157,0
            120.79342,23.82145,0
            120.79794,23.821,0
            120.79814,23.82097,0
            120.79909,23.82091,0
            120.80407,23.8208,0
            120.80774,23.82084,0
            120.8082,23.82087,0
            120.8091,23.82099,0
            120.80974,23.82105,0
            120.81071,23.82118,0
            120.81129,23.82122,0
            120.81395,23.82107,0
            120.8144,23.82107,0
            120.8151,23.82112,0
            120.8217,23.82286,0
            120.82172,23.82286,0
            120.82478,23.82373,0
            120.82572,23.82394,0
            120.82594,23.82397,0
            120.82603,23.82399,0
            120.82736,23.82416,0
            120.82773,23.82419,0
            120.82831,23.8242,0
            120.82885,23.82417,0
            120.8297,23.82403,0
            120.82993,23.82396,0
            120.83074,23.82361,0
            120.83097,23.82349,0
            120.83151,23.82327,0
            120.83192,23.82315,0
            120.83215,23.8231,0
            120.83352,23.82287,0
            120.83465,23.82272,0
            120.8362,23.82263,0
            120.83664,23.82258,0
            120.83699,23.82252,0
            120.83775,23.82231,0
            120.83811,23.82218,0
            120.83897,23.82181,0
            120.83953,23.82149,0
            120.83994,23.82119,0
            120.84008,23.82107,0
            120.84122,23.81989,0
            120.8414,23.81973,0
            120.84201,23.81929,0
            120.84243,23.81907,0
            120.84417,23.81834,0
            120.84452,23.81815,0
            120.84467,23.81805,0
            120.84509,23.81773,0
            120.8465,23.81644,0
            120.84727,23.8158,0
            120.84752,23.81563,0
            120.84806,23.81534,0
            120.85034,23.81448,0
            120.85038,23.81419,0
            120.85042,23.81354,0
            120.85046,23.81317,0
            120.85062,23.81076,0
            120.85065,23.81052,0
            120.85082,23.80976,0
            120.85093,23.80944,0
            120.85108,23.80907,0
            120.85147,23.80822,0
            120.85191,23.80755,0
            120.85211,23.80732,0
            120.85222,23.80723,0
            120.85209,23.807,0
            120.85222,23.80723,0
            120.85238,23.80717,0
            120.85252,23.80715,0
            120.85331,23.80709,0
            120.8541,23.8071,0
            120.85513,23.80721,0
            120.85533,23.80722,0
            120.85641,23.80733,0
            120.85786,23.80757,0
            120.85793,23.80759,0
            120.85957,23.8079,0
            120.85977,23.80788,0
            120.8599,23.80785,0
            120.86001,23.80779,0
            120.86013,23.80767,0
            120.86022,23.80746,0
            120.86025,23.80731,0
            120.86027,23.80699,0
            120.86018,23.80652,0
            120.86019,23.80636,0
            120.86022,23.80626,0
            120.86032,23.80607,0
            120.86045,23.80588,0
            120.86054,23.80569,0
            120.86082,23.80449,0
            120.8609,23.80422,0
            120.86132,23.80321,0
            120.86138,23.80301,0
            120.86157,23.80222,0
            120.86169,23.80194,0
            120.86179,23.80177,0
            120.86191,23.8016,0
            120.86198,23.80153,0
            120.862,23.80152,0
            120.86207,23.80147,0
            120.86216,23.80144,0
            120.86287,23.80131,0
            120.86293,23.80128,0
            120.86298,23.80124,0
            120.86303,23.80119,0
            120.86308,23.8011,0
            120.8631,23.80104,0
            120.86311,23.80097,0
            120.8631,23.8007,0
            120.86312,23.80052,0
            120.86317,23.80041,0
            120.86328,23.80031,0
            120.86362,23.80007,0
            120.86372,23.79996,0
            120.86395,23.79967,0
            120.86419,23.79926,0
            120.86455,23.79819,0
            120.86478,23.7976,0
            120.86493,23.79732,0
            120.86497,23.79726,0
            120.86507,23.79716,0
            120.86534,23.797,0
            120.86763,23.79582,0
            120.86774,23.79573,0
            120.86775,23.79571,0
            120.86782,23.79562,0
            120.86787,23.79551,0
            120.8679,23.79541,0
            120.8679,23.79537,0
            120.86791,23.7953,0
            120.86797,23.79504,0
            120.86798,23.79503,0
            120.868,23.79494,0
            120.86805,23.79482,0
            120.86807,23.79475,0
            120.86813,23.79466,0
            120.86819,23.79459,0
            120.86832,23.79448,0
            120.8684,23.79444,0
            120.86846,23.79442,0
            120.86849,23.7944,0
            120.86864,23.79438,0
            120.86866,23.79459,0
            120.86867,23.79525,0
            120.86868,23.79534,0
            120.86884,23.79608,0
            120.86887,23.79651,0
            120.86888,23.79819,0
            120.86878,23.79901,0
            120.86883,23.79974,0
            120.86882,23.79989,0
            120.86873,23.80027,0
            120.86862,23.80062,0
            120.8685,23.80082,0
            120.86836,23.80111,0
            120.86828,23.80124,0
            120.86822,23.80141,0
            120.86818,23.80162,0
            120.8682,23.80173,0
            120.86822,23.80211,0
            120.86826,23.80246,0
            120.8683,23.80338,0
            120.8684,23.80463,0
            120.86829,23.80497,0
            120.86809,23.80542,0
            120.86793,23.80584,0
            120.86793,23.80597,0
            120.86794,23.806,0
            120.86794,23.80601,0
            120.86803,23.80614,0
            120.86805,23.80615,0
            120.86855,23.80656,0
            120.86856,23.80658,0
            120.86861,23.80664,0
            120.86861,23.80665,0
            120.86881,23.80701,0
            120.86893,23.80719,0
            120.86898,23.80725,0
            120.86901,23.80727,0
            120.86902,23.80727,0
            120.86908,23.8073,0
            120.86911,23.80731,0
            120.86973,23.80734,0
            120.8699,23.80738,0
            120.86998,23.80741,0
            120.87037,23.80767,0
            120.87059,23.80778,0
            120.8708,23.80787,0
            120.87139,23.80791,0
            120.87288,23.80785,0
            120.87319,23.8078,0
            120.87335,23.80776,0
            120.8735,23.80769,0
            120.87352,23.80767,0
            120.87355,23.80766,0
            120.87359,23.80763,0
            120.87402,23.80738,0
            120.87416,23.80735,0
            120.87423,23.80735,0
            120.87431,23.80736,0
            120.87466,23.80745,0
            120.87471,23.80747,0
            120.8748,23.80749,0
            120.87515,23.8076,0
            120.87546,23.80768,0
            120.87604,23.80788,0
            120.87623,23.80793,0
            120.87633,23.80793,0
            120.87639,23.80792,0
            120.8764,23.80791,0
            120.87646,23.80788,0
            120.8765,23.80785,0
            120.87654,23.8078,0
            120.87708,23.80693,0
            120.87718,23.80684,0
            120.87725,23.80679,0
            120.87732,23.80676,0
            120.8777,23.80667,0
            120.87772,23.80666,0
            120.87882,23.80645,0
            120.87886,23.80645,0
            120.87956,23.80637,0
            120.8797,23.80637,0
            120.87977,23.80638,0
            120.87986,23.80641,0
            120.87994,23.80647,0
            120.87996,23.80651,0
            120.87997,23.80652,0
            120.87997,23.80667,0
            120.87996,23.8067,0
            120.87993,23.80676,0
            120.87992,23.80682,0
            120.87989,23.80686,0
            120.87989,23.80687,0
            120.87985,23.80698,0
            120.87982,23.8071,0
            120.87984,23.80718,0
            120.87987,23.80723,0
            120.8799,23.80726,0
            120.87994,23.80729,0
            120.87999,23.80731,0
            120.88001,23.80731,0
            120.88009,23.80733,0
            120.8802,23.80733,0
            120.88026,23.80732,0
            120.88034,23.80728,0
            120.88042,23.80722,0
            120.88049,23.80715,0
            120.88053,23.80712,0
            120.88056,23.80708,0
            120.88059,23.80705,0
            120.88064,23.80698,0
            120.88064,23.80697,0
            120.88069,23.80689,0
            120.88072,23.80682,0
            120.88073,23.80681,0
            120.88074,23.80677,0
            120.88081,23.80666,0
            120.88082,23.80663,0
            120.8809,23.80652,0
            120.88098,23.80645,0
            120.88114,23.80636,0
            120.88124,23.80632,0
            120.88129,23.80629,0
            120.88145,23.80623,0
            120.88156,23.80623,0
            120.88172,23.80627,0
            120.88175,23.8063,0
            120.88178,23.80632,0
            120.88179,23.80632,0
            120.88183,23.80635,0
            120.88187,23.80639,0
            120.88188,23.80642,0
            120.8819,23.80644,0
            120.8819,23.80648,0
            120.88191,23.80652,0
            120.88184,23.80727,0
            120.88194,23.80743,0
            120.88199,23.80748,0
            120.88202,23.80749,0
            120.88205,23.80751,0
            120.88216,23.80755,0
            120.88222,23.80756,0
            120.88227,23.80758,0
            120.88232,23.80758,0
            120.8825,23.80761,0
            120.88254,23.80761,0
            120.8826,23.80762,0
            120.88265,23.80762,0
            120.8827,23.80763,0
            120.88279,23.80763,0
            120.88291,23.8076,0
            120.88293,23.80759,0
            120.88297,23.80758,0
            120.883,23.80756,0
            120.88303,23.80755,0
            120.88321,23.80743,0
            120.88331,23.80725,0
            120.88345,23.80705,0
            120.88355,23.80695,0
            120.88376,23.80685,0
            120.88393,23.80686,0
            120.88403,23.80689,0
            120.8841,23.80693,0
            120.88418,23.80699,0
            120.88427,23.80711,0
            120.88451,23.80768,0
            120.88464,23.80805,0
            120.8848,23.80837,0
            120.88481,23.80841,0
            120.88485,23.80849,0
            120.88503,23.80906,0
            120.88509,23.8092,0
            120.88517,23.80934,0
            120.8853,23.80948,0
            120.88537,23.80954,0
            120.88539,23.80955,0
            120.8855,23.80965,0
            120.88552,23.80966,0
            120.88556,23.80971,0
            120.8856,23.80986,0
            120.88557,23.81021,0
            120.88557,23.81031,0
            120.88559,23.81045,0
            120.88565,23.81058,0
            120.88578,23.81078,0
            120.88598,23.81117,0
            120.88616,23.81138,0
            120.88623,23.81149,0
            120.88624,23.81157,0
            120.88623,23.81164,0
            120.88623,23.81182,0
            120.88619,23.81236,0
            120.88605,23.81288,0
            120.88574,23.81359,0
            120.88569,23.81368,0
            120.88562,23.81377,0
            120.88557,23.81382,0
            120.8854,23.81393,0
            120.88486,23.81415,0
            120.88467,23.81429,0
            120.88457,23.8144,0
            120.88423,23.81488,0
            120.88414,23.81505,0
            120.88408,23.81522,0
            120.88405,23.81563,0
            120.88403,23.8157,0
            120.88402,23.81576,0
            120.884,23.81582,0
            120.88397,23.81588,0
            120.88384,23.81608,0
            120.88375,23.81624,0
            120.88369,23.81641,0
            120.88369,23.81649,0
            120.88372,23.81673,0
            120.88378,23.81692,0
            120.88382,23.817,0
            120.88403,23.81717,0
            120.88414,23.81723,0
            120.88497,23.81754,0
            120.88522,23.81757,0
            120.88568,23.81759,0
            120.88577,23.81761,0
            120.88591,23.81767,0
            120.88601,23.81776,0
            120.88626,23.81804,0
            120.88628,23.81805,0
            120.88659,23.81845,0
            120.8866,23.81848,0
            120.8868,23.81875,0
            120.88695,23.81898,0
            120.88715,23.81942,0
            120.88717,23.81949,0
            120.88718,23.81955,0
            120.88718,23.8196,0
            120.88706,23.81991,0
            120.88701,23.82007,0
            120.88697,23.82026,0
            120.88697,23.82045,0
            120.88699,23.82055,0
            120.88704,23.82068,0
            120.88719,23.82091,0
            120.88794,23.8218,0
            120.88811,23.82191,0
            120.88844,23.82207,0
            120.88846,23.82209,0
            120.88848,23.8221,0
            120.88854,23.8222,0
            120.88855,23.82226,0
            120.88855,23.82236,0
            120.88852,23.82246,0
            120.88849,23.82252,0
            120.88845,23.82257,0
            120.88839,23.82261,0
            120.88833,23.82264,0
            120.88812,23.82278,0
            120.88804,23.82287,0
            120.88791,23.82306,0
            120.88787,23.82319,0
            120.88784,23.82341,0
            120.8879,23.82397,0
            120.88792,23.82404,0
            120.88794,23.82407,0
            120.88797,23.8241,0
            120.888,23.82414,0
            120.88805,23.82417,0
            120.8881,23.82418,0
            120.88817,23.82421,0
            120.88855,23.82428,0
            120.88866,23.82431,0
            120.88882,23.82438,0
            120.8889,23.82446,0
            120.88906,23.82476,0
            120.88916,23.82501,0
            120.88921,23.82526,0
            120.88925,23.8254,0
            120.8893,23.82548,0
            120.88937,23.82553,0
            120.88941,23.82555,0
            120.88947,23.82557,0
            120.88956,23.82559,0
            120.88996,23.82561,0
            120.89012,23.82557,0
            120.89054,23.8254,0
            120.89078,23.82539,0
            120.89093,23.82545,0
            120.891,23.8255,0
            120.8914,23.82592,0
            120.89152,23.82609,0
            120.89156,23.82616,0
            120.89172,23.82658,0
            120.89174,23.82662,0
            120.89177,23.82665,0
            120.89181,23.82668,0
            120.8919,23.82672,0
            120.89202,23.82672,0
            120.89212,23.82669,0
            120.89225,23.82663,0
            120.89228,23.8266,0
            120.89233,23.82657,0
            120.89237,23.82653,0
            120.8924,23.82648,0
            120.89246,23.82641,0
            120.89254,23.82622,0
            120.8926,23.82599,0
            120.89261,23.82592,0
            120.89263,23.82587,0
            120.89266,23.82582,0
            120.89266,23.82581,0
            120.8927,23.82576,0
            120.8928,23.82568,0
            120.89292,23.82561,0
            120.89296,23.8256,0
            120.89303,23.82557,0
            120.89313,23.82555,0
            120.89323,23.82554,0
            120.89338,23.82558,0
            120.89345,23.82562,0
            120.89353,23.82569,0
            120.89361,23.82578,0
            120.89368,23.82589,0
            120.89374,23.82602,0
            120.89411,23.82702,0
            120.89416,23.82729,0
            120.89418,23.82756,0
            120.89419,23.82808,0
            120.89418,23.82832,0
            120.89405,23.82853,0
            120.89387,23.82876,0
            120.8938,23.82888,0
            120.89377,23.82896,0
            120.89377,23.829,0
            120.89378,23.82905,0
            120.89385,23.82928,0
            120.89409,23.82977,0
            120.8941,23.82978,0
            120.8942,23.83002,0
            120.89427,23.83032,0
            120.89429,23.83037,0
            120.89436,23.8305,0
            120.89451,23.83059,0
            120.89485,23.83063,0
            120.89582,23.83065,0
            120.89595,23.83068,0
            120.89609,23.83074,0
            120.89618,23.83083,0
            120.89622,23.83089,0
            120.8963,23.83108,0
            120.89632,23.83119,0
            120.89631,23.83128,0
            120.89631,23.83146,0
            120.89627,23.83187,0
            120.89625,23.8319,0
            120.89624,23.83194,0
            120.89617,23.83207,0
            120.89608,23.8322,0
            120.89591,23.83241,0
            120.89577,23.83252,0
            120.89572,23.83257,0
            120.89565,23.83267,0
            120.89564,23.83276,0
            120.89568,23.83302,0
            120.89574,23.83322,0
            120.89577,23.83327,0
            120.89581,23.83336,0
            120.89594,23.83348,0
            120.89624,23.8337,0
            120.89634,23.83386,0
            120.89662,23.83418,0
            120.89674,23.83427,0
            120.89698,23.83438,0
            120.89777,23.83464,0
            120.89815,23.8348,0
            120.89824,23.83485,0
            120.89854,23.83508,0
            120.89879,23.83531,0
            120.89893,23.83551,0
            120.89974,23.83679,0
            120.89995,23.83707,0
            120.90015,23.8373,0
            120.90038,23.83753,0
            120.90069,23.83778,0
            120.90071,23.83779,0
            120.90073,23.83781,0
            120.9009,23.83794,0
            120.90224,23.8388,0
            120.90263,23.83907,0
            120.90272,23.83916,0
            120.90274,23.83919,0
            120.90277,23.83922,0
            120.90287,23.8394,0
            120.9029,23.83949,0
            120.90291,23.83956,0
            120.90291,23.83968,0
            120.90288,23.83985,0
            120.90286,23.83991,0
            120.90282,23.83997,0
            120.9028,23.84001,0
            120.90276,23.84006,0
            120.90267,23.84015,0
            120.90262,23.84019,0
            120.90251,23.84026,0
            120.90226,23.84034,0
            120.90204,23.84035,0
            120.902,23.84036,0
            120.90168,23.84036,0
            120.90165,23.84035,0
            120.90126,23.84033,0
            120.90076,23.84033,0
            120.90067,23.84034,0
            120.90042,23.84039,0
            120.90032,23.84042,0
            120.89992,23.84058,0
            120.8994,23.84082,0
            120.89913,23.84093,0
            120.89867,23.84106,0
            120.89866,23.84107,0
            120.89786,23.84125,0
            120.89784,23.84126,0
            120.89768,23.84131,0
            120.8975,23.84142,0
            120.89742,23.84149,0
            120.89727,23.84168,0
            120.89721,23.84197,0
            120.89723,23.84219,0
            120.89729,23.84234,0
            120.89733,23.8424,0
            120.89737,23.84244,0
            120.89744,23.84253,0
            120.89753,23.8426,0
            120.8978,23.84273,0
            120.89801,23.84278,0
            120.89856,23.84287,0
            120.89887,23.84294,0
            120.89901,23.84296,0
            120.89924,23.84301,0
            120.89972,23.84308,0
            120.89991,23.84312,0
            120.90016,23.8432,0
            120.90034,23.84327,0
            120.90045,23.84333,0
            120.90048,23.84336,0
            120.9005,23.84337,0
            120.90088,23.84372,0
            120.90119,23.84406,0
            120.90132,23.84423,0
            120.9014,23.84437,0
            120.9014,23.84439,0
            120.90144,23.84449,0
            120.90147,23.8446,0
            120.90151,23.84484,0
            120.90149,23.84528,0
            120.90145,23.84559,0
            120.90146,23.84573,0
            120.90146,23.84717,0
            120.90134,23.84796,0
            120.90133,23.84809,0
            120.90131,23.84821,0
            120.90115,23.84872,0
            120.90105,23.84922,0
            120.90105,23.84927,0
            120.90099,23.84972,0
            120.90098,23.85019,0
            120.901,23.8505,0
            120.90107,23.85098,0
            120.90108,23.85118,0
            120.90123,23.85183,0
            120.90136,23.85173,0
            120.90123,23.85183,0
            120.90125,23.85192,0
            120.90126,23.85194,0
            120.90132,23.85237,0
            120.90167,23.85392,0
            120.90168,23.85401,0
            120.90197,23.8553,0
            120.90202,23.85544,0
            120.90218,23.85606,0
            120.90221,23.85626,0
            120.9022,23.85635,0
            120.9022,23.85643,0
            120.90219,23.85651,0
            120.90214,23.85664,0
            120.90208,23.85674,0
            120.90193,23.8569,0
            120.90176,23.85702,0
            120.90165,23.85708,0
            120.9013,23.85723,0
            120.90129,23.85723,0
            120.90094,23.85738,0
            120.90093,23.85738,0
            120.90086,23.85742,0
            120.90071,23.85754,0
            120.90066,23.85759,0
            120.90056,23.85773,0
            120.90045,23.85795,0
            120.90044,23.858,0
            120.90045,23.85818,0
            120.90048,23.8583,0
            120.90064,23.85873,0
            120.9007,23.85897,0
            120.90072,23.85909,0
            120.9007,23.85926,0
            120.90061,23.8595,0
            120.9006,23.8595,0
            120.90049,23.85965,0
            120.90029,23.85982,0
            120.89998,23.86,0
            120.89982,23.86011,0
            120.89975,23.86019,0
            120.89972,23.86024,0
            120.89972,23.86026,0
            120.8997,23.8603,0
            120.89968,23.86037,0
            120.89968,23.86043,0
            120.8997,23.86063,0
            120.89976,23.8608,0
            120.89981,23.86088,0
            120.89985,23.86093,0
            120.89999,23.861,0
            120.90011,23.8611,0
            120.90017,23.86118,0
            120.9002,23.86124,0
            120.90027,23.86168,0
            120.9003,23.86176,0
            120.90033,23.86182,0
            120.90036,23.86185,0
            120.90038,23.86188,0
            120.90185,23.86229,0
            120.90332,23.86262,0
            120.90348,23.86262,0
            120.90374,23.86257,0
            120.90393,23.86256,0
            120.904,23.86258,0
            120.90407,23.86263,0
            120.90418,23.86275,0
            120.90421,23.86282,0
            120.90421,23.86285,0
            120.90417,23.86295,0
            120.90412,23.86304,0
            120.904,23.86339,0
            120.90397,23.86357,0
            120.90397,23.86387,0
            120.90396,23.86395,0
            120.90392,23.86405,0
            120.90382,23.86422,0
            120.90302,23.86537,0
            120.90295,23.8655,0
            120.90288,23.86566,0
            120.90274,23.86623,0
            120.90272,23.86628,0
            120.90269,23.86646,0
            120.90267,23.86652,0
            120.9025,23.86726,0
            120.9025,23.86734,0
            120.90254,23.86747,0
            120.9026,23.86756,0
            120.90265,23.86758,0
            120.90271,23.86763,0
            120.9029,23.86769,0
            120.90296,23.86769,0
            120.90301,23.86768,0
            120.90338,23.86751,0
            120.90382,23.86727,0
            120.90401,23.86714,0
            120.90417,23.86701,0
            120.90422,23.86698,0
            120.90428,23.86693,0
            120.90445,23.86684,0
            120.9046,23.86678,0
            120.90509,23.86668,0
            120.90535,23.86667,0
            120.90546,23.86668,0
            120.90627,23.86683,0
            120.90652,23.86691,0
            120.90674,23.86701,0
            120.90761,23.86754,0
            120.90783,23.86765,0
            120.90791,23.86768,0
            120.90819,23.86776,0
            120.90837,23.86777,0
            120.90852,23.86775,0
            120.90973,23.86731,0
            120.90982,23.86726,0
            120.91067,23.86687,0
            120.9108,23.8668,0
            120.9113,23.86658,0
            120.91131,23.86658,0
            120.91162,23.86641,0
            120.91185,23.86626,0
            120.91193,23.86616,0
            120.91198,23.86607,0
            120.91201,23.86594,0
            120.91204,23.86574,0
            120.91204,23.86569,0
            120.9121,23.86546,0
            120.91299,23.86535,0
            120.91397,23.86512,0
            120.91406,23.86512,0
            120.91418,23.86514,0
            120.91441,23.86521,0
            120.91458,23.8653,0
            120.91467,23.86537,0
            120.9147,23.86541,0
            120.91472,23.86545,0
            120.91475,23.86555,0
            120.91474,23.8657,0
            120.91471,23.86585,0
            120.91467,23.86621,0
            120.91467,23.86632,0
            120.91468,23.86638,0
            120.91471,23.86646,0
            120.91483,23.86668,0
            120.91509,23.86704,0
            120.91548,23.86746,0
            120.9157,23.86773,0
            120.91608,23.86834,0
            120.91616,23.86852,0
            120.91631,23.86933,0
            120.9165,23.87066,0
            120.91651,23.8708,0
            120.9165,23.87089,0
            120.91648,23.87095,0
            120.91632,23.87123,0
            120.91629,23.87132,0
            120.91628,23.87137,0
            120.91628,23.87144,0
            120.91631,23.87157,0
            120.91643,23.8719,0
            120.9165,23.87197,0
            120.91656,23.872,0
            120.91662,23.87202,0
            120.91685,23.87202,0
            120.91751,23.8719,0
            120.9176,23.8719,0
            120.91767,23.87191,0
            120.91771,23.87193,0
            120.9178,23.872,0
            120.91818,23.87222,0
            120.91832,23.87226,0
            120.91841,23.87227,0
            120.9186,23.87226,0
            120.91869,23.87224,0
            120.91878,23.87223,0
            120.91881,23.87222,0
            120.91908,23.87218,0
            120.91949,23.87219,0
            120.91997,23.87216,0
            120.9201,23.87216,0
            120.92031,23.87218,0
            120.92047,23.87233,0
            120.92048,23.87292,0
            120.92045,23.8732,0
            120.92039,23.87352,0
            120.92035,23.87365,0
            120.92033,23.87368,0
            120.92025,23.87385,0
            120.92022,23.87388,0
            120.92021,23.8739,0
            120.91958,23.87452,0
            120.91943,23.87464,0
            120.9194,23.87467,0
            120.91935,23.87474,0
            120.91928,23.87487,0
            120.91924,23.87497,0
            120.91921,23.87514,0
            120.91921,23.87521,0
            120.91924,23.87547,0
            120.91935,23.87575,0
            120.9195,23.87596,0
            120.9199,23.87637,0
            120.91992,23.8764,0
            120.92023,23.87671,0
            120.9204,23.87692,0
            120.92055,23.87715,0
            120.92068,23.8774,0
            120.92068,23.87741,0
            120.92069,23.87743,0
            120.92073,23.87756,0
            120.92074,23.87757,0
            120.92081,23.87784,0
            120.92084,23.87827,0
            120.92081,23.87862,0
            120.92034,23.88124,0
            120.92033,23.88161,0
            120.92036,23.88208,0
            120.92042,23.88245,0
            120.92048,23.88268,0
            120.9207,23.88333,0
            120.92075,23.88344,0
            120.92102,23.88415,0
            120.92104,23.88418,0
            120.92137,23.88512,0
            120.9215,23.8856,0
            120.92168,23.88653,0
            120.92182,23.88749,0
            120.92209,23.8889,0
            120.92227,23.88966,0
            120.92231,23.88978,0
            120.92232,23.88984,0
            120.92238,23.89001,0
            120.92283,23.89107,0
            120.92318,23.89169,0
            120.92337,23.89193,0
            120.92348,23.89209,0
            120.92404,23.89271,0
            120.9247,23.89336,0
            120.92499,23.89362,0
            120.92523,23.89376,0
            120.92565,23.89397,0
            120.92605,23.89409,0
            120.92632,23.89415,0
            120.92805,23.8943,0
            120.92875,23.89444,0
            120.92973,23.89471,0
            120.92975,23.89472,0
            120.93067,23.89502,0
            120.93177,23.89534,0
            120.93207,23.89545,0
            120.93269,23.89573,0
            120.93285,23.89594,0
            120.93297,23.89618,0
            120.93299,23.89624,0
            120.933,23.89631,0
            120.93301,23.89651,0
            120.93314,23.8974,0
            120.93314,23.89743,0
            120.93315,23.89747,0
            120.93337,23.89907,0
            120.93338,23.89941,0
            120.93333,23.89956,0
            120.93323,23.89974,0
            120.93317,23.89991,0
            120.93294,23.90006,0
            120.93245,23.90031,0
            120.93063,23.90115,0
            120.93057,23.90117,0
            120.93028,23.90131,0
            120.92997,23.9015,0
            120.92872,23.90237,0
            120.92861,23.90247,0
            120.92852,23.90257,0
            120.92826,23.90298,0
            120.928,23.90346,0
            120.92798,23.90351,0
            120.92798,23.90352,0
            120.92722,23.90484,0
            120.92714,23.90502,0
            120.92579,23.9074,0
            120.92573,23.90753,0
            120.9256,23.90788,0
            120.92551,23.90836,0
            120.92552,23.90875,0
            120.92558,23.90922,0
            120.92568,23.90964,0
            120.92576,23.9099,0
            120.92594,23.9107,0
            120.92603,23.91134,0
            120.92625,23.91342,0
            120.92634,23.91396,0
            120.92682,23.91631,0
            120.92683,23.91634,0
            120.92693,23.91688,0
            120.92693,23.9169,0
            120.92694,23.91695,0
            120.92694,23.91702,0
            120.92696,23.9172,0
            120.92693,23.9174,0
            120.9269,23.91748,0
            120.92674,23.91778,0
            120.92667,23.91789,0
            120.92658,23.918,0
            120.92643,23.91813,0
            120.92625,23.91825,0
            120.92592,23.91843,0
            120.92496,23.91887,0
            120.9239,23.91932,0
            120.92379,23.91945,0
            120.92348,23.91966,0
            120.9233,23.91983,0
            120.92319,23.91997,0
            120.92306,23.92017,0
            120.92299,23.92031,0
            120.92295,23.92043,0
            120.92289,23.92069,0
            120.92286,23.92094,0
            120.92285,23.92098,0
            120.92278,23.92165,0
            120.9227,23.92309,0
            120.92267,23.92536,0
            120.92248,23.92762,0
            120.92254,23.92807,0
            120.92254,23.92811,0
            120.92253,23.92813,0
            120.92253,23.92816,0
            120.9226,23.92836,0
            120.92264,23.92843,0
            120.92286,23.92903,0
            120.92297,23.92951,0
            120.92299,23.92973,0
            120.92297,23.92995,0
            120.92293,23.93018,0
            120.92293,23.93021,0
            120.92288,23.93041,0
            120.92276,23.93071,0
            120.92266,23.9309,0
            120.92261,23.93097,0
            120.92248,23.9312,0
            120.9224,23.93132,0
            120.9223,23.93152,0
            120.92227,23.93162,0
            120.92226,23.93164,0
            120.92226,23.93167,0
            120.92224,23.93175,0
            120.92224,23.93188,0
            120.92226,23.93208,0
            120.92229,23.93216,0
            120.9223,23.93221,0
            120.92241,23.93245,0
            120.92247,23.93253,0
            120.92257,23.93264,0
            120.92274,23.93277,0
            120.92287,23.93285,0
            120.923,23.93291,0
            120.92345,23.93304,0
            120.92348,23.93304,0
            120.92382,23.93312,0
            120.92384,23.93313,0
            120.92422,23.93324,0
            120.92423,23.93324,0
            120.92444,23.93332,0
            120.92468,23.93343,0
            120.92472,23.93344,0
            120.92508,23.93366,0
            120.92536,23.93385,0
            120.92565,23.93407,0
            120.92567,23.93408,0
            120.92576,23.93415,0
            120.92611,23.93447,0
            120.92628,23.93466,0
            120.92642,23.93484,0
            120.92652,23.935,0
            120.92661,23.9352,0
            120.92663,23.93523,0
            120.92668,23.93538,0
            120.92677,23.93576,0
            120.92679,23.936,0
            120.92673,23.93659,0
            120.92656,23.93746,0
            120.92654,23.93767,0
            120.92655,23.93801,0
            120.92657,23.93821,0
            120.92661,23.9384,0
            120.9267,23.9387,0
            120.92672,23.93873,0
            120.92685,23.93904,0
            120.92735,23.94,0
            120.92761,23.9404,0
            120.92776,23.94057,0
            120.92835,23.94111,0
            120.92914,23.94171,0
            120.92996,23.9425,0
            120.93008,23.94265,0
            120.9302,23.94278,0
            120.9302,23.94279,0
            120.93107,23.94378,0
            120.93137,23.94404,0
            120.93151,23.94418,0
            120.93189,23.94435,0
            120.93205,23.94438,0
            120.9322,23.94442,0
            120.93224,23.94442,0
            120.9324,23.94444,0
            120.93244,23.94445,0
            120.93419,23.94446,0
            120.93459,23.94456,0
            120.93479,23.94463,0
            120.93514,23.94481,0
            120.9353,23.94493,0
            120.9354,23.94494,0
            120.93541,23.94495,0
            120.93555,23.94504,0
            120.93612,23.9455,0
            120.93637,23.94572,0
            120.93657,23.94593,0
            120.93671,23.94612,0
            120.93684,23.94632,0
            120.93691,23.94645,0
            120.93707,23.94689,0
            120.93719,23.94743,0
            120.93732,23.94814,0
            120.93737,23.94831,0
            120.93756,23.94879,0
            120.93792,23.94945,0
            120.93831,23.94998,0
            120.93839,23.95012,0
            120.93844,23.95018,0
            120.93862,23.95046,0
            120.93862,23.95047,0
            120.93865,23.95052,0
            120.93876,23.95077,0
            120.9388,23.95091,0
            120.93883,23.95108,0
            120.93885,23.95137,0
            120.93884,23.95183,0
            120.93879,23.95238,0
            120.93877,23.9525,0
            120.93875,23.95284,0
            120.93879,23.95321,0
            120.93885,23.95345,0
            120.93894,23.95365,0
            120.93911,23.95395,0
            120.93925,23.95414,0
            120.93994,23.95489,0
            120.94031,23.95525,0
            120.94043,23.95535,0
            120.9406,23.95547,0
            120.94091,23.95566,0
            120.94254,23.95649,0
            120.94295,23.95677,0
            120.94309,23.95689,0
            120.94344,23.95726,0
            120.94361,23.95747,0
            120.94481,23.95959,0
            120.9449,23.95973,0
            120.94549,23.96096,0
            120.94572,23.96161,0
            120.94573,23.96169,0
            120.94599,23.96289,0
            120.94625,23.96381,0
            120.9463,23.96395,0
            120.94635,23.96403,0
            120.94651,23.96452,0
            120.94655,23.96484,0
            120.94655,23.96511,0
            120.94651,23.96538,0
            120.94644,23.96559,0
            120.94629,23.96593,0
            120.94622,23.96658,0
            120.94656,23.96737,0
            120.9466,23.96763,0
            120.9466,23.96773,0
            120.94658,23.96783,0
            120.94654,23.96818,0
            120.94654,23.96834,0
            120.94657,23.96847,0
            120.94669,23.96874,0
            120.94708,23.96921,0
            120.94727,23.96947,0
            120.94733,23.96959,0
            120.94742,23.96981,0
            120.94758,23.97056,0
            120.94765,23.97079,0
            120.94784,23.97126,0
            120.94817,23.9712,0
            120.94823,23.97115,0
            120.94848,23.97108,0
            120.94849,23.97108,0
            120.94867,23.97104,0
            120.94868,23.97104,0
            120.9497,23.97078,0
            120.95062,23.97051,0
            120.95272,23.96997,0
            120.95297,23.96994,0
            120.95456,23.96949,0
            120.95674,23.96893,0
            120.95679,23.96891,0
            120.95796,23.96862,0
            120.958,23.96862,0
            120.96148,23.96772,0
            120.96159,23.96774,0
            120.96181,23.96769,0
            120.96193,23.96764,0
            120.96342,23.96724,0
            120.96354,23.96724,0
            120.96354,23.96722,0
            120.96353,23.96721,0
            120.96353,23.96715,0
            120.96354,23.96713,0
            120.96354,23.96711,0
            120.96355,23.96709,0
            120.96356,23.96708,0
            120.96358,23.96704,0
            120.96364,23.967,0
            120.9637,23.96697,0
            120.96372,23.96697,0
            120.96374,23.96696,0
            120.96378,23.96696,0
            120.96381,23.96697,0
            120.96383,23.96697,0
            120.96385,23.96698,0
            120.96387,23.96698,0
            120.96391,23.967,0
            120.96393,23.96702,0
            120.96394,23.96704,0
            120.96397,23.96707,0
            120.96398,23.96709,0
            120.96399,23.9671,0
            120.96399,23.96712,0
            120.964,23.96714,0
            120.964,23.96718,0
            120.96399,23.9672,0
            120.96399,23.96721,0
            120.96396,23.96727,0
            120.96394,23.96729,0
            120.96393,23.96731,0
            120.96391,23.96732,0
            120.96389,23.96734,0
            120.96387,23.96735,0
            120.96385,23.96737,0
            120.96381,23.96738,0
            120.96371,23.96738,0
            120.96369,23.96737,0
            120.96367,23.96737,0
            120.96363,23.96735,0
            120.96356,23.96728,0
            120.96354,23.96724,0
            120.96342,23.96724,0
            120.96193,23.96764,0
            120.96181,23.96769,0
            120.96159,23.96774,0
            120.96151,23.96782,0
            120.96047,23.96807,0
            120.96048,23.96813,0
          </coordinates>
        </LineString>
      </Placemark>
      <Placemark>
        <name>嘉義市東區垂楊路嘉義市東區崇文國民小學</name>
        <styleUrl>#icon-1899-DB4436-nodesc</styleUrl>
        <Point>
          <coordinates>
            120.4528594,23.4740443,0
          </coordinates>
        </Point>
      </Placemark>
      <Placemark>
        <name>嘉義縣大林鎮西林里仁愛路7-ELEVEN 大林門市</name>
        <styleUrl>#icon-1899-DB4436-nodesc</styleUrl>
        <Point>
          <coordinates>
            120.4541859,23.6028346,0
          </coordinates>
        </Point>
      </Placemark>
      <Placemark>
        <name>雲林縣斗南鎮中山路全家便利商店 斗南西岐店</name>
        <styleUrl>#icon-1899-DB4436-nodesc</styleUrl>
        <Point>
          <coordinates>
            120.4777327,23.6780322,0
          </coordinates>
        </Point>
      </Placemark>
      <Placemark>
        <name>南投縣竹山鎮延祥里集山路三段全家便利商店 夯蕃薯店</name>
        <styleUrl>#icon-1899-DB4436-nodesc</styleUrl>
        <Point>
          <coordinates>
            120.703981,23.7648251,0
          </coordinates>
        </Point>
      </Placemark>
      <Placemark>
        <name>南投縣竹山鎮中央里集山路一段南投縣竹山鎮中州國民小學</name>
        <styleUrl>#icon-1899-DB4436-nodesc</styleUrl>
        <Point>
          <coordinates>
            120.7381447,23.8122266,0
          </coordinates>
        </Point>
      </Placemark>
      <Placemark>
        <name>南投縣集集鎮集集車站</name>
        <styleUrl>#icon-1899-DB4436-nodesc</styleUrl>
        <Point>
          <coordinates>
            120.7850276,23.8267883,0
          </coordinates>
        </Point>
      </Placemark>
      <Placemark>
        <name>南投縣水里鄉南光村中山路一段全聯福利中心南投水里店</name>
        <styleUrl>#icon-1899-DB4436-nodesc</styleUrl>
        <Point>
          <coordinates>
            120.8520896,23.8070033,0
          </coordinates>
        </Point>
      </Placemark>
      <Placemark>
        <name>南投縣魚池鄉水社村中山路向山行政暨遊客中心</name>
        <styleUrl>#icon-1899-DB4436-nodesc</styleUrl>
        <Point>
          <coordinates>
            120.9013581,23.8517333,0
          </coordinates>
        </Point>
      </Placemark>
      <Placemark>
        <name>南投縣埔里鎮南村里二二八事件烏牛欄戰役紀念碑</name>
        <styleUrl>#icon-1899-DB4436-nodesc</styleUrl>
        <Point>
          <coordinates>
            120.9462543,23.9662466,0
          </coordinates>
        </Point>
      </Placemark>
      <Placemark>
        <name>545台灣南投縣埔里鎮埔里酒廠</name>
        <styleUrl>#icon-1899-DB4436-nodesc</styleUrl>
        <Point>
          <coordinates>
            120.9604822,23.968127,0
          </coordinates>
        </Point>
      </Placemark>
    </Folder>
    <Folder>
      <name>埔里酒廠→溪南國小</name>
      <Placemark>
        <name>埔里酒廠→溪南國小</name>
        <styleUrl>#line-1267FF-5000-nodesc</styleUrl>
        <LineString>
          <tessellate>1</tessellate>
          <coordinates>
            120.96061,23.96794,0
            120.96084,23.96788,0
            120.96148,23.96772,0
            120.96159,23.96774,0
            120.96167,23.96772,0
            120.96181,23.96769,0
            120.96193,23.96764,0
            120.96193,23.9676,0
            120.96193,23.96756,0
            120.96194,23.96752,0
            120.96197,23.96747,0
            120.962,23.96743,0
            120.96215,23.96727,0
            120.963,23.96645,0
            120.96331,23.96617,0
            120.9635,23.966,0
            120.96374,23.96578,0
            120.96387,23.96565,0
            120.96396,23.96557,0
            120.96487,23.96465,0
            120.96523,23.96432,0
            120.96546,23.96412,0
            120.96581,23.96381,0
            120.96536,23.96345,0
            120.96506,23.96316,0
            120.96456,23.96267,0
            120.96417,23.96231,0
            120.96387,23.96206,0
            120.96374,23.96194,0
            120.96368,23.96189,0
            120.96354,23.96176,0
            120.96342,23.96164,0
            120.96337,23.96159,0
            120.96332,23.96154,0
            120.96328,23.96148,0
            120.96325,23.96143,0
            120.96322,23.96139,0
            120.96319,23.96134,0
            120.96316,23.96129,0
            120.96309,23.96115,0
            120.96298,23.96078,0
            120.96295,23.96063,0
            120.96291,23.96049,0
            120.96273,23.95988,0
            120.96262,23.95949,0
            120.96247,23.95897,0
            120.9622,23.95802,0
            120.96202,23.95778,0
            120.96191,23.95765,0
            120.96102,23.95664,0
            120.96099,23.9566,0
            120.96097,23.95658,0
            120.96037,23.95591,0
            120.96025,23.95576,0
            120.95973,23.9552,0
            120.95972,23.95519,0
            120.9596,23.95506,0
            120.95947,23.95492,0
            120.95935,23.95478,0
            120.95922,23.95463,0
            120.95915,23.95457,0
            120.95825,23.95366,0
            120.95817,23.95359,0
            120.95814,23.95357,0
            120.95813,23.95355,0
            120.95756,23.95305,0
            120.95736,23.95286,0
            120.95711,23.95267,0
            120.9567,23.9524,0
            120.95665,23.95236,0
            120.95649,23.95222,0
            120.95654,23.95211,0
            120.95658,23.952,0
            120.95661,23.95188,0
            120.95662,23.95182,0
            120.95662,23.9518,0
            120.95663,23.95175,0
            120.95662,23.9516,0
            120.95661,23.95147,0
            120.95659,23.95132,0
            120.95654,23.95111,0
            120.9565,23.95097,0
            120.95646,23.95081,0
            120.95639,23.95067,0
            120.95629,23.9505,0
            120.95623,23.95044,0
            120.95621,23.95041,0
            120.95612,23.95032,0
            120.95611,23.9503,0
            120.956,23.95015,0
            120.95591,23.95,0
            120.9559,23.94992,0
            120.95589,23.94981,0
            120.95601,23.94974,0
            120.95605,23.94972,0
            120.95609,23.94971,0
            120.95611,23.9497,0
            120.95615,23.94967,0
            120.95625,23.94956,0
            120.9563,23.9495,0
            120.95631,23.94948,0
            120.95635,23.94941,0
            120.95637,23.94935,0
            120.95644,23.94906,0
            120.95657,23.94865,0
            120.95663,23.94852,0
            120.95666,23.94845,0
            120.95669,23.94837,0
            120.95672,23.94826,0
            120.95675,23.94814,0
            120.95674,23.94799,0
            120.95672,23.94765,0
            120.95648,23.94763,0
            120.95622,23.94761,0
            120.95592,23.94762,0
            120.95574,23.94764,0
            120.95568,23.94764,0
          </coordinates>
        </LineString>
      </Placemark>
      <Placemark>
        <name>545台灣南投縣埔里鎮埔里酒廠</name>
        <styleUrl>#icon-1899-DB4436-nodesc</styleUrl>
        <Point>
          <coordinates>
            120.9606073,23.9679372,0
          </coordinates>
        </Point>
      </Placemark>
      <Placemark>
        <name>南投縣埔里鎮溪南里珠生路溪南國小</name>
        <styleUrl>#icon-1899-DB4436-nodesc</styleUrl>
        <Point>
          <coordinates>
            120.9556794,23.9476389,0
          </coordinates>
        </Point>
      </Placemark>
    </Folder>
  </Document>
</kml>
