<?xml version="1.0" encoding="UTF-8"?>
<kml xmlns="http://www.opengis.net/kml/2.2">
  <Document>
    <name>2026環島Day2</name>
    <description>苗栗→新竹</description>
    <Style id="icon-1899-DB4436-nodesc-normal">
      <IconStyle>
        <color>ff3644db</color>
        <scale>1</scale>
        <Icon>
          <href>https://www.gstatic.com/mapspro/images/stock/503-wht-blank_maps.png</href>
        </Icon>
        <hotSpot x="32" xunits="pixels" y="64" yunits="insetPixels"/>
      </IconStyle>
      <LabelStyle>
        <scale>0</scale>
      </LabelStyle>
      <BalloonStyle>
        <text><![CDATA[<h3>$[name]</h3>]]></text>
      </BalloonStyle>
    </Style>
    <Style id="icon-1899-DB4436-nodesc-highlight">
      <IconStyle>
        <color>ff3644db</color>
        <scale>1</scale>
        <Icon>
          <href>https://www.gstatic.com/mapspro/images/stock/503-wht-blank_maps.png</href>
        </Icon>
        <hotSpot x="32" xunits="pixels" y="64" yunits="insetPixels"/>
      </IconStyle>
      <LabelStyle>
        <scale>1</scale>
      </LabelStyle>
      <BalloonStyle>
        <text><![CDATA[<h3>$[name]</h3>]]></text>
      </BalloonStyle>
    </Style>
    <StyleMap id="icon-1899-DB4436-nodesc">
      <Pair>
        <key>normal</key>
        <styleUrl>#icon-1899-DB4436-nodesc-normal</styleUrl>
      </Pair>
      <Pair>
        <key>highlight</key>
        <styleUrl>#icon-1899-DB4436-nodesc-highlight</styleUrl>
      </Pair>
    </StyleMap>
    <Style id="line-1267FF-5000-nodesc-normal">
      <LineStyle>
        <color>ffff6712</color>
        <width>5</width>
      </LineStyle>
      <BalloonStyle>
        <text><![CDATA[<h3>$[name]</h3>]]></text>
      </BalloonStyle>
    </Style>
    <Style id="line-1267FF-5000-nodesc-highlight">
      <LineStyle>
        <color>ffff6712</color>
        <width>7.5</width>
      </LineStyle>
      <BalloonStyle>
        <text><![CDATA[<h3>$[name]</h3>]]></text>
      </BalloonStyle>
    </Style>
    <StyleMap id="line-1267FF-5000-nodesc">
      <Pair>
        <key>normal</key>
        <styleUrl>#line-1267FF-5000-nodesc-normal</styleUrl>
      </Pair>
      <Pair>
        <key>highlight</key>
        <styleUrl>#line-1267FF-5000-nodesc-highlight</styleUrl>
      </Pair>
    </StyleMap>
    <Folder>
      <name>從苗栗縣苗栗市福麗里至公路國立苗栗高級中學到新竹市東區建華里學府路新竹市立培英國民中學的路線</name>
      <Placemark>
        <name>從苗栗縣苗栗市福麗里至公路國立苗栗高級中學到新竹市東區建華里學府路新竹市立培英國民中學的路線</name>
        <styleUrl>#line-1267FF-5000-nodesc</styleUrl>
        <LineString>
          <tessellate>1</tessellate>
          <coordinates>
            120.81646,24.55879,0
            120.81708,24.55933,0
            120.81718,24.55923,0
            120.81807,24.558,0
            120.81814,24.55793,0
            120.81833,24.55781,0
            120.82023,24.55694,0
            120.82206,24.56028,0
            120.82231,24.56069,0
            120.82322,24.56233,0
            120.8233,24.56254,0
            120.8235,24.56291,0
            120.82378,24.56334,0
            120.82398,24.56368,0
            120.82401,24.56375,0
            120.82402,24.5638,0
            120.82402,24.56388,0
            120.82411,24.56481,0
            120.82412,24.56485,0
            120.82439,24.56859,0
            120.82453,24.56997,0
            120.82502,24.57024,0
            120.82527,24.57031,0
            120.82557,24.57035,0
            120.82804,24.57101,0
            120.82826,24.5711,0
            120.82992,24.57158,0
            120.83192,24.57205,0
            120.83293,24.57234,0
            120.83332,24.57247,0
            120.83445,24.57278,0
            120.83456,24.5728,0
            120.83549,24.57307,0
            120.83554,24.57309,0
            120.83589,24.57317,0
            120.83788,24.57376,0
            120.83815,24.57382,0
            120.83879,24.57401,0
            120.84008,24.57435,0
            120.8402,24.57439,0
            120.84145,24.57472,0
            120.84154,24.57473,0
            120.84169,24.57478,0
            120.84189,24.57482,0
            120.84203,24.57476,0
            120.84238,24.57476,0
            120.84246,24.57475,0
            120.84461,24.57465,0
            120.84505,24.57457,0
            120.84648,24.57444,0
            120.84687,24.57444,0
            120.84828,24.57438,0
            120.84839,24.57439,0
            120.84957,24.57426,0
            120.84992,24.57424,0
            120.8502,24.57426,0
            120.85026,24.57428,0
            120.85036,24.5743,0
            120.85055,24.57441,0
            120.85097,24.5747,0
            120.85159,24.57506,0
            120.85351,24.57609,0
            120.85474,24.57671,0
            120.85477,24.57673,0
            120.85501,24.57682,0
            120.85507,24.57683,0
            120.85515,24.57686,0
            120.85611,24.57714,0
            120.85669,24.57743,0
            120.85727,24.57769,0
            120.8587,24.57843,0
            120.85958,24.57895,0
            120.86001,24.57917,0
            120.86045,24.57936,0
            120.86046,24.57936,0
            120.86097,24.57954,0
            120.86185,24.57976,0
            120.86225,24.57981,0
            120.86275,24.57982,0
            120.86325,24.57979,0
            120.8635,24.5798,0
            120.86365,24.57982,0
            120.86378,24.57985,0
            120.86383,24.57987,0
            120.86392,24.57989,0
            120.86405,24.57995,0
            120.8656,24.58083,0
            120.86593,24.5809,0
            120.8662,24.58089,0
            120.86626,24.58088,0
            120.86633,24.58085,0
            120.86637,24.58084,0
            120.86646,24.5808,0
            120.86656,24.58074,0
            120.86718,24.58023,0
            120.86748,24.58004,0
            120.86776,24.57992,0
            120.86801,24.57985,0
            120.86808,24.57984,0
            120.86819,24.57984,0
            120.8683,24.57983,0
            120.86854,24.57985,0
            120.86879,24.57992,0
            120.87003,24.58048,0
            120.87121,24.58094,0
            120.87262,24.58144,0
            120.87389,24.58183,0
            120.87457,24.58207,0
            120.87501,24.58219,0
            120.87533,24.58221,0
            120.87562,24.58221,0
            120.87586,24.58219,0
            120.87604,24.58215,0
            120.87645,24.5821,0
            120.87684,24.5821,0
            120.87706,24.58213,0
            120.87735,24.58222,0
            120.87755,24.58233,0
            120.87767,24.58248,0
            120.87774,24.58261,0
            120.87779,24.58273,0
            120.87803,24.58351,0
            120.87812,24.58374,0
            120.87816,24.58381,0
            120.8782,24.58391,0
            120.87849,24.58433,0
            120.87868,24.58456,0
            120.87882,24.58471,0
            120.87935,24.58519,0
            120.87952,24.5853,0
            120.87976,24.58541,0
            120.88006,24.58547,0
            120.88138,24.58559,0
            120.8815,24.58561,0
            120.88162,24.58565,0
            120.88173,24.5857,0
            120.88188,24.58579,0
            120.88199,24.58589,0
            120.88209,24.58602,0
            120.88213,24.58611,0
            120.88216,24.58632,0
            120.88216,24.58669,0
            120.88214,24.58702,0
            120.88212,24.58717,0
            120.88196,24.58758,0
            120.88184,24.58784,0
            120.88177,24.58807,0
            120.88177,24.58818,0
            120.8818,24.58837,0
            120.88194,24.58898,0
            120.88198,24.58911,0
            120.88199,24.58921,0
            120.88199,24.58938,0
            120.88197,24.58945,0
            120.88194,24.58952,0
            120.88152,24.59015,0
            120.88135,24.59059,0
            120.88131,24.59074,0
            120.8813,24.59076,0
            120.88127,24.59086,0
            120.88126,24.59094,0
            120.88126,24.59101,0
            120.88127,24.59103,0
            120.88127,24.59106,0
            120.88128,24.59107,0
            120.8813,24.59113,0
            120.88167,24.59166,0
            120.88235,24.59277,0
            120.88248,24.59302,0
            120.88281,24.59382,0
            120.88293,24.59417,0
            120.88295,24.59431,0
            120.88295,24.59438,0
            120.88294,24.59442,0
            120.88294,24.59445,0
            120.88288,24.59455,0
            120.88281,24.59464,0
            120.88277,24.59467,0
            120.88269,24.59475,0
            120.88248,24.5949,0
            120.88232,24.59503,0
            120.88225,24.5951,0
            120.88216,24.59522,0
            120.88211,24.59533,0
            120.88209,24.59539,0
            120.88209,24.5954,0
            120.88208,24.59543,0
            120.88208,24.59547,0
            120.88207,24.59553,0
            120.88208,24.59559,0
            120.88208,24.59565,0
            120.88209,24.59571,0
            120.88211,24.59577,0
            120.88212,24.59583,0
            120.88218,24.59597,0
            120.88246,24.59643,0
            120.88291,24.59708,0
            120.88305,24.59724,0
            120.88339,24.59756,0
            120.88362,24.59772,0
            120.8852,24.59865,0
            120.88642,24.59943,0
            120.88692,24.59978,0
            120.88824,24.60086,0
            120.88826,24.60087,0
            120.88835,24.60095,0
            120.88848,24.60103,0
            120.88871,24.60115,0
            120.88891,24.60123,0
            120.88894,24.60123,0
            120.88919,24.60129,0
            120.88945,24.60131,0
            120.88971,24.60131,0
            120.88983,24.60132,0
            120.88996,24.60135,0
            120.89004,24.60138,0
            120.89016,24.60147,0
            120.89026,24.6016,0
            120.8903,24.60169,0
            120.89031,24.60176,0
            120.8903,24.6021,0
            120.89024,24.60245,0
            120.89021,24.60249,0
            120.8902,24.60252,0
            120.89018,24.60254,0
            120.89015,24.60256,0
            120.89012,24.60259,0
            120.89004,24.60265,0
            120.88998,24.60268,0
            120.8899,24.6027,0
            120.88985,24.60272,0
            120.88981,24.60272,0
            120.88977,24.60273,0
            120.88965,24.60273,0
            120.88959,24.60274,0
            120.88942,24.60273,0
            120.88932,24.6027,0
            120.88904,24.60252,0
            120.88901,24.60252,0
            120.88895,24.60251,0
            120.88887,24.60251,0
            120.88883,24.60252,0
            120.8888,24.60252,0
            120.88871,24.60255,0
            120.88869,24.60257,0
            120.88846,24.60274,0
            120.88813,24.60302,0
            120.88806,24.60306,0
            120.88799,24.60308,0
            120.88797,24.60309,0
            120.88793,24.60309,0
            120.8879,24.6031,0
            120.88777,24.6031,0
            120.88766,24.60308,0
            120.88701,24.60282,0
            120.88675,24.60274,0
            120.88666,24.60274,0
            120.8866,24.60275,0
            120.88653,24.60278,0
            120.88645,24.6028,0
            120.88638,24.60284,0
            120.88635,24.60287,0
            120.88571,24.60334,0
            120.8856,24.60345,0
            120.88556,24.60351,0
            120.88552,24.60361,0
            120.88552,24.60364,0
            120.88551,24.60366,0
            120.88551,24.60371,0
            120.88552,24.60374,0
            120.88552,24.60376,0
            120.88557,24.60386,0
            120.88562,24.60392,0
            120.88569,24.60398,0
            120.88676,24.60462,0
            120.88677,24.60462,0
            120.88761,24.60509,0
            120.88784,24.60518,0
            120.88787,24.60518,0
            120.88802,24.60524,0
            120.88803,24.60524,0
            120.88814,24.60527,0
            120.88857,24.60542,0
            120.88865,24.60544,0
            120.88898,24.60556,0
            120.88912,24.60559,0
            120.88914,24.60559,0
            120.88932,24.60562,0
            120.88935,24.60562,0
            120.88955,24.60565,0
            120.88986,24.60573,0
            120.8902,24.60589,0
            120.89024,24.60592,0
            120.89037,24.60599,0
            120.89046,24.60605,0
            120.89048,24.60608,0
            120.8905,24.6061,0
            120.89054,24.60617,0
            120.89057,24.60627,0
            120.89057,24.60632,0
            120.89058,24.60636,0
            120.89058,24.60844,0
            120.8906,24.6089,0
            120.89066,24.60918,0
            120.89068,24.60921,0
            120.89068,24.60922,0
            120.89069,24.60924,0
            120.89081,24.6094,0
            120.89147,24.61002,0
            120.89154,24.61012,0
            120.89163,24.61029,0
            120.89168,24.61045,0
            120.89169,24.61052,0
            120.89169,24.61056,0
            120.89171,24.61067,0
            120.89178,24.61137,0
            120.89178,24.61142,0
            120.8918,24.61159,0
            120.89181,24.61159,0
            120.89182,24.61167,0
            120.89186,24.61177,0
            120.89188,24.61185,0
            120.89193,24.61197,0
            120.89227,24.61262,0
            120.89233,24.61282,0
            120.89235,24.61299,0
            120.89234,24.61309,0
            120.89219,24.61367,0
            120.89202,24.61449,0
            120.89196,24.61512,0
            120.89198,24.61614,0
            120.89196,24.6165,0
            120.89182,24.61777,0
            120.89183,24.61816,0
            120.89197,24.61949,0
            120.89196,24.61986,0
            120.89191,24.62012,0
            120.89189,24.62017,0
            120.89158,24.62127,0
            120.89154,24.62137,0
            120.89153,24.62143,0
            120.89124,24.62245,0
            120.8912,24.62272,0
            120.89121,24.62302,0
            120.89142,24.62379,0
            120.89148,24.62395,0
            120.89156,24.62422,0
            120.89156,24.62424,0
            120.89158,24.62429,0
            120.89159,24.62457,0
            120.89156,24.62482,0
            120.8914,24.62543,0
            120.89135,24.62556,0
            120.89129,24.62577,0
            120.89124,24.6259,0
            120.89122,24.62592,0
            120.89117,24.62601,0
            120.891,24.62619,0
            120.89091,24.62626,0
            120.89086,24.62628,0
            120.89081,24.62631,0
            120.88986,24.62671,0
            120.88974,24.62677,0
            120.88968,24.62679,0
            120.88919,24.62703,0
            120.88865,24.62738,0
            120.88836,24.62759,0
            120.88816,24.62771,0
            120.88802,24.62781,0
            120.88582,24.62914,0
            120.88565,24.62926,0
            120.88544,24.62946,0
            120.88525,24.62969,0
            120.88514,24.62987,0
            120.88433,24.63188,0
            120.8841,24.6327,0
            120.88369,24.63443,0
            120.88366,24.63452,0
            120.88327,24.63616,0
            120.88277,24.6374,0
            120.88253,24.63792,0
            120.8824,24.63827,0
            120.88236,24.63842,0
            120.88235,24.63854,0
            120.88235,24.63869,0
            120.88237,24.63884,0
            120.88301,24.64087,0
            120.88317,24.64152,0
            120.88321,24.64192,0
            120.88329,24.64362,0
            120.88336,24.64424,0
            120.88344,24.64466,0
            120.88357,24.64518,0
            120.88357,24.64519,0
            120.88362,24.64535,0
            120.88362,24.64536,0
            120.88363,24.64537,0
            120.88389,24.64637,0
            120.88414,24.64712,0
            120.88442,24.64785,0
            120.88459,24.64843,0
            120.88463,24.64861,0
            120.88464,24.6487,0
            120.88464,24.64881,0
            120.88463,24.64884,0
            120.88463,24.6489,0
            120.88458,24.64907,0
            120.8845,24.64927,0
            120.88382,24.65072,0
            120.88371,24.65091,0
            120.88322,24.65197,0
            120.88305,24.65257,0
            120.88302,24.65274,0
            120.88294,24.65307,0
            120.88237,24.65617,0
            120.88201,24.65764,0
            120.88189,24.65823,0
            120.88186,24.65852,0
            120.88171,24.66102,0
            120.88166,24.6612,0
            120.88164,24.66132,0
            120.88141,24.66214,0
            120.88133,24.66235,0
            120.88154,24.66243,0
            120.88171,24.66253,0
            120.88172,24.66254,0
            120.88181,24.6626,0
            120.88183,24.66264,0
            120.88183,24.66265,0
            120.88185,24.66269,0
            120.88191,24.66278,0
            120.88194,24.6628,0
            120.88195,24.66282,0
            120.88212,24.66298,0
            120.88213,24.663,0
            120.88213,24.66301,0
            120.88214,24.66302,0
            120.88214,24.66306,0
            120.88212,24.66312,0
            120.88235,24.66329,0
            120.88252,24.66348,0
            120.88263,24.66362,0
            120.88272,24.66378,0
            120.88284,24.66403,0
            120.88289,24.6644,0
            120.8829,24.66443,0
            120.8829,24.66469,0
            120.88288,24.66497,0
            120.8826,24.66669,0
            120.88246,24.66821,0
            120.88244,24.66834,0
            120.88243,24.66884,0
            120.8823,24.67003,0
            120.88231,24.67041,0
            120.88255,24.67118,0
            120.88245,24.67121,0
            120.88242,24.67113,0
            120.87979,24.67184,0
            120.87837,24.67216,0
            120.87783,24.67225,0
            120.8772,24.67232,0
            120.87726,24.67244,0
            120.87693,24.67248,0
            120.87645,24.67251,0
            120.87569,24.67252,0
            120.87546,24.6725,0
            120.87465,24.67248,0
            120.87405,24.67243,0
            120.8729,24.67224,0
            120.87246,24.67215,0
            120.8712,24.67176,0
            120.86873,24.67092,0
            120.86773,24.67061,0
            120.86645,24.67035,0
            120.86487,24.67018,0
            120.86327,24.67011,0
            120.86278,24.67012,0
            120.86159,24.67024,0
            120.86018,24.67045,0
            120.85868,24.67078,0
            120.85712,24.67126,0
            120.85816,24.67292,0
            120.85819,24.67292,0
            120.85871,24.67313,0
            120.85899,24.67319,0
            120.85913,24.67323,0
            120.85899,24.67319,0
            120.85871,24.67313,0
            120.85819,24.67292,0
            120.85816,24.67292,0
            120.8561,24.67224,0
            120.85519,24.67197,0
            120.85491,24.67207,0
            120.85386,24.67254,0
            120.85245,24.67322,0
            120.85174,24.6736,0
            120.85043,24.67418,0
            120.85019,24.67434,0
            120.84717,24.67587,0
            120.84685,24.67598,0
            120.84629,24.67623,0
            120.84465,24.67706,0
            120.84371,24.6775,0
            120.84356,24.67764,0
            120.84347,24.67769,0
            120.84334,24.67772,0
            120.84072,24.67908,0
            120.84054,24.67916,0
            120.84023,24.67933,0
            120.8397,24.67945,0
            120.8396,24.67949,0
            120.83942,24.67958,0
            120.83926,24.67962,0
            120.83916,24.67962,0
            120.83849,24.67956,0
            120.83844,24.67955,0
            120.83827,24.67955,0
            120.83791,24.67962,0
            120.83818,24.68025,0
            120.8385,24.68058,0
            120.83888,24.68105,0
            120.83897,24.68111,0
            120.83921,24.68133,0
            120.83923,24.68137,0
            120.83924,24.68137,0
            120.8393,24.68149,0
            120.83942,24.68162,0
            120.8395,24.68168,0
            120.83965,24.68173,0
            120.83966,24.68174,0
            120.83992,24.68189,0
            120.83997,24.68194,0
            120.84009,24.68212,0
            120.84027,24.6823,0
            120.84031,24.68236,0
            120.84033,24.68237,0
            120.84034,24.68238,0
            120.84042,24.6824,0
            120.84049,24.68239,0
            120.84056,24.68237,0
            120.8407,24.68237,0
            120.84071,24.68238,0
            120.84076,24.68239,0
            120.84087,24.68243,0
            120.84089,24.68245,0
            120.84106,24.68257,0
            120.84108,24.68259,0
            120.84111,24.68264,0
            120.84113,24.68276,0
            120.84113,24.6829,0
            120.84112,24.683,0
            120.8411,24.68307,0
            120.8411,24.68316,0
            120.84117,24.68323,0
            120.8412,24.68325,0
            120.84132,24.68331,0
            120.84134,24.68331,0
            120.84144,24.68335,0
            120.84151,24.6834,0
            120.84154,24.68343,0
            120.84156,24.6835,0
            120.84156,24.68359,0
            120.84155,24.68368,0
            120.84158,24.68373,0
            120.84158,24.68374,0
            120.84164,24.68382,0
            120.84183,24.68389,0
            120.84191,24.68395,0
            120.8421,24.68405,0
            120.84262,24.68447,0
            120.84265,24.68452,0
            120.84269,24.68456,0
            120.84275,24.68467,0
            120.8428,24.68474,0
            120.84285,24.68479,0
            120.84295,24.68485,0
            120.843,24.68487,0
            120.84307,24.68488,0
            120.84324,24.68487,0
            120.84356,24.68473,0
            120.84369,24.68466,0
            120.84373,24.68465,0
            120.84377,24.68463,0
            120.84385,24.68463,0
            120.84386,24.68464,0
            120.84388,24.68465,0
            120.84389,24.68466,0
            120.8439,24.68468,0
            120.84391,24.68469,0
            120.84391,24.6847,0
            120.84392,24.68473,0
            120.84392,24.68481,0
            120.84389,24.68499,0
            120.84387,24.68504,0
            120.84387,24.68509,0
            120.84386,24.6851,0
            120.84386,24.68516,0
            120.84387,24.68518,0
            120.84388,24.68519,0
            120.84388,24.6852,0
            120.84393,24.68523,0
            120.84394,24.68523,0
            120.84401,24.68525,0
            120.84418,24.68533,0
            120.84419,24.68534,0
            120.8442,24.68536,0
            120.84423,24.68539,0
            120.84428,24.68551,0
            120.8443,24.68553,0
            120.84436,24.68553,0
            120.84438,24.68552,0
            120.8444,24.68552,0
            120.84447,24.68549,0
            120.84449,24.68549,0
            120.8445,24.68548,0
            120.84451,24.68549,0
            120.84454,24.68549,0
            120.8446,24.68552,0
            120.84465,24.68557,0
            120.84478,24.68577,0
            120.84483,24.68582,0
            120.84489,24.68591,0
            120.84498,24.68597,0
            120.84509,24.68599,0
            120.84514,24.68599,0
            120.84547,24.68592,0
            120.84568,24.6859,0
            120.84578,24.68591,0
            120.84587,24.68591,0
            120.84608,24.68598,0
            120.84618,24.68603,0
            120.84623,24.68608,0
            120.84625,24.68614,0
            120.84626,24.68615,0
            120.84627,24.68622,0
            120.84631,24.68636,0
            120.84634,24.68642,0
            120.84635,24.68646,0
            120.84647,24.68669,0
            120.84651,24.68675,0
            120.84653,24.68677,0
            120.84655,24.68681,0
            120.84658,24.68685,0
            120.84659,24.68691,0
            120.84661,24.68696,0
            120.84661,24.68714,0
            120.84662,24.68726,0
            120.84651,24.68742,0
            120.84636,24.68748,0
            120.84633,24.6875,0
            120.8463,24.68751,0
            120.84627,24.68753,0
            120.84624,24.68757,0
            120.84618,24.68762,0
            120.84609,24.68772,0
            120.84609,24.68774,0
            120.84608,24.68776,0
            120.84608,24.68779,0
            120.8461,24.68781,0
            120.8461,24.68782,0
            120.84612,24.68783,0
            120.84613,24.68784,0
            120.84664,24.6881,0
            120.84665,24.6881,0
            120.84738,24.6884,0
            120.84742,24.68841,0
            120.84768,24.68852,0
            120.84784,24.68855,0
            120.84794,24.68855,0
            120.84802,24.68856,0
            120.84823,24.68856,0
            120.84851,24.68859,0
            120.84859,24.68862,0
            120.84866,24.68869,0
            120.84898,24.6891,0
            120.84907,24.68927,0
            120.84908,24.6893,0
            120.8491,24.68931,0
            120.8491,24.68932,0
            120.84911,24.68933,0
            120.84912,24.68933,0
            120.84913,24.68934,0
            120.84947,24.68952,0
            120.84954,24.68955,0
            120.84957,24.68957,0
            120.84961,24.68961,0
            120.84973,24.68984,0
            120.84989,24.69027,0
            120.85005,24.69096,0
            120.85013,24.69117,0
            120.85027,24.69137,0
            120.85037,24.69148,0
            120.8504,24.6915,0
            120.85054,24.69163,0
            120.85066,24.69172,0
            120.85081,24.69185,0
            120.85093,24.69197,0
            120.85106,24.69214,0
            120.8512,24.69237,0
            120.85131,24.6925,0
            120.85149,24.69265,0
            120.85178,24.69281,0
            120.8523,24.69314,0
            120.85245,24.6933,0
            120.85249,24.69336,0
            120.8525,24.69337,0
            120.85262,24.6936,0
            120.85271,24.6937,0
            120.85293,24.69386,0
            120.85336,24.69435,0
            120.85369,24.69461,0
            120.85373,24.69469,0
            120.85374,24.69473,0
            120.85353,24.69486,0
            120.85344,24.69502,0
            120.85341,24.69505,0
            120.85337,24.69508,0
            120.85333,24.69509,0
            120.85331,24.6951,0
            120.8533,24.69511,0
            120.8533,24.69512,0
            120.85329,24.69513,0
            120.85328,24.69515,0
            120.85328,24.69518,0
            120.85329,24.69522,0
            120.85332,24.69529,0
            120.85334,24.69532,0
            120.85346,24.69544,0
            120.85376,24.69568,0
            120.85388,24.69581,0
            120.85389,24.69581,0
            120.85396,24.69584,0
            120.85398,24.69586,0
            120.85403,24.69588,0
            120.85406,24.6959,0
            120.8541,24.69591,0
            120.85419,24.69596,0
            120.85421,24.69598,0
            120.85434,24.69604,0
            120.85439,24.69609,0
            120.85441,24.6961,0
            120.85451,24.69622,0
            120.85452,24.69622,0
            120.85458,24.69626,0
            120.85462,24.69628,0
            120.85469,24.6963,0
            120.85474,24.69635,0
            120.85475,24.69639,0
            120.85475,24.69642,0
            120.85477,24.69647,0
            120.85477,24.69648,0
            120.85478,24.6965,0
            120.85565,24.69713,0
            120.85568,24.69716,0
            120.85572,24.69719,0
            120.85574,24.69723,0
            120.85574,24.69744,0
            120.85573,24.69748,0
            120.85573,24.69752,0
            120.85574,24.69753,0
            120.85574,24.69754,0
            120.85576,24.69754,0
            120.85618,24.69779,0
            120.8563,24.69784,0
            120.85635,24.69787,0
            120.85649,24.69789,0
            120.85651,24.6979,0
            120.8567,24.69788,0
            120.85701,24.69788,0
            120.85716,24.6979,0
            120.85732,24.69794,0
            120.85752,24.69797,0
            120.85763,24.69801,0
            120.85776,24.69808,0
            120.85782,24.6981,0
            120.85787,24.69811,0
            120.85802,24.69808,0
            120.85822,24.69806,0
            120.85824,24.69807,0
            120.85825,24.69809,0
            120.85832,24.69817,0
            120.85596,24.69962,0
            120.858,24.69838,0
            120.85834,24.69882,0
            120.85838,24.69889,0
            120.85838,24.69894,0
            120.85837,24.69895,0
            120.85837,24.69896,0
            120.8582,24.69907,0
            120.85845,24.69935,0
            120.85885,24.69985,0
            120.85856,24.70003,0
            120.85859,24.70006,0
            120.85874,24.70029,0
            120.85932,24.70099,0
            120.85933,24.70103,0
            120.85934,24.70104,0
            120.85934,24.70107,0
            120.85951,24.7018,0
            120.85951,24.70184,0
            120.8595,24.70184,0
            120.8595,24.70186,0
            120.85949,24.70187,0
            120.85948,24.70187,0
            120.85944,24.7019,0
            120.85935,24.70195,0
            120.85933,24.70197,0
            120.85932,24.70199,0
            120.85931,24.702,0
            120.8593,24.70202,0
            120.85931,24.7022,0
            120.85935,24.70231,0
            120.85949,24.70262,0
            120.86025,24.70413,0
            120.86025,24.70414,0
            120.86027,24.70417,0
            120.86029,24.70419,0
            120.86029,24.7042,0
            120.86033,24.7042,0
            120.86083,24.70403,0
            120.86095,24.70402,0
            120.86096,24.70403,0
            120.86096,24.70404,0
            120.86097,24.70404,0
            120.86097,24.70405,0
            120.86098,24.70406,0
            120.86124,24.70477,0
            120.86125,24.70485,0
            120.86125,24.70491,0
            120.86127,24.70496,0
            120.86128,24.705,0
            120.86134,24.70507,0
            120.8614,24.70511,0
            120.86152,24.70521,0
            120.86154,24.70521,0
            120.86157,24.70524,0
            120.86158,24.70526,0
            120.8616,24.70528,0
            120.86163,24.70535,0
            120.86171,24.70574,0
            120.86175,24.70583,0
            120.8619,24.70603,0
            120.86192,24.70607,0
            120.86211,24.7066,0
            120.86211,24.70664,0
            120.86212,24.70668,0
            120.8621,24.70678,0
            120.8621,24.7068,0
            120.86213,24.70687,0
            120.86215,24.70689,0
            120.86216,24.70689,0
            120.86243,24.7071,0
            120.86258,24.70727,0
            120.86268,24.70754,0
            120.86299,24.7082,0
            120.86302,24.70825,0
            120.86302,24.70827,0
            120.86303,24.7083,0
            120.86304,24.70852,0
            120.86305,24.70854,0
            120.86307,24.70861,0
            120.86308,24.70862,0
            120.86317,24.70879,0
            120.86318,24.7088,0
            120.86318,24.70882,0
            120.86319,24.70885,0
            120.86319,24.70892,0
            120.8631,24.70964,0
            120.86305,24.70989,0
            120.86305,24.71001,0
            120.8631,24.71029,0
            120.8631,24.71033,0
            120.86309,24.71035,0
            120.86309,24.71039,0
            120.86306,24.71048,0
            120.86306,24.71053,0
            120.86307,24.71058,0
            120.86313,24.71073,0
            120.86325,24.71118,0
            120.86327,24.71123,0
            120.86327,24.71124,0
            120.86334,24.71134,0
            120.86335,24.71138,0
            120.86336,24.71139,0
            120.86337,24.71139,0
            120.86337,24.71143,0
            120.86339,24.71154,0
            120.86345,24.71168,0
            120.86349,24.71174,0
            120.86363,24.7119,0
            120.86368,24.71197,0
            120.86376,24.71205,0
            120.86378,24.71209,0
            120.86378,24.71217,0
            120.86377,24.71219,0
            120.86377,24.71221,0
            120.86375,24.71225,0
            120.86375,24.71226,0
            120.86364,24.71247,0
            120.86363,24.71251,0
            120.86363,24.71263,0
            120.86365,24.71271,0
            120.8638,24.71308,0
            120.86381,24.71309,0
            120.86385,24.71318,0
            120.86389,24.71325,0
            120.86389,24.71326,0
            120.86401,24.71357,0
            120.86409,24.71394,0
            120.86402,24.71401,0
            120.86398,24.71408,0
            120.86397,24.71412,0
            120.86396,24.71414,0
            120.86398,24.71425,0
            120.86409,24.71457,0
            120.8642,24.71505,0
            120.86421,24.71506,0
            120.86422,24.71511,0
            120.86449,24.71559,0
            120.86454,24.71571,0
            120.86458,24.71585,0
            120.86461,24.71601,0
            120.86465,24.71613,0
            120.86469,24.7162,0
            120.86477,24.71638,0
            120.8647,24.71641,0
            120.86464,24.71642,0
            120.86454,24.71645,0
            120.86456,24.71677,0
            120.86456,24.71697,0
            120.86463,24.71771,0
            120.86464,24.71773,0
            120.86469,24.71798,0
            120.86472,24.71808,0
            120.8648,24.7185,0
            120.8648,24.71875,0
            120.86482,24.71887,0
            120.86497,24.71925,0
            120.86512,24.71955,0
            120.86528,24.71998,0
            120.86528,24.72008,0
            120.86524,24.72015,0
            120.86519,24.72019,0
            120.86517,24.7202,0
            120.86516,24.7202,0
            120.86516,24.72024,0
            120.86517,24.72025,0
            120.8652,24.7203,0
            120.86525,24.72034,0
            120.86527,24.72038,0
            120.86528,24.72039,0
            120.86528,24.72043,0
            120.86527,24.72044,0
            120.86525,24.72048,0
            120.86524,24.72049,0
            120.86523,24.72052,0
            120.86523,24.72092,0
            120.86522,24.72097,0
            120.86522,24.72105,0
            120.86523,24.72107,0
            120.86523,24.72109,0
            120.86524,24.7211,0
            120.86527,24.72116,0
            120.86532,24.72122,0
            120.86537,24.72131,0
            120.8654,24.72134,0
            120.86541,24.72134,0
            120.86543,24.72136,0
            120.86545,24.72136,0
            120.86547,24.72137,0
            120.86584,24.72137,0
            120.86595,24.72135,0
            120.86605,24.72135,0
            120.86629,24.72138,0
            120.86635,24.72138,0
            120.86668,24.72143,0
            120.86703,24.72165,0
            120.86708,24.7217,0
            120.86712,24.72173,0
            120.86726,24.72195,0
            120.86727,24.72199,0
            120.86792,24.72184,0
            120.86804,24.7218,0
            120.86809,24.7218,0
            120.86813,24.72182,0
            120.86819,24.72187,0
            120.86827,24.72197,0
            120.86829,24.72202,0
            120.86829,24.72205,0
            120.86831,24.7221,0
            120.86877,24.72201,0
            120.86885,24.72198,0
            120.86901,24.72242,0
            120.86947,24.72342,0
            120.86983,24.72402,0
            120.87004,24.72431,0
            120.8701,24.72437,0
            120.87033,24.72471,0
            120.87074,24.7252,0
            120.87134,24.72583,0
            120.87187,24.72633,0
            120.87254,24.72691,0
            120.87639,24.72987,0
            120.87643,24.72986,0
            120.87648,24.72986,0
            120.8765,24.72987,0
            120.87864,24.73152,0
            120.87871,24.73165,0
            120.8797,24.73238,0
            120.88078,24.73313,0
            120.8839,24.73517,0
            120.88409,24.73531,0
            120.88501,24.73592,0
            120.88595,24.73649,0
            120.88605,24.73654,0
            120.88651,24.73683,0
            120.8919,24.7398,0
            120.89428,24.7412,0
            120.89515,24.74178,0
            120.89502,24.74192,0
            120.89486,24.74229,0
            120.89475,24.74248,0
            120.89473,24.7425,0
            120.89471,24.74254,0
            120.89437,24.74302,0
            120.89416,24.74327,0
            120.89425,24.74333,0
            120.89459,24.74352,0
            120.89476,24.74363,0
            120.89503,24.74378,0
            120.89503,24.74379,0
            120.8952,24.74388,0
            120.89867,24.74596,0
            120.8987,24.74597,0
            120.89907,24.74615,0
            120.89927,24.74618,0
            120.89939,24.74618,0
            120.89959,24.74615,0
            120.89978,24.74605,0
            120.89993,24.74594,0
            120.89996,24.74591,0
            120.89997,24.74591,0
            120.89998,24.7459,0
            120.90005,24.7459,0
            120.90122,24.74637,0
            120.90168,24.7466,0
            120.90198,24.74677,0
            120.90229,24.74697,0
            120.90255,24.74717,0
            120.90294,24.74755,0
            120.90295,24.74757,0
            120.90304,24.74766,0
            120.90328,24.74797,0
            120.90351,24.74833,0
            120.9037,24.74869,0
            120.90395,24.74925,0
            120.90398,24.74928,0
            120.90399,24.74931,0
            120.90405,24.74941,0
            120.90428,24.75009,0
            120.90432,24.75018,0
            120.90434,24.75026,0
            120.90484,24.75169,0
            120.90486,24.75177,0
            120.90518,24.7527,0
            120.9052,24.75274,0
            120.90545,24.75353,0
            120.90555,24.7538,0
            120.90564,24.75415,0
            120.90573,24.75459,0
            120.90578,24.755,0
            120.90581,24.75552,0
            120.90582,24.75626,0
            120.90587,24.7571,0
            120.90593,24.75752,0
            120.90597,24.7577,0
            120.90597,24.75773,0
            120.90612,24.75831,0
            120.90618,24.75849,0
            120.9062,24.75853,0
            120.9062,24.75857,0
            120.90621,24.7586,0
            120.90627,24.76015,0
            120.90626,24.76018,0
            120.90626,24.76019,0
            120.90625,24.76021,0
            120.90622,24.76025,0
            120.90618,24.76029,0
            120.90618,24.7603,0
            120.90591,24.76059,0
            120.90588,24.76061,0
            120.90584,24.76065,0
            120.90582,24.76065,0
            120.9057,24.76069,0
            120.90556,24.76072,0
            120.9051,24.76088,0
            120.90486,24.76102,0
            120.90485,24.76102,0
            120.90415,24.76143,0
            120.90414,24.76144,0
            120.90413,24.76144,0
            120.90413,24.76147,0
            120.90531,24.76353,0
            120.90571,24.76405,0
            120.9062,24.76371,0
            120.90631,24.76366,0
            120.90648,24.76362,0
            120.90662,24.76377,0
            120.90699,24.76409,0
            120.90715,24.7642,0
            120.90716,24.7642,0
            120.90739,24.7643,0
            120.90781,24.76442,0
            120.90831,24.76451,0
            120.90887,24.76455,0
            120.9092,24.7646,0
            120.91009,24.76482,0
            120.91048,24.76495,0
            120.91057,24.765,0
            120.91058,24.765,0
            120.91136,24.76555,0
            120.91138,24.76556,0
            120.91163,24.76575,0
            120.91202,24.76612,0
            120.91228,24.76645,0
            120.91229,24.76647,0
            120.91237,24.76658,0
            120.91248,24.76678,0
            120.91249,24.76679,0
            120.91258,24.76699,0
            120.9127,24.76732,0
            120.91318,24.76929,0
            120.91319,24.76931,0
            120.91353,24.77074,0
            120.91353,24.77077,0
            120.9136,24.7712,0
            120.91365,24.77168,0
            120.91366,24.7717,0
            120.91372,24.77243,0
            120.91373,24.77301,0
            120.91381,24.77453,0
            120.91395,24.77582,0
            120.91398,24.77596,0
            120.91405,24.7765,0
            120.91415,24.77703,0
            120.91415,24.77705,0
            120.9144,24.77831,0
            120.91442,24.77854,0
            120.91442,24.77881,0
            120.91447,24.77931,0
            120.91469,24.78058,0
            120.9147,24.78082,0
            120.91483,24.78196,0
            120.91484,24.78198,0
            120.91485,24.78215,0
            120.9149,24.78257,0
            120.91492,24.78288,0
            120.91497,24.78325,0
            120.915,24.78339,0
            120.915,24.78341,0
            120.91503,24.78356,0
            120.91504,24.78378,0
            120.91503,24.78417,0
            120.91521,24.78589,0
            120.91521,24.78603,0
            120.91506,24.78604,0
            120.91469,24.78611,0
            120.91431,24.78621,0
            120.91398,24.78632,0
            120.91383,24.7864,0
            120.91378,24.78644,0
            120.91374,24.78649,0
            120.91367,24.78667,0
            120.91358,24.78703,0
            120.91358,24.78729,0
            120.9136,24.78737,0
            120.9136,24.7874,0
            120.91366,24.7877,0
            120.91366,24.78773,0
            120.91368,24.78782,0
            120.91368,24.78808,0
            120.91367,24.7882,0
            120.91368,24.78826,0
            120.91368,24.78831,0
            120.9137,24.78846,0
            120.91375,24.78862,0
            120.91376,24.78863,0
            120.91381,24.78879,0
            120.91388,24.78896,0
            120.91398,24.7893,0
            120.91399,24.78931,0
            120.91404,24.78948,0
            120.91404,24.78949,0
            120.91421,24.79008,0
            120.91444,24.79106,0
            120.915,24.79395,0
            120.91514,24.79447,0
            120.91525,24.79475,0
            120.9153,24.7948,0
            120.9154,24.79485,0
            120.91551,24.79486,0
            120.91636,24.7948,0
            120.91659,24.7948,0
            120.91662,24.79481,0
            120.91664,24.79481,0
            120.91674,24.79484,0
            120.91682,24.79484,0
            120.91695,24.79486,0
            120.91708,24.7949,0
            120.91713,24.79494,0
            120.91718,24.79501,0
            120.91719,24.79505,0
            120.91721,24.79508,0
            120.91726,24.7952,0
            120.91726,24.79525,0
            120.91724,24.79535,0
            120.91721,24.79539,0
            120.91719,24.79544,0
            120.91719,24.7955,0
            120.91717,24.79557,0
            120.91714,24.7956,0
            120.91708,24.79561,0
            120.91703,24.79561,0
            120.91695,24.7956,0
            120.91689,24.7956,0
            120.91646,24.79556,0
            120.91626,24.79556,0
            120.91617,24.79555,0
            120.91578,24.79555,0
            120.91556,24.79558,0
            120.91551,24.79558,0
            120.9152,24.79565,0
            120.91501,24.79573,0
            120.91475,24.79587,0
            120.91451,24.79604,0
            120.9142,24.7964,0
            120.91397,24.79679,0
            120.91389,24.79696,0
            120.9137,24.79754,0
            120.91364,24.79792,0
            120.91362,24.79834,0
            120.91367,24.79867,0
            120.9138,24.79913,0
            120.91387,24.79927,0
            120.91406,24.79952,0
            120.91434,24.79976,0
            120.91444,24.79983,0
            120.91477,24.80002,0
            120.91535,24.80026,0
            120.91541,24.80027,0
            120.91585,24.80041,0
            120.91624,24.80049,0
            120.91646,24.80055,0
            120.91648,24.80062,0
            120.91654,24.80104,0
            120.91656,24.80111,0
            120.91658,24.80115,0
            120.91696,24.80215,0
            120.91706,24.80233,0
            120.91708,24.80238,0
            120.91709,24.80244,0
            120.91709,24.80251,0
            120.9171,24.80257,0
            120.9171,24.8027,0
            120.91711,24.80275,0
            120.91715,24.80284,0
            120.91721,24.80292,0
            120.91725,24.80296,0
            120.9174,24.80326,0
            120.91746,24.80335,0
            120.9175,24.80343,0
            120.91753,24.80353,0
            120.91751,24.80407,0
            120.91755,24.8056,0
            120.91757,24.80573,0
            120.91779,24.80618,0
            120.91783,24.80624,0
            120.91801,24.80667,0
            120.91801,24.80668,0
            120.91802,24.80671,0
            120.91801,24.80674,0
            120.918,24.80675,0
            120.918,24.80676,0
            120.91797,24.80679,0
            120.91795,24.8068,0
            120.91793,24.80682,0
            120.91792,24.80682,0
            120.91787,24.80684,0
            120.91776,24.8069,0
            120.91773,24.80693,0
            120.9177,24.80697,0
            120.91768,24.80701,0
            120.91766,24.80707,0
            120.91761,24.80729,0
            120.9176,24.80738,0
            120.91759,24.80742,0
            120.91756,24.80814,0
            120.9176,24.8083,0
            120.91763,24.80835,0
            120.91768,24.8084,0
            120.91846,24.80899,0
            120.91891,24.80937,0
            120.91893,24.8094,0
            120.91913,24.81003,0
            120.91914,24.81005,0
            120.91914,24.81009,0
            120.91913,24.81009,0
            120.91912,24.8101,0
            120.9189,24.81014,0
            120.91723,24.81059,0
            120.91667,24.81072,0
            120.91658,24.81075,0
            120.91647,24.81077,0
            120.91625,24.81084,0
            120.9162,24.81087,0
            120.91613,24.81093,0
            120.91612,24.81093,0
            120.91602,24.81107,0
            120.916,24.81112,0
            120.91599,24.81117,0
            120.91597,24.81121,0
            120.91596,24.81121,0
            120.91594,24.81123,0
            120.91593,24.81123,0
            120.91591,24.81124,0
            120.9159,24.81124,0
            120.91588,24.81125,0
            120.91545,24.81136,0
            120.91543,24.81136,0
            120.91542,24.81135,0
            120.9154,24.81135,0
            120.91539,24.81134,0
            120.91537,24.81129,0
            120.91536,24.81128,0
            120.91533,24.81123,0
            120.91518,24.81107,0
            120.91509,24.811,0
            120.91509,24.81099,0
            120.91487,24.81087,0
            120.91109,24.80974,0
            120.91097,24.80972,0
            120.91094,24.80971,0
            120.91088,24.8097,0
            120.91065,24.8097,0
            120.91053,24.80971,0
            120.91038,24.80971,0
            120.91036,24.80972,0
            120.91019,24.80975,0
            120.91,24.80983,0
            120.90993,24.80985,0
            120.90964,24.80998,0
            120.9093,24.81022,0
            120.90908,24.81045,0
            120.90878,24.81094,0
            120.90866,24.81116,0
            120.90815,24.81196,0
            120.908,24.81217,0
            120.90794,24.81227,0
            120.90791,24.81235,0
            120.90771,24.81278,0
            120.90769,24.81285,0
            120.90749,24.81336,0
            120.90744,24.81354,0
            120.90742,24.81369,0
            120.90742,24.81383,0
            120.90743,24.81386,0
            120.90745,24.81389,0
            120.90735,24.8146,0
            120.90719,24.81693,0
            120.9072,24.81729,0
            120.90727,24.8176,0
            120.90734,24.81803,0
            120.90742,24.8183,0
            120.90893,24.82199,0
            120.90898,24.82209,0
            120.90901,24.82218,0
            120.9092,24.82262,0
            120.90928,24.82285,0
            120.90963,24.82273,0
            120.90993,24.82265,0
            120.90981,24.8223,0
            120.90981,24.82227,0
            120.90982,24.82225,0
            120.90983,24.82225,0
            120.90987,24.82223,0
            120.90993,24.82222,0
            120.90995,24.82221,0
            120.91014,24.82215,0
            120.91017,24.82215,0
            120.91023,24.82213,0
            120.91028,24.82213,0
            120.91034,24.82215,0
            120.91037,24.82218,0
            120.9104,24.82223,0
            120.91059,24.82278,0
            120.9104,24.82223,0
            120.91037,24.82218,0
            120.91034,24.82215,0
            120.91028,24.82213,0
            120.91023,24.82213,0
            120.91017,24.82215,0
            120.91014,24.82215,0
            120.90995,24.82221,0
            120.90993,24.82222,0
            120.90987,24.82223,0
            120.90983,24.82225,0
            120.90982,24.82225,0
            120.90981,24.82227,0
            120.90981,24.8223,0
            120.90993,24.82265,0
            120.90963,24.82273,0
            120.90928,24.82285,0
            120.90947,24.82327,0
            120.90958,24.82346,0
            120.90959,24.82349,0
            120.90971,24.82365,0
            120.91171,24.82682,0
            120.91177,24.82693,0
            120.91206,24.82738,0
            120.91213,24.82753,0
            120.91227,24.82792,0
            120.91232,24.8281,0
            120.91237,24.82845,0
            120.91239,24.82852,0
            120.91239,24.82858,0
            120.91241,24.82863,0
            120.91245,24.82868,0
            120.91245,24.82869,0
            120.91285,24.82915,0
            120.91303,24.82941,0
            120.91322,24.82973,0
            120.91381,24.83043,0
            120.91387,24.83052,0
            120.91391,24.8306,0
            120.91399,24.83083,0
            120.91428,24.83113,0
            120.91436,24.83124,0
            120.91446,24.83144,0
            120.91456,24.83157,0
            120.91456,24.83163,0
            120.91453,24.83166,0
            120.91436,24.83175,0
            120.91428,24.83183,0
            120.91424,24.8319,0
            120.91422,24.83196,0
            120.91422,24.83201,0
            120.91423,24.83207,0
            120.91425,24.83213,0
            120.91439,24.8324,0
            120.91493,24.83329,0
            120.91568,24.83441,0
            120.91571,24.83444,0
            120.91582,24.83452,0
            120.91681,24.83585,0
            120.91682,24.83589,0
            120.91687,24.83599,0
            120.91766,24.83705,0
            120.91769,24.83708,0
            120.91771,24.83709,0
            120.91778,24.83709,0
            120.91779,24.8371,0
            120.9178,24.8371,0
            120.91782,24.83714,0
            120.91803,24.83745,0
            120.91809,24.83751,0
            120.91814,24.83752,0
            120.91817,24.83752,0
            120.91822,24.83751,0
            120.91951,24.83683,0
            120.91976,24.83674,0
            120.91998,24.83664,0
            120.92006,24.83659,0
            120.92009,24.83656,0
            120.92013,24.83653,0
            120.92015,24.8365,0
            120.92017,24.83648,0
            120.92056,24.83564,0
            120.92056,24.8356,0
            120.92057,24.83556,0
            120.92055,24.83549,0
            120.92049,24.83535,0
            120.92048,24.83531,0
            120.92051,24.83516,0
            120.92066,24.83525,0
            120.92072,24.83534,0
            120.9226,24.83919,0
            120.92199,24.83942,0
            120.92142,24.8397,0
            120.92132,24.83973,0
            120.92106,24.83976,0
            120.92068,24.83983,0
            120.92061,24.83981,0
            120.9206,24.83981,0
            120.92056,24.83979,0
            120.92029,24.83954,0
            120.92024,24.83946,0
            120.9202,24.83937,0
            120.92009,24.83919,0
            120.92004,24.83914,0
            120.92001,24.83912,0
            120.9198,24.83913,0
            120.91936,24.83921,0
            120.91959,24.83955,0
            120.91966,24.83955,0
            120.91969,24.83956,0
            120.91972,24.83956,0
            120.91976,24.83958,0
            120.9198,24.83961,0
            120.91995,24.83983,0
            120.92005,24.83993,0
            120.92009,24.83996,0
            120.92013,24.84,0
            120.92041,24.84035,0
            120.92053,24.84053,0
            120.92231,24.84291,0
            120.92247,24.84278,0
            120.92247,24.84277,0
            120.92248,24.84276,0
            120.92248,24.84275,0
            120.9225,24.84273,0
            120.92268,24.84262,0
            120.92269,24.84261,0
            120.92277,24.84257,0
            120.92278,24.84257,0
            120.9228,24.84256,0
            120.92282,24.84256,0
            120.92283,24.84257,0
            120.92285,24.84257,0
            120.92286,24.84258,0
            120.92288,24.84259,0
            120.92289,24.8426,0
            120.9231,24.84291,0
            120.92325,24.84281,0
            120.9233,24.8429,0
            120.9232,24.84293,0
            120.9233,24.84306,0
            120.92341,24.84323,0
            120.92506,24.84545,0
            120.92574,24.84649,0
            120.92584,24.84645,0
            120.92593,24.8464,0
            120.92598,24.84649,0
            120.92579,24.84659,0
            120.92519,24.84685,0
            120.92557,24.84781,0
            120.9263,24.84992,0
            120.92696,24.84974,0
            120.92747,24.85103,0
            120.92752,24.85112,0
            120.92759,24.85122,0
            120.92768,24.85127,0
            120.92775,24.85129,0
            120.92783,24.8513,0
            120.92824,24.85131,0
            120.92876,24.85126,0
            120.92904,24.8512,0
            120.9297,24.85069,0
            120.92979,24.85061,0
            120.9299,24.85053,0
            120.93014,24.85031,0
            120.93037,24.84997,0
            120.93041,24.84988,0
            120.93046,24.84972,0
            120.9305,24.84949,0
            120.9305,24.84947,0
            120.93068,24.84846,0
            120.93086,24.84803,0
            120.93106,24.84763,0
            120.93111,24.84761,0
            120.93117,24.84756,0
            120.93146,24.84712,0
            120.93154,24.84702,0
            120.93177,24.84677,0
            120.93203,24.84652,0
            120.93269,24.84603,0
            120.9331,24.84576,0
            120.93313,24.84575,0
            120.93388,24.84523,0
            120.93389,24.84523,0
            120.93455,24.84483,0
            120.93491,24.84465,0
            120.93563,24.84437,0
            120.93631,24.84404,0
            120.93631,24.84403,0
            120.93665,24.84387,0
            120.93666,24.84387,0
            120.93666,24.84386,0
            120.93701,24.8437,0
            120.93701,24.84369,0
            120.93736,24.84353,0
            120.93736,24.84352,0
            120.93769,24.84337,0
            120.93771,24.84335,0
            120.93899,24.84265,0
            120.93962,24.84234,0
            120.93979,24.84228,0
            120.94,24.84223,0
            120.94035,24.84217,0
            120.94046,24.84216,0
            120.94053,24.84219,0
            120.94056,24.84218,0
            120.94059,24.84218,0
            120.9406,24.84217,0
            120.94065,24.84215,0
            120.94066,24.84215,0
            120.94072,24.84209,0
            120.94073,24.84206,0
            120.94072,24.84198,0
            120.94068,24.84189,0
            120.94061,24.8418,0
            120.94057,24.84173,0
            120.94056,24.84172,0
            120.94051,24.84164,0
            120.9405,24.8416,0
            120.9405,24.84159,0
            120.94049,24.84157,0
            120.94049,24.84138,0
            120.94051,24.84129,0
            120.94054,24.84123,0
            120.94072,24.84104,0
            120.9408,24.84091,0
            120.94082,24.84089,0
            120.94084,24.84086,0
            120.94087,24.84083,0
            120.9409,24.84081,0
            120.94125,24.84049,0
            120.94134,24.84043,0
            120.9414,24.8404,0
            120.94146,24.84038,0
            120.94151,24.84037,0
            120.94171,24.84037,0
            120.94173,24.84036,0
            120.9419,24.84036,0
            120.94199,24.84033,0
            120.94217,24.84024,0
            120.9422,24.84021,0
            120.94225,24.84021,0
            120.94285,24.8406,0
            120.94295,24.84064,0
            120.943,24.84062,0
            120.94311,24.84053,0
            120.94329,24.84024,0
            120.94333,24.84019,0
            120.94336,24.84012,0
            120.94338,24.84009,0
            120.94339,24.84005,0
            120.94341,24.84001,0
            120.94341,24.83992,0
            120.94338,24.83986,0
            120.94338,24.83984,0
            120.94335,24.83979,0
            120.94333,24.83977,0
            120.94328,24.83968,0
            120.94328,24.83965,0
            120.9433,24.83961,0
            120.94332,24.83959,0
            120.94335,24.83954,0
            120.94335,24.83953,0
            120.94336,24.83952,0
            120.94338,24.83948,0
            120.94338,24.83946,0
            120.94339,24.83943,0
            120.94339,24.83923,0
            120.9434,24.8392,0
            120.9434,24.83918,0
            120.94341,24.83916,0
            120.94365,24.83894,0
            120.94512,24.83778,0
            120.94524,24.83767,0
            120.94557,24.83743,0
            120.94559,24.83742,0
            120.9457,24.83734,0
            120.94576,24.83732,0
            120.94578,24.83732,0
            120.94585,24.83729,0
            120.94589,24.83728,0
            120.94605,24.83721,0
            120.94607,24.83719,0
            120.94609,24.83718,0
            120.9461,24.83718,0
            120.94614,24.83715,0
            120.94619,24.83708,0
            120.94623,24.83705,0
            120.9463,24.83698,0
            120.94635,24.83694,0
            120.94648,24.83686,0
            120.9465,24.83684,0
            120.94657,24.83679,0
            120.9467,24.83667,0
            120.94689,24.83654,0
            120.94696,24.83651,0
            120.94704,24.83646,0
            120.94718,24.83639,0
            120.94782,24.83598,0
            120.94783,24.83597,0
            120.94822,24.83572,0
            120.94864,24.83549,0
            120.9495,24.83497,0
            120.95512,24.83203,0
            120.95526,24.83197,0
            120.95533,24.83195,0
            120.95535,24.83194,0
            120.95539,24.83193,0
            120.95544,24.83191,0
            120.95545,24.83191,0
            120.9555,24.83189,0
            120.95557,24.83185,0
            120.9556,24.83185,0
            120.95565,24.83183,0
            120.95568,24.83183,0
            120.95572,24.83182,0
            120.9558,24.83182,0
            120.95585,24.83183,0
            120.95606,24.83183,0
            120.95611,24.83181,0
            120.95615,24.8318,0
            120.95623,24.83174,0
            120.95634,24.83163,0
            120.95714,24.83108,0
            120.95741,24.83092,0
            120.95749,24.83089,0
            120.9575,24.83089,0
            120.9575,24.83087,0
            120.95749,24.83085,0
            120.95748,24.83081,0
            120.95747,24.83071,0
            120.95746,24.83067,0
            120.95746,24.83062,0
            120.95751,24.83049,0
            120.95843,24.83005,0
            120.95891,24.82986,0
            120.96161,24.82896,0
            120.96289,24.82849,0
            120.96381,24.82819,0
            120.96591,24.82757,0
            120.96974,24.82629,0
            120.97049,24.82614,0
            120.97095,24.826,0
            120.97115,24.82591,0
            120.97144,24.82581,0
            120.9725,24.8255,0
            120.97283,24.82544,0
            120.97404,24.82531,0
            120.97658,24.82483,0
            120.97668,24.82475,0
            120.97689,24.82468,0
            120.97707,24.82465,0
            120.97727,24.8246,0
            120.97746,24.82457,0
            120.97758,24.82454,0
            120.9779,24.82443,0
            120.97799,24.82439,0
            120.97812,24.82428,0
            120.9783,24.8241,0
            120.97848,24.82388,0
            120.97851,24.82383,0
            120.97857,24.82379,0
            120.97858,24.82377,0
            120.9786,24.82376,0
            120.97873,24.82364,0
            120.97913,24.82319,0
            120.97969,24.82251,0
            120.98173,24.82025,0
            120.98323,24.81821,0
            120.98356,24.81771,0
            120.98438,24.81668,0
            120.98451,24.81645,0
            120.98456,24.81638,0
            120.9846,24.81629,0
            120.98485,24.81596,0
            120.98505,24.81561,0
            120.98531,24.81496,0
            120.98553,24.81451,0
            120.98566,24.81429,0
            120.98599,24.81356,0
            120.98608,24.81328,0
            120.98612,24.81304,0
            120.98614,24.81222,0
            120.98613,24.81207,0
            120.98614,24.81132,0
            120.98615,24.81121,0
            120.9862,24.811,0
            120.9862,24.81099,0
            120.98626,24.81087,0
            120.98629,24.81083,0
            120.98634,24.81074,0
            120.98718,24.80963,0
            120.98754,24.8092,0
            120.98763,24.80912,0
            120.98845,24.80803,0
            120.98858,24.80789,0
            120.99061,24.80666,0
            120.99056,24.80661,0
            120.9908,24.80648,0
            120.99267,24.80533,0
            120.99254,24.8051,0
            120.99242,24.80511,0
            120.9919,24.80505,0
            120.99169,24.80504,0
            120.9911,24.80498,0
            120.99098,24.80495,0
            120.99097,24.80495,0
            120.99096,24.80494,0
            120.99039,24.80468,0
            120.99016,24.8046,0
            120.99001,24.80468,0
            120.98948,24.80372,0
            120.98945,24.80365,0
            120.9886,24.80207,0
            120.98856,24.80197,0
            120.98794,24.80081,0
            120.98708,24.80109,0
            120.98706,24.80101,0
            120.98686,24.80054,0
            120.98677,24.80036,0
            120.98561,24.79749,0
            120.98547,24.79728,0
            120.98541,24.79721,0
            120.98532,24.79716,0
            120.97807,24.79454,0
          </coordinates>
        </LineString>
      </Placemark>
      <Placemark>
        <name>苗栗縣苗栗市福麗里至公路國立苗栗高級中學</name>
        <styleUrl>#icon-1899-DB4436-nodesc</styleUrl>
        <Point>
          <coordinates>
            120.8164588,24.5587944,0
          </coordinates>
        </Point>
      </Placemark>
      <Placemark>
        <name>苗栗縣苗栗市嘉盛里為公路7-ELEVEN 為公門市</name>
        <styleUrl>#icon-1899-DB4436-nodesc</styleUrl>
        <Point>
          <coordinates>
            120.8373735,24.5736072,0
          </coordinates>
        </Point>
      </Placemark>
      <Placemark>
        <name>苗栗縣竹南鎮明勝路7-ELEVEN 海口門市</name>
        <styleUrl>#icon-1899-DB4436-nodesc</styleUrl>
        <Point>
          <coordinates>
            120.8591286,24.6732302,0
          </coordinates>
        </Point>
      </Placemark>
      <Placemark>
        <name>龍鳳漁港</name>
        <styleUrl>#icon-1899-DB4436-nodesc</styleUrl>
        <Point>
          <coordinates>
            120.8559639,24.6996218,0
          </coordinates>
        </Point>
      </Placemark>
      <Placemark>
        <name>新竹市香山區南港賞鳥公園</name>
        <styleUrl>#icon-1899-DB4436-nodesc</styleUrl>
        <Point>
          <coordinates>
            120.8947334,24.7425011,0
          </coordinates>
        </Point>
      </Placemark>
      <Placemark>
        <name>新竹市香山區港南里海埔路港南運河公園</name>
        <styleUrl>#icon-1899-DB4436-nodesc</styleUrl>
        <Point>
          <coordinates>
            120.9105915,24.822778,0
          </coordinates>
        </Point>
      </Placemark>
      <Placemark>
        <name>新竹市北區海濱里海濱路新竹17公里海岸風景區</name>
        <styleUrl>#icon-1899-DB4436-nodesc</styleUrl>
        <Point>
          <coordinates>
            120.9259316,24.8464041,0
          </coordinates>
        </Point>
      </Placemark>
      <Placemark>
        <name>新竹市東區前溪里公道五路三段【尚隆】台灣中油 昌隆站</name>
        <styleUrl>#icon-1899-DB4436-nodesc</styleUrl>
        <Point>
          <coordinates>
            120.9810716,24.8209732,0
          </coordinates>
        </Point>
      </Placemark>
      <Placemark>
        <name>新竹市東區建華里學府路新竹市立培英國民中學</name>
        <styleUrl>#icon-1899-DB4436-nodesc</styleUrl>
        <Point>
          <coordinates>
            120.9780721,24.7945394,0
          </coordinates>
        </Point>
      </Placemark>
    </Folder>
  </Document>
</kml>
