<?xml version="1.0" encoding="UTF-8"?>
<kml xmlns="http://www.opengis.net/kml/2.2">
  <Document>
    <name>2026環島Day11</name>
    <description>恆春→左營</description>
    <Style id="icon-1899-DB4436-nodesc-normal">
      <IconStyle>
        <color>ff3644db</color>
        <scale>1</scale>
        <Icon>
          <href>https://www.gstatic.com/mapspro/images/stock/503-wht-blank_maps.png</href>
        </Icon>
        <hotSpot x="32" xunits="pixels" y="64" yunits="insetPixels"/>
      </IconStyle>
      <LabelStyle>
        <scale>0</scale>
      </LabelStyle>
      <BalloonStyle>
        <text><![CDATA[<h3>$[name]</h3>]]></text>
      </BalloonStyle>
    </Style>
    <Style id="icon-1899-DB4436-nodesc-highlight">
      <IconStyle>
        <color>ff3644db</color>
        <scale>1</scale>
        <Icon>
          <href>https://www.gstatic.com/mapspro/images/stock/503-wht-blank_maps.png</href>
        </Icon>
        <hotSpot x="32" xunits="pixels" y="64" yunits="insetPixels"/>
      </IconStyle>
      <LabelStyle>
        <scale>1</scale>
      </LabelStyle>
      <BalloonStyle>
        <text><![CDATA[<h3>$[name]</h3>]]></text>
      </BalloonStyle>
    </Style>
    <StyleMap id="icon-1899-DB4436-nodesc">
      <Pair>
        <key>normal</key>
        <styleUrl>#icon-1899-DB4436-nodesc-normal</styleUrl>
      </Pair>
      <Pair>
        <key>highlight</key>
        <styleUrl>#icon-1899-DB4436-nodesc-highlight</styleUrl>
      </Pair>
    </StyleMap>
    <Style id="line-1267FF-5000-nodesc-normal">
      <LineStyle>
        <color>ffff6712</color>
        <width>5</width>
      </LineStyle>
      <BalloonStyle>
        <text><![CDATA[<h3>$[name]</h3>]]></text>
      </BalloonStyle>
    </Style>
    <Style id="line-1267FF-5000-nodesc-highlight">
      <LineStyle>
        <color>ffff6712</color>
        <width>7.5</width>
      </LineStyle>
      <BalloonStyle>
        <text><![CDATA[<h3>$[name]</h3>]]></text>
      </BalloonStyle>
    </Style>
    <StyleMap id="line-1267FF-5000-nodesc">
      <Pair>
        <key>normal</key>
        <styleUrl>#line-1267FF-5000-nodesc-normal</styleUrl>
      </Pair>
      <Pair>
        <key>highlight</key>
        <styleUrl>#line-1267FF-5000-nodesc-highlight</styleUrl>
      </Pair>
    </StyleMap>
    <Folder>
      <name>恆春國小→左營高中</name>
      <Placemark>
        <name>恆春國小→左營高中</name>
        <styleUrl>#line-1267FF-5000-nodesc</styleUrl>
        <LineString>
          <tessellate>1</tessellate>
          <coordinates>
            120.74647,22.00568,0
            120.74721,22.00554,0
            120.74751,22.00665,0
            120.74769,22.00716,0
            120.74785,22.00772,0
            120.74797,22.00805,0
            120.74799,22.00809,0
            120.74803,22.0082,0
            120.74816,22.00846,0
            120.7483,22.0087,0
            120.74762,22.00892,0
            120.74671,22.00917,0
            120.74619,22.00934,0
            120.74604,22.00937,0
            120.7452,22.0096,0
            120.74393,22.01,0
            120.74429,22.01146,0
            120.74447,22.01233,0
            120.74447,22.01261,0
            120.74445,22.01296,0
            120.74438,22.01356,0
            120.74434,22.01408,0
            120.74434,22.01418,0
            120.74431,22.01449,0
            120.74428,22.0151,0
            120.74422,22.01558,0
            120.74422,22.01568,0
            120.74419,22.01573,0
            120.7442,22.0164,0
            120.74404,22.01857,0
            120.744,22.01998,0
            120.74397,22.02015,0
            120.74384,22.02125,0
            120.74367,22.02201,0
            120.74342,22.02337,0
            120.74327,22.02398,0
            120.74322,22.02414,0
            120.74321,22.02415,0
            120.74316,22.0243,0
            120.74276,22.02532,0
            120.74187,22.02746,0
            120.74166,22.02789,0
            120.74154,22.02819,0
            120.74146,22.02842,0
            120.74125,22.02888,0
            120.7402,22.03143,0
            120.73925,22.03391,0
            120.73909,22.03428,0
            120.73809,22.03688,0
            120.73795,22.03721,0
            120.73773,22.0376,0
            120.73767,22.03766,0
            120.73677,22.03833,0
            120.73634,22.03858,0
            120.7361,22.03876,0
            120.73584,22.03901,0
            120.73564,22.03924,0
            120.73281,22.04299,0
            120.73266,22.04313,0
            120.73211,22.0437,0
            120.72973,22.04595,0
            120.72908,22.04649,0
            120.72719,22.04799,0
            120.72632,22.04883,0
            120.726,22.04916,0
            120.72595,22.04922,0
            120.72301,22.0521,0
            120.72254,22.0526,0
            120.72212,22.05321,0
            120.72186,22.05354,0
            120.72182,22.05361,0
            120.72157,22.05398,0
            120.72052,22.05541,0
            120.72029,22.05576,0
            120.71988,22.05626,0
            120.71835,22.05791,0
            120.71821,22.05808,0
            120.71806,22.05829,0
            120.71795,22.05847,0
            120.71692,22.06035,0
            120.71683,22.06054,0
            120.71578,22.06249,0
            120.71565,22.06268,0
            120.7154,22.06331,0
            120.71432,22.06633,0
            120.71421,22.06674,0
            120.71409,22.06744,0
            120.71389,22.06829,0
            120.71386,22.06859,0
            120.71386,22.07011,0
            120.71387,22.07029,0
            120.71387,22.07059,0
            120.71388,22.07062,0
            120.71409,22.0731,0
            120.71408,22.07361,0
            120.71406,22.07396,0
            120.71405,22.074,0
            120.714,22.07463,0
            120.71375,22.07671,0
            120.71369,22.07734,0
            120.71369,22.07741,0
            120.71368,22.07751,0
            120.71369,22.07767,0
            120.71373,22.07787,0
            120.71446,22.0804,0
            120.71518,22.08319,0
            120.71558,22.08485,0
            120.7156,22.08491,0
            120.71616,22.0872,0
            120.71632,22.08769,0
            120.7169,22.08901,0
            120.71696,22.08917,0
            120.71734,22.08998,0
            120.71734,22.09,0
            120.71799,22.09147,0
            120.718,22.09148,0
            120.71839,22.09247,0
            120.71845,22.09288,0
            120.71845,22.09308,0
            120.71842,22.09335,0
            120.71823,22.09394,0
            120.7169,22.09759,0
            120.71683,22.09788,0
            120.71679,22.0982,0
            120.71679,22.09842,0
            120.71688,22.09991,0
            120.71685,22.1004,0
            120.71676,22.10085,0
            120.71675,22.10093,0
            120.71663,22.10144,0
            120.71659,22.10165,0
            120.71649,22.10242,0
            120.71643,22.10322,0
            120.71642,22.10362,0
            120.71643,22.10404,0
            120.71647,22.1043,0
            120.71656,22.10468,0
            120.71666,22.10504,0
            120.71681,22.10577,0
            120.71682,22.10595,0
            120.71682,22.10613,0
            120.7168,22.10629,0
            120.71672,22.1066,0
            120.71665,22.1068,0
            120.71648,22.10715,0
            120.71613,22.10778,0
            120.71587,22.10812,0
            120.71573,22.10824,0
            120.71566,22.10831,0
            120.71548,22.10845,0
            120.7151,22.10872,0
            120.71484,22.10889,0
            120.71456,22.10909,0
            120.71439,22.10925,0
            120.71428,22.10937,0
            120.7142,22.10953,0
            120.71417,22.10956,0
            120.71412,22.10968,0
            120.71412,22.10969,0
            120.71407,22.10982,0
            120.71401,22.11003,0
            120.71397,22.11064,0
            120.71403,22.11121,0
            120.71429,22.11256,0
            120.71434,22.11275,0
            120.71462,22.11443,0
            120.71467,22.11486,0
            120.71468,22.11503,0
            120.71468,22.11524,0
            120.71467,22.11532,0
            120.71467,22.11537,0
            120.71458,22.11574,0
            120.71449,22.11593,0
            120.71434,22.1162,0
            120.71276,22.11848,0
            120.71238,22.11899,0
            120.71221,22.1193,0
            120.71212,22.11953,0
            120.71205,22.11975,0
            120.71198,22.12022,0
            120.71167,22.12282,0
            120.71157,22.12331,0
            120.7115,22.1235,0
            120.71135,22.1238,0
            120.71076,22.1247,0
            120.71076,22.12471,0
            120.70998,22.12588,0
            120.70987,22.12606,0
            120.7097,22.12642,0
            120.70957,22.12674,0
            120.70954,22.12684,0
            120.70915,22.12785,0
            120.70902,22.12811,0
            120.70895,22.12823,0
            120.70867,22.1286,0
            120.70762,22.12961,0
            120.70751,22.12974,0
            120.70712,22.13031,0
            120.70686,22.13072,0
            120.70597,22.13202,0
            120.70577,22.13234,0
            120.70567,22.13248,0
            120.70555,22.13268,0
            120.7054,22.13308,0
            120.70534,22.13344,0
            120.70526,22.13464,0
            120.70523,22.1348,0
            120.70522,22.13491,0
            120.70507,22.13533,0
            120.70403,22.13711,0
            120.7037,22.13777,0
            120.70341,22.13848,0
            120.70326,22.1388,0
            120.70312,22.13902,0
            120.70222,22.14017,0
            120.7017,22.14087,0
            120.7007,22.14213,0
            120.70063,22.14223,0
            120.70052,22.14242,0
            120.70035,22.14279,0
            120.70031,22.14291,0
            120.70029,22.14302,0
            120.70026,22.14332,0
            120.70027,22.14346,0
            120.7003,22.14366,0
            120.70033,22.14377,0
            120.70056,22.14438,0
            120.70056,22.14439,0
            120.70057,22.14442,0
            120.70082,22.14491,0
            120.70118,22.14574,0
            120.70122,22.14581,0
            120.70125,22.14591,0
            120.70126,22.14597,0
            120.70134,22.14625,0
            120.70133,22.14631,0
            120.70134,22.14649,0
            120.70133,22.1468,0
            120.70127,22.14745,0
            120.70106,22.14907,0
            120.70063,22.15118,0
            120.7006,22.15139,0
            120.70057,22.15154,0
            120.70055,22.15158,0
            120.70045,22.15207,0
            120.7003,22.15268,0
            120.69971,22.1547,0
            120.69969,22.15481,0
            120.69951,22.1555,0
            120.69945,22.15584,0
            120.69929,22.15647,0
            120.69928,22.15654,0
            120.69884,22.15841,0
            120.69884,22.15842,0
            120.69779,22.1623,0
            120.69774,22.16253,0
            120.69657,22.1662,0
            120.69656,22.16621,0
            120.69656,22.16622,0
            120.69651,22.16638,0
            120.6965,22.16639,0
            120.69603,22.16782,0
            120.69597,22.16803,0
            120.69578,22.16859,0
            120.69551,22.16928,0
            120.69509,22.17011,0
            120.69497,22.17037,0
            120.69483,22.17071,0
            120.6948,22.1708,0
            120.69475,22.17102,0
            120.69473,22.17114,0
            120.69474,22.17152,0
            120.69481,22.1718,0
            120.69487,22.17196,0
            120.69487,22.17198,0
            120.69513,22.17264,0
            120.69523,22.17298,0
            120.69526,22.1732,0
            120.69527,22.17337,0
            120.69527,22.17354,0
            120.69524,22.17393,0
            120.6952,22.17422,0
            120.69493,22.17562,0
            120.69492,22.17571,0
            120.69487,22.17593,0
            120.69444,22.17821,0
            120.69435,22.17856,0
            120.69427,22.17879,0
            120.69407,22.17922,0
            120.69371,22.17991,0
            120.69343,22.18038,0
            120.69322,22.1808,0
            120.69291,22.18134,0
            120.69285,22.18146,0
            120.69259,22.18191,0
            120.69252,22.18206,0
            120.69248,22.18212,0
            120.69228,22.1826,0
            120.69207,22.18329,0
            120.69193,22.1837,0
            120.69178,22.1843,0
            120.69157,22.18555,0
            120.69145,22.18613,0
            120.69137,22.18664,0
            120.69136,22.18694,0
            120.69137,22.18709,0
            120.6914,22.18733,0
            120.69178,22.1891,0
            120.69183,22.18958,0
            120.69173,22.19062,0
            120.69173,22.19083,0
            120.69182,22.19183,0
            120.6922,22.19406,0
            120.69221,22.1943,0
            120.69219,22.19444,0
            120.69213,22.1946,0
            120.69212,22.19464,0
            120.69205,22.19479,0
            120.69198,22.19487,0
            120.69194,22.19493,0
            120.69137,22.19553,0
            120.69052,22.19636,0
            120.69016,22.19674,0
            120.68993,22.19704,0
            120.68978,22.19727,0
            120.68964,22.19761,0
            120.6895,22.198,0
            120.68924,22.19911,0
            120.68924,22.19913,0
            120.68918,22.19935,0
            120.68778,22.2053,0
            120.6876,22.20587,0
            120.68739,22.20641,0
            120.68734,22.20652,0
            120.68728,22.20669,0
            120.68619,22.2093,0
            120.6858,22.21017,0
            120.68567,22.21043,0
            120.68551,22.2107,0
            120.68479,22.21181,0
            120.68448,22.21225,0
            120.6842,22.2127,0
            120.68314,22.2143,0
            120.68262,22.21502,0
            120.68261,22.21504,0
            120.68124,22.21674,0
            120.68099,22.21702,0
            120.68023,22.21777,0
            120.68016,22.21783,0
            120.68016,22.21784,0
            120.67934,22.2186,0
            120.67898,22.21897,0
            120.67881,22.21922,0
            120.67869,22.21944,0
            120.67834,22.22084,0
            120.67831,22.22093,0
            120.67824,22.2211,0
            120.67794,22.22161,0
            120.6778,22.22182,0
            120.67767,22.22204,0
            120.67762,22.22216,0
            120.67757,22.22226,0
            120.67752,22.22246,0
            120.67751,22.22267,0
            120.67754,22.22284,0
            120.6776,22.22306,0
            120.67778,22.22354,0
            120.67778,22.22355,0
            120.67784,22.22371,0
            120.67787,22.22384,0
            120.67789,22.22397,0
            120.67789,22.2241,0
            120.67787,22.22425,0
            120.67787,22.22428,0
            120.67782,22.22445,0
            120.67778,22.22456,0
            120.67771,22.22467,0
            120.67749,22.22492,0
            120.67733,22.22503,0
            120.67707,22.22517,0
            120.67659,22.2254,0
            120.67641,22.22551,0
            120.67622,22.22566,0
            120.67609,22.22579,0
            120.67603,22.22587,0
            120.6759,22.22608,0
            120.67579,22.22634,0
            120.67572,22.22657,0
            120.6757,22.22674,0
            120.6757,22.22688,0
            120.67574,22.22718,0
            120.67583,22.22758,0
            120.67587,22.22786,0
            120.67587,22.22809,0
            120.67585,22.22831,0
            120.67576,22.22864,0
            120.6757,22.22881,0
            120.67565,22.22891,0
            120.67548,22.2292,0
            120.67529,22.22942,0
            120.67496,22.22975,0
            120.67474,22.23,0
            120.67462,22.23016,0
            120.67432,22.23065,0
            120.67422,22.23087,0
            120.67402,22.2314,0
            120.67401,22.23145,0
            120.67387,22.23183,0
            120.67369,22.23225,0
            120.67297,22.23371,0
            120.67263,22.23431,0
            120.66996,22.23766,0
            120.66989,22.23776,0
            120.66867,22.23928,0
            120.66743,22.24055,0
            120.66687,22.24109,0
            120.66663,22.24134,0
            120.66419,22.24356,0
            120.66409,22.24366,0
            120.66324,22.24442,0
            120.66311,22.24455,0
            120.66085,22.24655,0
            120.66072,22.24668,0
            120.6603,22.24705,0
            120.65942,22.24788,0
            120.65902,22.2482,0
            120.65848,22.24858,0
            120.65799,22.24895,0
            120.65784,22.24908,0
            120.65765,22.24928,0
            120.65746,22.2495,0
            120.65732,22.24968,0
            120.65721,22.24985,0
            120.65712,22.25003,0
            120.65702,22.25027,0
            120.65677,22.25108,0
            120.65654,22.25173,0
            120.6565,22.25182,0
            120.65323,22.25821,0
            120.65314,22.25842,0
            120.65306,22.25857,0
            120.653,22.25874,0
            120.65294,22.25895,0
            120.6529,22.25905,0
            120.65285,22.25947,0
            120.65285,22.2596,0
            120.65315,22.26252,0
            120.65317,22.26289,0
            120.65329,22.26409,0
            120.6533,22.26432,0
            120.65329,22.26479,0
            120.6532,22.26606,0
            120.65307,22.26735,0
            120.65303,22.26752,0
            120.65302,22.26762,0
            120.653,22.2677,0
            120.65294,22.26806,0
            120.65293,22.26809,0
            120.65283,22.26853,0
            120.65276,22.26877,0
            120.6526,22.26911,0
            120.65145,22.27103,0
            120.65143,22.27105,0
            120.65135,22.27118,0
            120.65134,22.27121,0
            120.65085,22.27204,0
            120.6506,22.27254,0
            120.6497,22.27534,0
            120.64963,22.27574,0
            120.64945,22.27717,0
            120.64909,22.27892,0
            120.64899,22.27932,0
            120.64881,22.27978,0
            120.64778,22.28202,0
            120.64707,22.28371,0
            120.64691,22.28399,0
            120.6468,22.28416,0
            120.64641,22.28463,0
            120.64599,22.28517,0
            120.64587,22.28537,0
            120.64587,22.28538,0
            120.64577,22.28558,0
            120.64567,22.28581,0
            120.64508,22.28745,0
            120.64455,22.28911,0
            120.64413,22.29056,0
            120.64413,22.29059,0
            120.64401,22.29101,0
            120.64394,22.29149,0
            120.64394,22.29181,0
            120.64396,22.29209,0
            120.64422,22.29458,0
            120.64427,22.29525,0
            120.64427,22.29546,0
            120.64419,22.29656,0
            120.64396,22.29904,0
            120.64355,22.30163,0
            120.64343,22.30219,0
            120.64335,22.3025,0
            120.64256,22.30449,0
            120.64254,22.30453,0
            120.64243,22.30481,0
            120.64235,22.30515,0
            120.64231,22.30546,0
            120.6423,22.30626,0
            120.64228,22.30669,0
            120.64226,22.30685,0
            120.64223,22.30699,0
            120.64223,22.307,0
            120.64211,22.3074,0
            120.64202,22.30764,0
            120.64188,22.30789,0
            120.64146,22.30856,0
            120.6412,22.30892,0
            120.64111,22.30907,0
            120.64022,22.31039,0
            120.63983,22.3109,0
            120.63953,22.31121,0
            120.63933,22.31137,0
            120.63909,22.3116,0
            120.63886,22.3118,0
            120.63827,22.31244,0
            120.6368,22.31414,0
            120.63569,22.31536,0
            120.63559,22.31549,0
            120.63436,22.31692,0
            120.63133,22.32089,0
            120.63121,22.32103,0
            120.63104,22.32126,0
            120.63087,22.32147,0
            120.63086,22.32149,0
            120.63049,22.32197,0
            120.6303,22.32224,0
            120.63021,22.32234,0
            120.6301,22.32249,0
            120.63,22.3226,0
            120.62998,22.32263,0
            120.62988,22.32274,0
            120.62945,22.32316,0
            120.62924,22.32334,0
            120.62887,22.32363,0
            120.62884,22.32364,0
            120.62843,22.32393,0
            120.62735,22.32463,0
            120.62724,22.32469,0
            120.62517,22.32605,0
            120.62441,22.32652,0
            120.62387,22.32691,0
            120.62321,22.32748,0
            120.62285,22.32781,0
            120.62233,22.32825,0
            120.62159,22.32892,0
            120.62091,22.3295,0
            120.61866,22.33153,0
            120.61687,22.33332,0
            120.61601,22.33413,0
            120.61541,22.33476,0
            120.61519,22.33505,0
            120.61508,22.33521,0
            120.61491,22.33553,0
            120.61478,22.33584,0
            120.6142,22.33754,0
            120.61415,22.33766,0
            120.61367,22.33919,0
            120.61365,22.33924,0
            120.61339,22.34022,0
            120.6133,22.34049,0
            120.61315,22.34087,0
            120.6129,22.34132,0
            120.61147,22.34356,0
            120.61131,22.34379,0
            120.61095,22.34437,0
            120.61055,22.34497,0
            120.60949,22.3467,0
            120.60883,22.3477,0
            120.60874,22.34786,0
            120.60849,22.34838,0
            120.60841,22.3486,0
            120.60833,22.349,0
            120.6083,22.34923,0
            120.60827,22.34972,0
            120.60825,22.35057,0
            120.60825,22.35174,0
            120.60813,22.35829,0
            120.60812,22.3584,0
            120.60808,22.36224,0
            120.60807,22.36242,0
            120.608,22.36694,0
            120.60795,22.36722,0
            120.60791,22.36739,0
            120.60775,22.36786,0
            120.60756,22.36821,0
            120.60756,22.36822,0
            120.60747,22.36835,0
            120.60733,22.36852,0
            120.60652,22.36943,0
            120.60539,22.37053,0
            120.60423,22.37175,0
            120.60374,22.37224,0
            120.60183,22.37432,0
            120.60137,22.37478,0
            120.59924,22.37702,0
            120.59846,22.37779,0
            120.59801,22.3783,0
            120.59761,22.37891,0
            120.59753,22.37907,0
            120.59693,22.38058,0
            120.59516,22.38483,0
            120.59425,22.3869,0
            120.594,22.38741,0
            120.59402,22.38754,0
            120.59391,22.38755,0
            120.59377,22.3876,0
            120.59368,22.38769,0
            120.59216,22.38969,0
            120.59215,22.38971,0
            120.59149,22.39069,0
            120.58892,22.39472,0
            120.58883,22.39484,0
            120.58504,22.40076,0
            120.58493,22.40091,0
            120.58356,22.40301,0
            120.58324,22.40338,0
            120.58299,22.40361,0
            120.58271,22.40384,0
            120.58225,22.40414,0
            120.58176,22.4044,0
            120.58112,22.40465,0
            120.58078,22.40474,0
            120.58008,22.40482,0
            120.57907,22.40485,0
            120.57622,22.40481,0
            120.57557,22.40482,0
            120.57537,22.40481,0
            120.57381,22.40481,0
            120.57318,22.40487,0
            120.57249,22.40501,0
            120.57216,22.40509,0
            120.57179,22.4052,0
            120.5716,22.40527,0
            120.57148,22.4053,0
            120.57099,22.40551,0
            120.57014,22.40595,0
            120.56481,22.40917,0
            120.56479,22.40919,0
            120.56329,22.4101,0
            120.56314,22.41018,0
            120.56252,22.41045,0
            120.56209,22.41061,0
            120.55876,22.41167,0
            120.55794,22.41197,0
            120.55731,22.41222,0
            120.55579,22.41276,0
            120.55513,22.41302,0
            120.5544,22.41327,0
            120.55307,22.4138,0
            120.55237,22.41406,0
            120.55183,22.41424,0
            120.55178,22.41425,0
            120.55176,22.41426,0
            120.55167,22.41426,0
            120.54993,22.41487,0
            120.54979,22.41491,0
            120.54948,22.41498,0
            120.54845,22.41516,0
            120.54844,22.41516,0
            120.54809,22.41525,0
            120.5479,22.41531,0
            120.54786,22.41533,0
            120.54773,22.41538,0
            120.5476,22.41544,0
            120.54738,22.41556,0
            120.54685,22.41589,0
            120.54498,22.41713,0
            120.54483,22.41722,0
            120.54437,22.41757,0
            120.54293,22.41855,0
            120.5422,22.41899,0
            120.54115,22.4197,0
            120.5399,22.42051,0
            120.53726,22.42229,0
            120.5353,22.42352,0
            120.53525,22.42356,0
            120.53331,22.42482,0
            120.53315,22.42486,0
            120.53285,22.42506,0
            120.53269,22.42515,0
            120.53067,22.42643,0
            120.52819,22.42807,0
            120.52793,22.42827,0
            120.52646,22.42927,0
            120.52642,22.42929,0
            120.52626,22.42939,0
            120.52623,22.42942,0
            120.52572,22.42972,0
            120.52275,22.4309,0
            120.51989,22.43198,0
            120.51856,22.43229,0
            120.51843,22.43231,0
            120.51821,22.43237,0
            120.51778,22.43252,0
            120.51757,22.43262,0
            120.51659,22.43328,0
            120.51575,22.43381,0
            120.51547,22.43394,0
            120.51528,22.43408,0
            120.51498,22.43435,0
            120.51486,22.43447,0
            120.51317,22.43653,0
            120.51315,22.43656,0
            120.51264,22.43719,0
            120.51254,22.4373,0
            120.51132,22.43881,0
            120.51128,22.43885,0
            120.51091,22.43931,0
            120.51091,22.43932,0
            120.51087,22.43936,0
            120.51084,22.43945,0
            120.51081,22.43948,0
            120.51061,22.43975,0
            120.50937,22.4412,0
            120.50907,22.44158,0
            120.50874,22.44205,0
            120.50657,22.44465,0
            120.50652,22.4447,0
            120.50583,22.44556,0
            120.50508,22.44634,0
            120.50376,22.44794,0
            120.50372,22.44798,0
            120.50332,22.44849,0
            120.50169,22.45042,0
            120.50123,22.45094,0
            120.50121,22.45097,0
            120.50095,22.4512,0
            120.50062,22.4514,0
            120.50031,22.45152,0
            120.49782,22.4522,0
            120.49758,22.45228,0
            120.49664,22.45252,0
            120.49657,22.45255,0
            120.49284,22.45355,0
            120.49114,22.45407,0
            120.49056,22.45422,0
            120.4816,22.45704,0
            120.48122,22.45719,0
            120.47955,22.45771,0
            120.47864,22.45797,0
            120.46865,22.46102,0
            120.46722,22.4614,0
            120.46711,22.46139,0
            120.46671,22.46151,0
            120.46436,22.46212,0
            120.46248,22.46265,0
            120.46198,22.46277,0
            120.46056,22.46318,0
            120.46052,22.4632,0
            120.46045,22.46322,0
            120.46035,22.46326,0
            120.46029,22.46327,0
            120.45945,22.46353,0
            120.45918,22.4636,0
            120.45905,22.46365,0
            120.45887,22.46369,0
            120.45857,22.4638,0
            120.4584,22.46382,0
            120.45716,22.46418,0
            120.45686,22.46429,0
            120.4568,22.4643,0
            120.45523,22.46476,0
            120.45507,22.46432,0
            120.45499,22.46413,0
            120.45496,22.46408,0
            120.4549,22.46395,0
            120.45487,22.46392,0
            120.45485,22.46389,0
            120.45483,22.46388,0
            120.45477,22.46382,0
            120.45468,22.46378,0
            120.4546,22.46376,0
            120.4541,22.46371,0
            120.4503,22.46346,0
            120.45026,22.46348,0
            120.45019,22.46349,0
            120.45014,22.46351,0
            120.45007,22.46351,0
            120.44999,22.46352,0
            120.44882,22.46348,0
            120.44885,22.46328,0
            120.44877,22.46325,0
            120.44867,22.4632,0
            120.44865,22.4632,0
            120.44864,22.46319,0
            120.44859,22.46319,0
            120.44857,22.4632,0
            120.44852,22.4632,0
            120.44847,22.46301,0
            120.44846,22.46301,0
            120.44836,22.46303,0
            120.4482,22.46304,0
            120.448,22.46309,0
            120.44734,22.46321,0
            120.44706,22.46328,0
            120.447,22.4633,0
            120.44696,22.46332,0
            120.44694,22.46334,0
            120.44693,22.46334,0
            120.44693,22.46335,0
            120.44692,22.46336,0
            120.44691,22.46338,0
            120.44692,22.46383,0
            120.44695,22.46428,0
            120.44696,22.46432,0
            120.44697,22.4644,0
            120.44712,22.4652,0
            120.44714,22.46527,0
            120.4472,22.46541,0
            120.44731,22.46554,0
            120.44753,22.46584,0
            120.44785,22.46642,0
            120.44799,22.4667,0
            120.44808,22.46685,0
            120.4485,22.46763,0
            120.4479,22.46796,0
            120.44769,22.46806,0
            120.44746,22.46819,0
            120.4472,22.46837,0
            120.44718,22.46839,0
            120.44715,22.46843,0
            120.4471,22.46848,0
            120.44707,22.46852,0
            120.44697,22.46873,0
            120.44696,22.46887,0
            120.44693,22.46895,0
            120.4464,22.47014,0
            120.44567,22.47188,0
            120.44559,22.47197,0
            120.44555,22.47206,0
            120.44555,22.47207,0
            120.44554,22.47208,0
            120.44554,22.4721,0
            120.44495,22.4735,0
            120.44489,22.47362,0
            120.44484,22.47378,0
            120.44481,22.47385,0
            120.44478,22.47397,0
            120.44472,22.47433,0
            120.44471,22.47456,0
            120.44468,22.47477,0
            120.44463,22.47537,0
            120.44452,22.47626,0
            120.44446,22.47654,0
            120.44401,22.48015,0
            120.44394,22.48088,0
            120.44389,22.48119,0
            120.44368,22.48197,0
            120.44367,22.48203,0
            120.44349,22.4825,0
            120.44346,22.48261,0
            120.44302,22.48354,0
            120.4428,22.48408,0
            120.44255,22.48464,0
            120.44247,22.48478,0
            120.44247,22.48479,0
            120.44009,22.49053,0
            120.44139,22.49191,0
            120.44174,22.49224,0
            120.44224,22.49279,0
            120.4425,22.49305,0
            120.44263,22.49321,0
            120.44277,22.49343,0
            120.44289,22.49368,0
            120.4433,22.49445,0
            120.44338,22.49464,0
            120.4434,22.49471,0
            120.44342,22.49483,0
            120.44343,22.49503,0
            120.44339,22.49595,0
            120.44339,22.49636,0
            120.44342,22.49644,0
            120.44255,22.49676,0
            120.44241,22.49683,0
            120.44222,22.49691,0
            120.44214,22.49696,0
            120.4413,22.49741,0
            120.44129,22.49742,0
            120.43949,22.49826,0
            120.43911,22.49846,0
            120.43898,22.49852,0
            120.4377,22.49924,0
            120.43753,22.49931,0
            120.43751,22.49933,0
            120.43743,22.49936,0
            120.43733,22.49941,0
            120.437,22.49951,0
            120.4365,22.49963,0
            120.43601,22.49969,0
            120.4358,22.4997,0
            120.43573,22.49971,0
            120.43566,22.49971,0
            120.43559,22.49973,0
            120.4354,22.49977,0
            120.43521,22.49978,0
            120.43483,22.49977,0
            120.43385,22.4997,0
            120.43378,22.49969,0
            120.43372,22.49969,0
            120.42749,22.49915,0
            120.42629,22.49908,0
            120.42359,22.49884,0
            120.42354,22.49883,0
            120.41721,22.49833,0
            120.41685,22.49827,0
            120.4151,22.49791,0
            120.4148,22.49788,0
            120.41468,22.49788,0
            120.41399,22.49783,0
            120.41313,22.49783,0
            120.41175,22.49795,0
            120.41146,22.49801,0
            120.40931,22.49832,0
            120.40907,22.49838,0
            120.40904,22.49838,0
            120.40801,22.49858,0
            120.40799,22.49859,0
            120.4061,22.49922,0
            120.40579,22.49935,0
            120.40571,22.49939,0
            120.40479,22.49978,0
            120.40471,22.4998,0
            120.40338,22.50027,0
            120.40189,22.50083,0
            120.40168,22.5009,0
            120.40148,22.50094,0
            120.40101,22.50098,0
            120.40043,22.50095,0
            120.40021,22.50092,0
            120.40002,22.50092,0
            120.39869,22.50082,0
            120.39807,22.50075,0
            120.39798,22.50075,0
            120.3973,22.5007,0
            120.39632,22.5006,0
            120.39506,22.50044,0
            120.394,22.50028,0
            120.39327,22.50023,0
            120.39185,22.50006,0
            120.3908,22.49999,0
            120.38984,22.49989,0
            120.38881,22.49996,0
            120.38825,22.50002,0
            120.38752,22.50012,0
            120.38667,22.50027,0
            120.38671,22.50036,0
            120.38597,22.50063,0
            120.38534,22.5009,0
            120.38517,22.50103,0
            120.38476,22.50124,0
            120.38431,22.50152,0
            120.38407,22.50179,0
            120.38396,22.50199,0
            120.38395,22.502,0
            120.38373,22.50242,0
            120.38362,22.50261,0
            120.38339,22.50294,0
            120.38318,22.50313,0
            120.38292,22.5033,0
            120.38281,22.50336,0
            120.38264,22.50343,0
            120.38238,22.50351,0
            120.38176,22.50352,0
            120.38043,22.50362,0
            120.38035,22.50364,0
            120.37945,22.50378,0
            120.37727,22.5042,0
            120.37634,22.50433,0
            120.37474,22.50462,0
            120.37422,22.50473,0
            120.37393,22.50478,0
            120.37389,22.50478,0
            120.37262,22.50502,0
            120.37241,22.50505,0
            120.37204,22.50512,0
            120.37188,22.50516,0
            120.37162,22.50525,0
            120.3714,22.50535,0
            120.37134,22.50537,0
            120.37114,22.50553,0
            120.37077,22.5058,0
            120.37062,22.50592,0
            120.37019,22.50615,0
            120.36919,22.50685,0
            120.36903,22.50698,0
            120.36863,22.50735,0
            120.36826,22.50775,0
            120.36815,22.50785,0
            120.36794,22.50807,0
            120.3678,22.50819,0
            120.36752,22.50838,0
            120.36715,22.50857,0
            120.36654,22.50885,0
            120.36574,22.50917,0
            120.36481,22.50948,0
            120.36459,22.50957,0
            120.36398,22.50978,0
            120.36366,22.50991,0
            120.36352,22.50998,0
            120.36344,22.51001,0
            120.36333,22.51007,0
            120.36297,22.51036,0
            120.36291,22.5104,0
            120.36289,22.51041,0
            120.36288,22.51041,0
            120.36286,22.5104,0
            120.3628,22.51038,0
            120.36273,22.51044,0
            120.36268,22.51051,0
            120.36262,22.51066,0
            120.36257,22.51087,0
            120.36241,22.51174,0
            120.36237,22.51188,0
            120.36227,22.51216,0
            120.36223,22.51224,0
            120.36214,22.51237,0
            120.36207,22.51245,0
            120.36165,22.51281,0
            120.36138,22.51309,0
            120.36127,22.51324,0
            120.36118,22.51356,0
            120.36117,22.51363,0
            120.36117,22.51381,0
            120.36122,22.51405,0
            120.36126,22.51417,0
            120.36132,22.5143,0
            120.36144,22.51451,0
            120.36177,22.51499,0
            120.36189,22.51519,0
            120.3619,22.51522,0
            120.36241,22.51606,0
            120.36363,22.51818,0
            120.36365,22.51823,0
            120.3641,22.51906,0
            120.36421,22.51924,0
            120.3658,22.52215,0
            120.36623,22.52289,0
            120.36664,22.52364,0
            120.36665,22.52367,0
            120.36926,22.52844,0
            120.36958,22.52897,0
            120.37288,22.53494,0
            120.37308,22.53536,0
            120.37323,22.53573,0
            120.37336,22.53614,0
            120.37344,22.53657,0
            120.37352,22.53734,0
            120.37351,22.53765,0
            120.37347,22.53821,0
            120.37336,22.53871,0
            120.37326,22.53906,0
            120.37303,22.53963,0
            120.37291,22.53987,0
            120.37275,22.54014,0
            120.37209,22.54108,0
            120.37205,22.54115,0
            120.3655,22.55042,0
            120.36388,22.55256,0
            120.36282,22.55389,0
            120.36274,22.55402,0
            120.35892,22.55884,0
            120.35721,22.56093,0
            120.35707,22.56112,0
            120.35583,22.56258,0
            120.35498,22.56362,0
            120.35274,22.56611,0
            120.35233,22.56654,0
            120.35114,22.56786,0
            120.35069,22.56831,0
            120.3505,22.56854,0
            120.35012,22.56892,0
            120.35003,22.569,0
            120.3497,22.56926,0
            120.34959,22.56933,0
            120.34935,22.56942,0
            120.34928,22.56944,0
            120.34914,22.56946,0
            120.3491,22.56947,0
            120.34904,22.56947,0
            120.34897,22.56948,0
            120.34802,22.56949,0
            120.34796,22.5695,0
            120.34714,22.56956,0
            120.34698,22.56955,0
            120.34684,22.5696,0
            120.34527,22.56967,0
            120.34511,22.56967,0
            120.3448,22.56969,0
            120.33948,22.56982,0
            120.33869,22.56991,0
            120.33836,22.56997,0
            120.33827,22.57,0
            120.33808,22.5701,0
            120.33776,22.57031,0
            120.3376,22.57046,0
            120.33654,22.57167,0
            120.32972,22.57978,0
            120.32927,22.58034,0
            120.32926,22.58034,0
            120.32909,22.58052,0
            120.32904,22.58062,0
            120.32835,22.58142,0
            120.32751,22.58234,0
            120.32441,22.58601,0
            120.32432,22.58613,0
            120.32424,22.58629,0
            120.32254,22.58825,0
            120.31907,22.59238,0
            120.3187,22.59286,0
            120.31662,22.59533,0
            120.3163,22.59573,0
            120.31624,22.59582,0
            120.31608,22.59601,0
            120.31596,22.59617,0
            120.31489,22.59745,0
            120.31172,22.6015,0
            120.31165,22.60158,0
            120.31039,22.60319,0
            120.31021,22.6034,0
            120.30961,22.60416,0
            120.30972,22.6042,0
            120.30897,22.60513,0
            120.30888,22.60523,0
            120.30872,22.60543,0
            120.30855,22.6056,0
            120.30808,22.60619,0
            120.30798,22.60633,0
            120.30777,22.60659,0
            120.30767,22.60674,0
            120.30761,22.60669,0
            120.30724,22.60715,0
            120.30712,22.60727,0
            120.30647,22.60894,0
            120.3061,22.60995,0
            120.30514,22.61239,0
            120.30513,22.61243,0
            120.3051,22.61249,0
            120.30503,22.61257,0
            120.30494,22.61284,0
            120.30489,22.61296,0
            120.30485,22.61308,0
            120.30473,22.61336,0
            120.30452,22.61395,0
            120.3039,22.6155,0
            120.30339,22.61687,0
            120.30334,22.61697,0
            120.30218,22.61997,0
            120.30217,22.62002,0
            120.30098,22.62307,0
            120.30096,22.62317,0
            120.29857,22.62237,0
            120.2984,22.62283,0
            120.29807,22.62364,0
            120.29805,22.62371,0
            120.29733,22.62557,0
            120.29728,22.62572,0
            120.29665,22.62736,0
            120.29652,22.62766,0
            120.29638,22.62807,0
            120.29601,22.62902,0
            120.29583,22.6294,0
            120.29365,22.63516,0
            120.29343,22.63567,0
            120.29305,22.63663,0
            120.29298,22.63678,0
            120.29298,22.63689,0
            120.2924,22.63839,0
            120.29233,22.63862,0
            120.29189,22.63982,0
            120.29186,22.63999,0
            120.29168,22.6416,0
            120.29164,22.64184,0
            120.29163,22.642,0
            120.29163,22.64238,0
            120.29184,22.64626,0
            120.29196,22.64923,0
            120.2921,22.65122,0
            120.29214,22.65251,0
            120.29218,22.65311,0
            120.29257,22.66199,0
            120.29268,22.66383,0
            120.29267,22.66403,0
            120.29263,22.66433,0
            120.29257,22.66457,0
            120.29248,22.66482,0
            120.29235,22.66511,0
            120.2921,22.66552,0
            120.29193,22.66574,0
            120.29183,22.66584,0
            120.29154,22.66608,0
            120.29127,22.66628,0
            120.29065,22.66661,0
            120.29054,22.66665,0
            120.29051,22.66669,0
            120.29046,22.66674,0
            120.29005,22.66698,0
            120.29004,22.66698,0
            120.28988,22.66708,0
            120.28961,22.66722,0
            120.28923,22.66745,0
            120.28902,22.66759,0
            120.28902,22.6676,0
            120.28892,22.66765,0
            120.28861,22.66788,0
            120.28853,22.668,0
            120.2885,22.66808,0
            120.28849,22.66816,0
            120.28849,22.66825,0
            120.28851,22.66835,0
            120.28855,22.66846,0
            120.28855,22.66847,0
            120.28924,22.66956,0
            120.28948,22.67002,0
            120.29492,22.67584,0
            120.29553,22.67643,0
            120.29559,22.67638,0
            120.29589,22.67671,0
            120.29627,22.67708,0
            120.29697,22.67771,0
            120.29748,22.6782,0
            120.29786,22.67861,0
            120.29777,22.67861,0
            120.29913,22.68005,0
            120.29932,22.68022,0
            120.30047,22.68148,0
            120.30062,22.68156,0
            120.30079,22.68172,0
            120.30103,22.68197,0
            120.30106,22.68201,0
            120.30193,22.68295,0
            120.30221,22.68328,0
            120.30259,22.68397,0
            120.30266,22.68413,0
            120.3028,22.68456,0
            120.30282,22.68465,0
            120.30288,22.68508,0
            120.3029,22.68532,0
            120.30286,22.68573,0
            120.30281,22.68605,0
            120.30281,22.68615,0
            120.30279,22.68622,0
            120.3027,22.68704,0
            120.30267,22.68764,0
            120.30268,22.68773,0
            120.30268,22.6878,0
            120.30272,22.68818,0
            120.30283,22.68873,0
            120.30283,22.68884,0
            120.30284,22.68894,0
            120.30277,22.69356,0
            120.29815,22.69357,0
            120.29799,22.69358,0
            120.29617,22.69361,0
          </coordinates>
        </LineString>
      </Placemark>
      <Placemark>
        <name>屏東縣恆春鎮城北里北門路39巷屏東縣恆春鎮恆春國民小學</name>
        <styleUrl>#icon-1899-DB4436-nodesc</styleUrl>
        <Point>
          <coordinates>
            120.746469,22.0056763,0
          </coordinates>
        </Point>
      </Placemark>
      <Placemark>
        <name>屏東縣枋寮鄉人和村中山路二段全家便利商店 枋寮北店</name>
        <styleUrl>#icon-1899-DB4436-nodesc</styleUrl>
        <Point>
          <coordinates>
            120.5958601,22.3831507,0
          </coordinates>
        </Point>
      </Placemark>
      <Placemark>
        <name>屏東縣東港東隆里東隆街東隆宮</name>
        <styleUrl>#icon-1899-DB4436-nodesc</styleUrl>
        <Point>
          <coordinates>
            120.4486705,22.463203,0
          </coordinates>
        </Point>
      </Placemark>
      <Placemark>
        <name>832台灣高雄市林園區中門里中門路26號</name>
        <styleUrl>#icon-1899-DB4436-nodesc</styleUrl>
        <Point>
          <coordinates>
            120.3714005,22.5053462,0
          </coordinates>
        </Point>
      </Placemark>
      <Placemark>
        <name>800台灣高雄市新興區新田路口(中山二路)</name>
        <styleUrl>#icon-1899-DB4436-nodesc</styleUrl>
        <Point>
          <coordinates>
            120.3012545,22.6223623,0
          </coordinates>
        </Point>
      </Placemark>
      <Placemark>
        <name>高雄市左營區進學里海功路高雄市立左營高級中學</name>
        <styleUrl>#icon-1899-DB4436-nodesc</styleUrl>
        <Point>
          <coordinates>
            120.29617,22.6936056,0
          </coordinates>
        </Point>
      </Placemark>
    </Folder>
  </Document>
</kml>
