<?xml version="1.0" encoding="UTF-8"?>
<kml xmlns="http://www.opengis.net/kml/2.2">
  <Document>
    <name>2026環島Day12</name>
    <description>左營→嘉義</description>
    <Style id="icon-1899-DB4436-nodesc-normal">
      <IconStyle>
        <color>ff3644db</color>
        <scale>1</scale>
        <Icon>
          <href>https://www.gstatic.com/mapspro/images/stock/503-wht-blank_maps.png</href>
        </Icon>
        <hotSpot x="32" xunits="pixels" y="64" yunits="insetPixels"/>
      </IconStyle>
      <LabelStyle>
        <scale>0</scale>
      </LabelStyle>
      <BalloonStyle>
        <text><![CDATA[<h3>$[name]</h3>]]></text>
      </BalloonStyle>
    </Style>
    <Style id="icon-1899-DB4436-nodesc-highlight">
      <IconStyle>
        <color>ff3644db</color>
        <scale>1</scale>
        <Icon>
          <href>https://www.gstatic.com/mapspro/images/stock/503-wht-blank_maps.png</href>
        </Icon>
        <hotSpot x="32" xunits="pixels" y="64" yunits="insetPixels"/>
      </IconStyle>
      <LabelStyle>
        <scale>1</scale>
      </LabelStyle>
      <BalloonStyle>
        <text><![CDATA[<h3>$[name]</h3>]]></text>
      </BalloonStyle>
    </Style>
    <StyleMap id="icon-1899-DB4436-nodesc">
      <Pair>
        <key>normal</key>
        <styleUrl>#icon-1899-DB4436-nodesc-normal</styleUrl>
      </Pair>
      <Pair>
        <key>highlight</key>
        <styleUrl>#icon-1899-DB4436-nodesc-highlight</styleUrl>
      </Pair>
    </StyleMap>
    <Style id="line-1267FF-5000-nodesc-normal">
      <LineStyle>
        <color>ffff6712</color>
        <width>5</width>
      </LineStyle>
      <BalloonStyle>
        <text><![CDATA[<h3>$[name]</h3>]]></text>
      </BalloonStyle>
    </Style>
    <Style id="line-1267FF-5000-nodesc-highlight">
      <LineStyle>
        <color>ffff6712</color>
        <width>7.5</width>
      </LineStyle>
      <BalloonStyle>
        <text><![CDATA[<h3>$[name]</h3>]]></text>
      </BalloonStyle>
    </Style>
    <StyleMap id="line-1267FF-5000-nodesc">
      <Pair>
        <key>normal</key>
        <styleUrl>#line-1267FF-5000-nodesc-normal</styleUrl>
      </Pair>
      <Pair>
        <key>highlight</key>
        <styleUrl>#line-1267FF-5000-nodesc-highlight</styleUrl>
      </Pair>
    </StyleMap>
    <Folder>
      <name>左營高中→崇文國小</name>
      <Placemark>
        <name>左營高中→崇文國小</name>
        <styleUrl>#line-1267FF-5000-nodesc</styleUrl>
        <LineString>
          <tessellate>1</tessellate>
          <coordinates>
            120.29614,22.69361,0
            120.29526,22.69361,0
            120.29316,22.69365,0
            120.29299,22.69364,0
            120.29239,22.69365,0
            120.29243,22.69995,0
            120.29248,22.70074,0
            120.29249,22.7008,0
            120.29249,22.70165,0
            120.2925,22.70179,0
            120.2925,22.70407,0
            120.29249,22.70416,0
            120.29247,22.70461,0
            120.29247,22.70483,0
            120.29249,22.70497,0
            120.29251,22.70503,0
            120.2926,22.70522,0
            120.29282,22.70555,0
            120.29287,22.70568,0
            120.2929,22.70587,0
            120.2929,22.70595,0
            120.29287,22.70614,0
            120.29285,22.70636,0
            120.29284,22.70662,0
            120.2928,22.707,0
            120.29278,22.70774,0
            120.29279,22.70785,0
            120.29279,22.70792,0
            120.29281,22.70797,0
            120.29296,22.70847,0
            120.29297,22.70849,0
            120.29297,22.70852,0
            120.29299,22.70859,0
            120.29301,22.70877,0
            120.29301,22.70898,0
            120.29299,22.70915,0
            120.29287,22.70963,0
            120.29267,22.71029,0
            120.29256,22.71059,0
            120.29218,22.7115,0
            120.29203,22.7119,0
            120.29145,22.71309,0
            120.29143,22.71312,0
            120.29135,22.71328,0
            120.29122,22.71332,0
            120.29072,22.71344,0
            120.29047,22.71352,0
            120.29032,22.71359,0
            120.29013,22.71372,0
            120.28994,22.71388,0
            120.2892,22.71457,0
            120.28849,22.71532,0
            120.28812,22.71596,0
            120.28748,22.71676,0
            120.28735,22.71687,0
            120.2873,22.71692,0
            120.28722,22.71698,0
            120.28721,22.71699,0
            120.28701,22.71712,0
            120.2869,22.7172,0
            120.28677,22.71728,0
            120.28656,22.71739,0
            120.28499,22.71837,0
            120.28466,22.71855,0
            120.28351,22.71927,0
            120.28305,22.71954,0
            120.28254,22.71987,0
            120.28248,22.7199,0
            120.28225,22.71999,0
            120.28212,22.72008,0
            120.28075,22.72089,0
            120.28073,22.72095,0
            120.28072,22.72097,0
            120.28068,22.721,0
            120.28048,22.72112,0
            120.28038,22.72117,0
            120.27893,22.72209,0
            120.27763,22.72271,0
            120.27753,22.72277,0
            120.27744,22.72284,0
            120.27741,22.72287,0
            120.27735,22.72298,0
            120.27724,22.72322,0
            120.27718,22.72332,0
            120.27702,22.72355,0
            120.27568,22.72534,0
            120.27534,22.72582,0
            120.2737,22.72802,0
            120.27315,22.72879,0
            120.27181,22.73053,0
            120.27164,22.73072,0
            120.27152,22.73088,0
            120.27048,22.73186,0
            120.2697,22.73274,0
            120.2695,22.73299,0
            120.2675,22.73523,0
            120.26586,22.73729,0
            120.26574,22.73743,0
            120.26563,22.73758,0
            120.26549,22.73775,0
            120.26506,22.73832,0
            120.26489,22.73858,0
            120.26478,22.73865,0
            120.26448,22.73908,0
            120.26425,22.7395,0
            120.26413,22.73976,0
            120.26384,22.74057,0
            120.26372,22.74094,0
            120.26309,22.74268,0
            120.26233,22.74497,0
            120.26149,22.74731,0
            120.26146,22.74751,0
            120.26144,22.7476,0
            120.26143,22.7477,0
            120.26146,22.74893,0
            120.26147,22.74902,0
            120.26147,22.74927,0
            120.2615,22.75001,0
            120.26151,22.75007,0
            120.26151,22.7502,0
            120.26155,22.75095,0
            120.26169,22.75279,0
            120.26175,22.75292,0
            120.26176,22.75301,0
            120.26185,22.75356,0
            120.26187,22.75365,0
            120.2628,22.76023,0
            120.26284,22.76092,0
            120.26282,22.7612,0
            120.26278,22.76143,0
            120.26272,22.76168,0
            120.26241,22.76254,0
            120.26235,22.76274,0
            120.26209,22.76345,0
            120.26197,22.76384,0
            120.26187,22.76407,0
            120.26171,22.76433,0
            120.26167,22.76437,0
            120.26164,22.76441,0
            120.26049,22.76549,0
            120.26044,22.76555,0
            120.25921,22.76673,0
            120.25901,22.76695,0
            120.2589,22.76711,0
            120.25882,22.76726,0
            120.25873,22.76758,0
            120.25871,22.76778,0
            120.25868,22.76962,0
            120.25864,22.76986,0
            120.25857,22.76997,0
            120.25847,22.77015,0
            120.25837,22.77028,0
            120.25825,22.77041,0
            120.25662,22.77198,0
            120.25347,22.77488,0
            120.25315,22.77521,0
            120.25308,22.7753,0
            120.253,22.77545,0
            120.25294,22.77559,0
            120.25263,22.77822,0
            120.25244,22.7795,0
            120.2513,22.78273,0
            120.25123,22.78295,0
            120.25104,22.78343,0
            120.25098,22.78355,0
            120.25093,22.78367,0
            120.25005,22.78544,0
            120.24968,22.78622,0
            120.2496,22.78636,0
            120.24938,22.78663,0
            120.24927,22.78678,0
            120.24727,22.78924,0
            120.24686,22.78971,0
            120.2465,22.7901,0
            120.24573,22.79088,0
            120.24545,22.79114,0
            120.24525,22.79134,0
            120.24514,22.79148,0
            120.245,22.79178,0
            120.2448,22.79229,0
            120.24462,22.79271,0
            120.244,22.79432,0
            120.24399,22.79434,0
            120.24395,22.79445,0
            120.24393,22.79449,0
            120.24392,22.79452,0
            120.24388,22.79461,0
            120.24359,22.79536,0
            120.24359,22.79538,0
            120.24354,22.79553,0
            120.24353,22.79553,0
            120.24347,22.79584,0
            120.24343,22.7963,0
            120.24343,22.79642,0
            120.24342,22.79651,0
            120.24342,22.79659,0
            120.24341,22.79662,0
            120.24336,22.7977,0
            120.24336,22.8023,0
            120.24329,22.80753,0
            120.24325,22.8076,0
            120.24322,22.8089,0
            120.24324,22.8094,0
            120.24328,22.80946,0
            120.24323,22.81183,0
            120.24318,22.81224,0
            120.24309,22.81262,0
            120.24302,22.81282,0
            120.24293,22.81302,0
            120.24228,22.81466,0
            120.24159,22.81623,0
            120.23984,22.81993,0
            120.23977,22.82,0
            120.23935,22.82095,0
            120.23906,22.82147,0
            120.23864,22.82247,0
            120.23835,22.82305,0
            120.23615,22.8279,0
            120.23551,22.82951,0
            120.23534,22.82997,0
            120.23519,22.83047,0
            120.23472,22.83235,0
            120.23466,22.83274,0
            120.23461,22.8337,0
            120.23471,22.83598,0
            120.23467,22.83638,0
            120.23465,22.83677,0
            120.23456,22.83764,0
            120.2344,22.83849,0
            120.2344,22.83863,0
            120.23439,22.83875,0
            120.23439,22.83881,0
            120.23414,22.83995,0
            120.23403,22.84027,0
            120.23392,22.84054,0
            120.23296,22.84326,0
            120.2328,22.84368,0
            120.23266,22.84395,0
            120.23156,22.84559,0
            120.23131,22.84599,0
            120.23086,22.84677,0
            120.2308,22.84684,0
            120.23075,22.84688,0
            120.23074,22.84688,0
            120.23074,22.84689,0
            120.23072,22.84689,0
            120.23047,22.84747,0
            120.23044,22.84758,0
            120.2304,22.84768,0
            120.23023,22.84818,0
            120.23007,22.84856,0
            120.22976,22.8494,0
            120.22977,22.84942,0
            120.22978,22.84943,0
            120.22978,22.84945,0
            120.22977,22.84947,0
            120.22977,22.8495,0
            120.22971,22.84964,0
            120.22917,22.85131,0
            120.22908,22.85153,0
            120.22902,22.85171,0
            120.22868,22.85261,0
            120.22862,22.85288,0
            120.22857,22.85304,0
            120.22795,22.85803,0
            120.22791,22.85845,0
            120.22784,22.85858,0
            120.2277,22.85966,0
            120.22768,22.85992,0
            120.22756,22.86084,0
            120.22747,22.86179,0
            120.22746,22.86221,0
            120.22747,22.86224,0
            120.22748,22.86226,0
            120.22748,22.8623,0
            120.22739,22.86329,0
            120.22714,22.86451,0
            120.22681,22.8658,0
            120.22533,22.87238,0
            120.22531,22.87251,0
            120.22523,22.87283,0
            120.22516,22.87288,0
            120.22514,22.873,0
            120.22509,22.87318,0
            120.22504,22.87349,0
            120.22503,22.87359,0
            120.22503,22.87362,0
            120.22501,22.87383,0
            120.225,22.87403,0
            120.22501,22.87418,0
            120.22497,22.87565,0
            120.22498,22.87582,0
            120.22494,22.87676,0
            120.22424,22.87672,0
            120.2238,22.87665,0
            120.22221,22.87658,0
            120.21842,22.87636,0
            120.21471,22.8762,0
            120.21423,22.87621,0
            120.21411,22.88016,0
            120.21409,22.88042,0
            120.21406,22.88058,0
            120.21404,22.88063,0
            120.21401,22.88067,0
            120.21398,22.8807,0
            120.21391,22.88075,0
            120.21374,22.88082,0
            120.2135,22.88084,0
            120.20675,22.88065,0
            120.20653,22.88061,0
            120.20635,22.88056,0
            120.20612,22.88047,0
            120.20596,22.88038,0
            120.20559,22.88009,0
            120.20298,22.87793,0
            120.20296,22.87792,0
            120.20274,22.87773,0
            120.20239,22.87749,0
            120.20067,22.87605,0
            120.2006,22.876,0
            120.20055,22.87597,0
            120.2005,22.87595,0
            120.20044,22.87592,0
            120.20039,22.87591,0
            120.20023,22.87586,0
            120.20021,22.87586,0
            120.20005,22.87584,0
            120.19801,22.87578,0
            120.19769,22.87576,0
            120.19742,22.87573,0
            120.19701,22.87565,0
            120.19679,22.87559,0
            120.1935,22.87456,0
            120.19293,22.8744,0
            120.1929,22.8745,0
            120.19263,22.87525,0
            120.19026,22.87452,0
            120.18996,22.87536,0
            120.1897,22.87619,0
            120.18956,22.87657,0
            120.18941,22.87692,0
            120.18923,22.8773,0
            120.18882,22.87811,0
            120.18877,22.87824,0
            120.18875,22.87828,0
            120.18874,22.87832,0
            120.18868,22.87847,0
            120.18856,22.8791,0
            120.18851,22.87926,0
            120.18831,22.88045,0
            120.1882,22.88078,0
            120.188,22.88114,0
            120.18779,22.88155,0
            120.18771,22.88167,0
            120.18756,22.88193,0
            120.18745,22.88219,0
            120.18732,22.88254,0
            120.18662,22.88484,0
            120.18632,22.88601,0
            120.18632,22.88605,0
            120.18633,22.88605,0
            120.18635,22.88608,0
            120.18637,22.88609,0
            120.1864,22.88612,0
            120.18628,22.8862,0
            120.18619,22.8863,0
            120.18573,22.88693,0
            120.1855,22.88722,0
            120.18441,22.88871,0
            120.18384,22.8901,0
            120.18353,22.89069,0
            120.18269,22.8928,0
            120.18258,22.8931,0
            120.18249,22.89329,0
            120.18171,22.8952,0
            120.18151,22.89577,0
            120.18137,22.89608,0
            120.18124,22.89644,0
            120.18093,22.89713,0
            120.18079,22.89749,0
            120.18071,22.89767,0
            120.18052,22.89816,0
            120.18008,22.89942,0
            120.18002,22.89954,0
            120.1799,22.89995,0
            120.17969,22.9005,0
            120.17967,22.9006,0
            120.17951,22.901,0
            120.17939,22.90135,0
            120.17851,22.90433,0
            120.17849,22.90442,0
            120.17769,22.90722,0
            120.17766,22.90742,0
            120.17754,22.90786,0
            120.17752,22.90798,0
            120.1775,22.90804,0
            120.17741,22.90875,0
            120.17725,22.91196,0
            120.17725,22.91211,0
            120.17723,22.91232,0
            120.17723,22.91245,0
            120.17713,22.91446,0
            120.17713,22.91463,0
            120.17709,22.91535,0
            120.17708,22.91575,0
            120.17701,22.91655,0
            120.17689,22.91714,0
            120.17635,22.91864,0
            120.17635,22.91865,0
            120.17567,22.92051,0
            120.17552,22.92099,0
            120.17547,22.92123,0
            120.1754,22.92177,0
            120.17539,22.92196,0
            120.17539,22.92253,0
            120.17541,22.92279,0
            120.17547,22.92323,0
            120.17639,22.92745,0
            120.1765,22.92788,0
            120.17659,22.9283,0
            120.17667,22.92892,0
            120.1767,22.92926,0
            120.17672,22.93025,0
            120.17662,22.93415,0
            120.17655,22.93485,0
            120.17653,22.93493,0
            120.17553,22.94129,0
            120.17552,22.94142,0
            120.17551,22.94147,0
            120.17551,22.94152,0
            120.17549,22.94176,0
            120.1755,22.94209,0
            120.17551,22.94216,0
            120.17551,22.94227,0
            120.17561,22.9433,0
            120.17561,22.94342,0
            120.17597,22.94674,0
            120.17598,22.9469,0
            120.17601,22.94704,0
            120.17606,22.9472,0
            120.17618,22.9475,0
            120.17636,22.94778,0
            120.17842,22.95049,0
            120.17925,22.95154,0
            120.18068,22.95342,0
            120.18084,22.95365,0
            120.1835,22.95707,0
            120.18357,22.95717,0
            120.18373,22.95747,0
            120.18385,22.95777,0
            120.18391,22.95805,0
            120.18393,22.95824,0
            120.18391,22.96132,0
            120.18386,22.96333,0
            120.18386,22.96404,0
            120.18387,22.96425,0
            120.18387,22.96492,0
            120.18386,22.96508,0
            120.18386,22.96696,0
            120.18383,22.9678,0
            120.18383,22.96817,0
            120.18384,22.96842,0
            120.18384,22.96867,0
            120.18385,22.96881,0
            120.18384,22.96956,0
            120.18383,22.96967,0
            120.18383,22.97047,0
            120.18382,22.97068,0
            120.1838,22.97333,0
            120.18385,22.97353,0
            120.18403,22.97456,0
            120.18438,22.97637,0
            120.1847,22.97822,0
            120.18476,22.97848,0
            120.18484,22.97877,0
            120.18495,22.97909,0
            120.18512,22.97948,0
            120.18598,22.98189,0
            120.18611,22.9822,0
            120.18617,22.98256,0
            120.18623,22.98307,0
            120.1863,22.98352,0
            120.18634,22.98392,0
            120.18646,22.98483,0
            120.18646,22.98485,0
            120.18652,22.98525,0
            120.18656,22.98566,0
            120.18662,22.9861,0
            120.18664,22.98636,0
            120.18665,22.9864,0
            120.1868,22.98746,0
            120.18683,22.98754,0
            120.18686,22.98774,0
            120.18693,22.98843,0
            120.18702,22.9891,0
            120.18708,22.98975,0
            120.18709,22.99025,0
            120.18706,22.99098,0
            120.18683,22.99346,0
            120.1868,22.99361,0
            120.18671,22.99387,0
            120.18652,22.99426,0
            120.18647,22.99439,0
            120.18645,22.99447,0
            120.1864,22.99479,0
            120.18638,22.99503,0
            120.18638,22.99515,0
            120.18637,22.99527,0
            120.18637,22.99544,0
            120.1864,22.99579,0
            120.18655,22.99677,0
            120.18656,22.99679,0
            120.18657,22.99689,0
            120.18657,22.99694,0
            120.1866,22.99725,0
            120.1866,22.99733,0
            120.18673,22.99841,0
            120.18673,22.99849,0
            120.18689,22.99981,0
            120.18693,23.00004,0
            120.187,23.00074,0
            120.18706,23.00165,0
            120.18707,23.00231,0
            120.18706,23.00243,0
            120.18705,23.00272,0
            120.18695,23.00371,0
            120.18694,23.00373,0
            120.18687,23.00423,0
            120.18681,23.00457,0
            120.18636,23.00653,0
            120.18631,23.00679,0
            120.1862,23.00715,0
            120.18616,23.00725,0
            120.18567,23.00886,0
            120.1852,23.01066,0
            120.18511,23.01095,0
            120.18498,23.01131,0
            120.18497,23.01135,0
            120.18495,23.01138,0
            120.18494,23.01141,0
            120.18487,23.01151,0
            120.18475,23.01163,0
            120.18464,23.01176,0
            120.18394,23.0125,0
            120.18392,23.01253,0
            120.18144,23.01519,0
            120.17832,23.01863,0
            120.17573,23.02139,0
            120.17419,23.02308,0
            120.17377,23.02351,0
            120.17346,23.02385,0
            120.17327,23.02403,0
            120.17127,23.02621,0
            120.17025,23.02742,0
            120.16694,23.03085,0
            120.16622,23.03171,0
            120.16558,23.03238,0
            120.16558,23.03239,0
            120.1646,23.03342,0
            120.16457,23.03346,0
            120.16445,23.03359,0
            120.16316,23.03475,0
            120.16313,23.03477,0
            120.16255,23.03529,0
            120.16212,23.03582,0
            120.16191,23.03603,0
            120.16128,23.03676,0
            120.16088,23.03728,0
            120.15874,23.03987,0
            120.15868,23.03993,0
            120.15779,23.04101,0
            120.15772,23.04107,0
            120.15645,23.04201,0
            120.15627,23.04213,0
            120.15356,23.0441,0
            120.15347,23.04418,0
            120.1495,23.04707,0
            120.14939,23.04716,0
            120.1425,23.0522,0
            120.14243,23.05226,0
            120.13653,23.05658,0
            120.13531,23.0575,0
            120.13473,23.05796,0
            120.13464,23.05806,0
            120.1345,23.0582,0
            120.13419,23.05863,0
            120.13406,23.05892,0
            120.13401,23.05906,0
            120.13397,23.05928,0
            120.134,23.06125,0
            120.13402,23.06145,0
            120.1342,23.06492,0
            120.13427,23.06547,0
            120.13435,23.06652,0
            120.13442,23.0672,0
            120.13444,23.06733,0
            120.13451,23.06853,0
            120.1356,23.08002,0
            120.13568,23.08112,0
            120.13568,23.0812,0
            120.1357,23.08132,0
            120.13569,23.08141,0
            120.1357,23.08159,0
            120.1357,23.08179,0
            120.13568,23.08188,0
            120.13419,23.08669,0
            120.13418,23.08671,0
            120.13413,23.08688,0
            120.13337,23.08916,0
            120.13292,23.09064,0
            120.13292,23.09066,0
            120.13212,23.09307,0
            120.13207,23.09325,0
            120.13164,23.09455,0
            120.13161,23.09489,0
            120.1316,23.09495,0
            120.13157,23.09506,0
            120.13154,23.09522,0
            120.1315,23.09569,0
            120.13155,23.09843,0
            120.13156,23.09861,0
            120.13156,23.09905,0
            120.13167,23.1024,0
            120.13146,23.11729,0
            120.13147,23.11778,0
            120.13149,23.11804,0
            120.13274,23.1286,0
            120.13276,23.12886,0
            120.13279,23.12906,0
            120.13323,23.13339,0
            120.13332,23.13376,0
            120.1335,23.13375,0
            120.13332,23.13376,0
            120.13338,23.13391,0
            120.13418,23.13555,0
            120.13455,23.13625,0
            120.13457,23.13631,0
            120.13458,23.13639,0
            120.13459,23.13661,0
            120.13457,23.13991,0
            120.13458,23.14009,0
            120.13475,23.1559,0
            120.13474,23.15813,0
            120.13467,23.15956,0
            120.13457,23.16099,0
            120.13427,23.16629,0
            120.13426,23.16635,0
            120.13423,23.16749,0
            120.13399,23.17154,0
            120.13397,23.17176,0
            120.13355,23.1791,0
            120.13355,23.17922,0
            120.13305,23.18776,0
            120.13305,23.18827,0
            120.13307,23.18899,0
            120.13315,23.19018,0
            120.13351,23.19435,0
            120.13352,23.1944,0
            120.13375,23.1971,0
            120.13375,23.19718,0
            120.13399,23.19989,0
            120.13408,23.20119,0
            120.13421,23.20248,0
            120.1345,23.20608,0
            120.1345,23.20622,0
            120.13459,23.20738,0
            120.13462,23.2076,0
            120.13471,23.20868,0
            120.13472,23.20874,0
            120.13479,23.20973,0
            120.13487,23.21058,0
            120.13518,23.21464,0
            120.1352,23.21479,0
            120.13528,23.21583,0
            120.13534,23.21638,0
            120.13535,23.21654,0
            120.13539,23.21692,0
            120.13529,23.21693,0
            120.13519,23.21586,0
            120.13528,23.21583,0
            120.13543,23.21575,0
            120.13552,23.21569,0
            120.13563,23.21564,0
            120.13577,23.21559,0
            120.13591,23.21555,0
            120.13607,23.21552,0
            120.13681,23.21527,0
            120.13685,23.21526,0
            120.13695,23.21526,0
            120.13703,23.21528,0
            120.13708,23.21531,0
            120.13713,23.21533,0
            120.13729,23.21541,0
            120.13737,23.21544,0
            120.13748,23.2155,0
            120.13759,23.21557,0
            120.13874,23.21651,0
            120.13893,23.2166,0
            120.13906,23.21665,0
            120.13938,23.21675,0
            120.14365,23.21787,0
            120.14482,23.2182,0
            120.14513,23.21823,0
            120.14538,23.21823,0
            120.15777,23.21867,0
            120.15837,23.21867,0
            120.15909,23.21871,0
            120.15986,23.21872,0
            120.16224,23.21882,0
            120.16406,23.21885,0
            120.16417,23.21886,0
            120.16447,23.21886,0
            120.16462,23.21887,0
            120.16478,23.21886,0
            120.1649,23.21895,0
            120.16503,23.21902,0
            120.16505,23.21936,0
            120.16505,23.21964,0
            120.16506,23.21975,0
            120.16505,23.21983,0
            120.16506,23.21985,0
            120.16506,23.21986,0
            120.16507,23.21988,0
            120.16508,23.21989,0
            120.16511,23.21991,0
            120.16513,23.21992,0
            120.16668,23.21995,0
            120.1669,23.21997,0
            120.16697,23.21999,0
            120.16698,23.21999,0
            120.16702,23.22,0
            120.16726,23.22008,0
            120.16732,23.22012,0
            120.17242,23.22432,0
            120.17331,23.22511,0
            120.17336,23.22516,0
            120.17403,23.22564,0
            120.17422,23.22579,0
            120.17434,23.22587,0
            120.17441,23.22596,0
            120.17455,23.22626,0
            120.1749,23.22707,0
            120.17505,23.22736,0
            120.17506,23.22737,0
            120.17568,23.2286,0
            120.17594,23.22916,0
            120.17613,23.22954,0
            120.17626,23.22977,0
            120.17654,23.23037,0
            120.17684,23.23095,0
            120.17735,23.23201,0
            120.17742,23.23214,0
            120.17751,23.23233,0
            120.17757,23.23244,0
            120.17763,23.23257,0
            120.17768,23.23266,0
            120.17787,23.23326,0
            120.17791,23.23341,0
            120.17817,23.23456,0
            120.17821,23.23471,0
            120.17828,23.23504,0
            120.17861,23.23498,0
            120.17932,23.23482,0
            120.18113,23.2345,0
            120.1826,23.23419,0
            120.18327,23.23408,0
            120.18347,23.23406,0
            120.18359,23.23406,0
            120.18367,23.23408,0
            120.18431,23.23419,0
            120.18561,23.23445,0
            120.18645,23.23457,0
            120.18676,23.23464,0
            120.18712,23.23475,0
            120.18769,23.23497,0
            120.18863,23.23528,0
            120.18911,23.23539,0
            120.19432,23.23641,0
            120.19452,23.23644,0
            120.19686,23.23688,0
            120.19714,23.23695,0
            120.19736,23.23699,0
            120.19758,23.23704,0
            120.19869,23.23724,0
            120.19948,23.23735,0
            120.20163,23.23758,0
            120.20212,23.23766,0
            120.20226,23.23769,0
            120.20272,23.23782,0
            120.20504,23.23827,0
            120.20533,23.23834,0
            120.20705,23.23869,0
            120.20713,23.2387,0
            120.20982,23.23922,0
            120.20999,23.23924,0
            120.21048,23.23925,0
            120.21055,23.23924,0
            120.21069,23.23923,0
            120.2108,23.23923,0
            120.21112,23.2392,0
            120.2114,23.23915,0
            120.2124,23.2389,0
            120.21349,23.23857,0
            120.21479,23.23822,0
            120.21498,23.23816,0
            120.21512,23.23813,0
            120.21532,23.23804,0
            120.21541,23.23798,0
            120.2155,23.23793,0
            120.21818,23.23581,0
            120.21836,23.23568,0
            120.21842,23.23563,0
            120.21848,23.2356,0
            120.21867,23.23552,0
            120.21877,23.23549,0
            120.21905,23.23544,0
            120.22406,23.23486,0
            120.22427,23.23482,0
            120.2257,23.23466,0
            120.23396,23.23359,0
            120.23421,23.23357,0
            120.23488,23.23355,0
            120.23508,23.23357,0
            120.2352,23.23359,0
            120.23533,23.23359,0
            120.236,23.23356,0
            120.23632,23.23357,0
            120.23752,23.23368,0
            120.23888,23.23376,0
            120.2397,23.23376,0
            120.24822,23.23333,0
            120.2489,23.23331,0
            120.24902,23.2333,0
            120.25377,23.23675,0
            120.25522,23.23773,0
            120.25618,23.23843,0
            120.25722,23.23927,0
            120.25801,23.23979,0
            120.25875,23.24022,0
            120.2591,23.24046,0
            120.25944,23.24074,0
            120.25984,23.24102,0
            120.26041,23.24129,0
            120.26078,23.2414,0
            120.26092,23.24143,0
            120.26122,23.24147,0
            120.26514,23.2418,0
            120.27178,23.24237,0
            120.27215,23.24239,0
            120.27234,23.24239,0
            120.27247,23.24238,0
            120.27283,23.24233,0
            120.27313,23.24226,0
            120.27347,23.24212,0
            120.27411,23.24178,0
            120.2745,23.24155,0
            120.27475,23.24143,0
            120.27492,23.2415,0
            120.2751,23.24162,0
            120.27794,23.24314,0
            120.27841,23.24337,0
            120.28023,23.2441,0
            120.28081,23.24435,0
            120.28128,23.24457,0
            120.28284,23.24541,0
            120.28316,23.2456,0
            120.28394,23.24601,0
            120.28547,23.24672,0
            120.28588,23.24693,0
            120.28764,23.24777,0
            120.28819,23.24801,0
            120.28878,23.24829,0
            120.28908,23.24852,0
            120.28969,23.24905,0
            120.29002,23.24936,0
            120.29026,23.24955,0
            120.29036,23.24961,0
            120.29134,23.25001,0
            120.29169,23.25018,0
            120.29448,23.25231,0
            120.2947,23.2525,0
            120.29482,23.25262,0
            120.29497,23.2528,0
            120.29504,23.25291,0
            120.2952,23.25329,0
            120.29524,23.25342,0
            120.29526,23.25352,0
            120.29527,23.25364,0
            120.29527,23.2538,0
            120.29525,23.25396,0
            120.2952,23.25474,0
            120.29522,23.25488,0
            120.29543,23.25515,0
            120.29563,23.25529,0
            120.29573,23.25533,0
            120.29582,23.25535,0
            120.29601,23.25536,0
            120.29616,23.25536,0
            120.29691,23.2553,0
            120.29766,23.25522,0
            120.29823,23.2552,0
            120.29977,23.25508,0
            120.30037,23.25501,0
            120.30211,23.25489,0
            120.30286,23.25482,0
            120.30761,23.2542,0
            120.30836,23.25408,0
            120.30842,23.25408,0
            120.3109,23.25363,0
            120.31125,23.25358,0
            120.31154,23.25355,0
            120.31228,23.25341,0
            120.31243,23.25344,0
            120.31228,23.25397,0
            120.31224,23.25424,0
            120.31223,23.25439,0
            120.31223,23.25455,0
            120.31236,23.25591,0
            120.31242,23.25687,0
            120.31264,23.25912,0
            120.31268,23.25986,0
            120.3127,23.25997,0
            120.31341,23.26826,0
            120.31348,23.26851,0
            120.31356,23.26872,0
            120.31362,23.26884,0
            120.31372,23.26907,0
            120.31389,23.26929,0
            120.31407,23.2695,0
            120.31427,23.2697,0
            120.31453,23.26989,0
            120.3149,23.27011,0
            120.31505,23.27018,0
            120.31539,23.27032,0
            120.31589,23.27048,0
            120.3175,23.27104,0
            120.32044,23.27197,0
            120.32049,23.27199,0
            120.32302,23.27279,0
            120.3233,23.27287,0
            120.3236,23.27297,0
            120.3238,23.27305,0
            120.32392,23.27311,0
            120.32421,23.27328,0
            120.32433,23.27337,0
            120.32454,23.27356,0
            120.32463,23.27365,0
            120.3248,23.27386,0
            120.32491,23.27403,0
            120.325,23.2742,0
            120.32509,23.27441,0
            120.32518,23.27479,0
            120.3252,23.27503,0
            120.32523,23.2757,0
            120.32528,23.27886,0
            120.32527,23.27918,0
            120.3253,23.28072,0
            120.32531,23.28077,0
            120.32534,23.28262,0
            120.32587,23.28832,0
            120.32597,23.28961,0
            120.32597,23.29011,0
            120.32593,23.29041,0
            120.32593,23.29045,0
            120.32587,23.29074,0
            120.32578,23.29102,0
            120.32572,23.29118,0
            120.3257,23.29126,0
            120.32559,23.29155,0
            120.3253,23.29239,0
            120.32529,23.29241,0
            120.32481,23.29376,0
            120.32475,23.29395,0
            120.32468,23.29412,0
            120.32324,23.29832,0
            120.32319,23.29844,0
            120.32215,23.30146,0
            120.32208,23.30164,0
            120.32204,23.30178,0
            120.322,23.30205,0
            120.32199,23.3022,0
            120.32199,23.30231,0
            120.32201,23.30249,0
            120.3221,23.30279,0
            120.32217,23.30297,0
            120.32228,23.30318,0
            120.32444,23.30666,0
            120.32462,23.30693,0
            120.32497,23.30752,0
            120.32554,23.3084,0
            120.32567,23.30862,0
            120.32572,23.30869,0
            120.3268,23.31041,0
            120.32689,23.31061,0
            120.32754,23.31166,0
            120.32763,23.31177,0
            120.32799,23.31235,0
            120.32835,23.31283,0
            120.32844,23.31293,0
            120.32941,23.31388,0
            120.32964,23.31408,0
            120.33162,23.31614,0
            120.33278,23.31731,0
            120.33299,23.31754,0
            120.33312,23.31767,0
            120.33316,23.31772,0
            120.3335,23.31805,0
            120.33609,23.32069,0
            120.33647,23.32111,0
            120.33685,23.32148,0
            120.33698,23.32162,0
            120.33752,23.32214,0
            120.33782,23.32245,0
            120.3383,23.32291,0
            120.33947,23.32415,0
            120.34358,23.32832,0
            120.34368,23.32843,0
            120.34399,23.32817,0
            120.34368,23.32843,0
            120.34413,23.32887,0
            120.34454,23.32934,0
            120.34841,23.33329,0
            120.34864,23.3335,0
            120.34875,23.33361,0
            120.34996,23.33503,0
            120.35022,23.33529,0
            120.35122,23.33645,0
            120.35166,23.33701,0
            120.3518,23.33722,0
            120.35202,23.33766,0
            120.35237,23.33864,0
            120.35253,23.33915,0
            120.35289,23.34017,0
            120.35291,23.34021,0
            120.35484,23.34598,0
            120.35488,23.34607,0
            120.35643,23.3507,0
            120.35743,23.35384,0
            120.35829,23.3568,0
            120.35888,23.35868,0
            120.35893,23.35882,0
            120.35895,23.35889,0
            120.35899,23.359,0
            120.35914,23.35955,0
            120.35915,23.3596,0
            120.35969,23.3614,0
            120.36053,23.36401,0
            120.36069,23.36442,0
            120.36084,23.36496,0
            120.36087,23.36503,0
            120.36189,23.36792,0
            120.36211,23.3685,0
            120.36216,23.3686,0
            120.36248,23.36905,0
            120.36287,23.36951,0
            120.36302,23.36967,0
            120.36304,23.3697,0
            120.36307,23.36973,0
            120.36341,23.37017,0
            120.3635,23.3703,0
            120.36354,23.37038,0
            120.36364,23.37065,0
            120.36364,23.37068,0
            120.36367,23.37086,0
            120.36368,23.3711,0
            120.36367,23.37121,0
            120.36367,23.37214,0
            120.36378,23.37246,0
            120.36381,23.37253,0
            120.36397,23.37276,0
            120.36397,23.37277,0
            120.3643,23.37322,0
            120.36433,23.37327,0
            120.36475,23.37381,0
            120.36486,23.37394,0
            120.36583,23.37524,0
            120.36715,23.37711,0
            120.36717,23.37715,0
            120.36979,23.38081,0
            120.36988,23.38092,0
            120.37025,23.38145,0
            120.37261,23.38469,0
            120.37354,23.38602,0
            120.37408,23.38673,0
            120.37452,23.38737,0
            120.37532,23.38847,0
            120.37534,23.38849,0
            120.37687,23.39062,0
            120.37727,23.3912,0
            120.3782,23.39248,0
            120.37906,23.39371,0
            120.37915,23.39388,0
            120.37924,23.39403,0
            120.37924,23.39404,0
            120.37931,23.3942,0
            120.37938,23.3944,0
            120.37944,23.39467,0
            120.37947,23.39496,0
            120.37947,23.39536,0
            120.37937,23.39602,0
            120.3793,23.39635,0
            120.37921,23.39701,0
            120.3792,23.39725,0
            120.37921,23.39742,0
            120.37924,23.3976,0
            120.37928,23.39778,0
            120.37928,23.3978,0
            120.37935,23.39802,0
            120.37947,23.3983,0
            120.37965,23.39866,0
            120.38038,23.39988,0
            120.38042,23.39996,0
            120.38157,23.40189,0
            120.38158,23.40192,0
            120.38165,23.40205,0
            120.38168,23.40213,0
            120.38174,23.40223,0
            120.38197,23.4028,0
            120.38198,23.40285,0
            120.382,23.40289,0
            120.38273,23.40538,0
            120.38275,23.40543,0
            120.38393,23.40949,0
            120.38413,23.41011,0
            120.38428,23.41045,0
            120.38428,23.41046,0
            120.38472,23.4113,0
            120.38599,23.41344,0
            120.38604,23.41355,0
            120.38607,23.41359,0
            120.38677,23.41476,0
            120.38731,23.41575,0
            120.38767,23.41645,0
            120.38791,23.41677,0
            120.38826,23.41739,0
            120.38845,23.4177,0
            120.38862,23.418,0
            120.3889,23.41841,0
            120.38947,23.41938,0
            120.38956,23.41952,0
            120.38961,23.41962,0
            120.38974,23.41983,0
            120.38974,23.41984,0
            120.38999,23.42025,0
            120.39004,23.42036,0
            120.39025,23.42072,0
            120.39156,23.42279,0
            120.39256,23.4245,0
            120.39295,23.4252,0
            120.39304,23.42533,0
            120.39519,23.42899,0
            120.39546,23.42939,0
            120.3956,23.42958,0
            120.39617,23.43023,0
            120.39657,23.43079,0
            120.398,23.43304,0
            120.39868,23.43391,0
            120.39975,23.43518,0
            120.39982,23.43525,0
            120.40266,23.43855,0
            120.4035,23.43946,0
            120.40814,23.44482,0
            120.4101,23.44714,0
            120.41098,23.44814,0
            120.41165,23.44896,0
            120.41191,23.44925,0
            120.41207,23.44941,0
            120.41268,23.4501,0
            120.41392,23.45161,0
            120.41433,23.45208,0
            120.41482,23.45269,0
            120.41508,23.45295,0
            120.41529,23.45294,0
            120.41534,23.45293,0
            120.41537,23.45294,0
            120.41542,23.45294,0
            120.41544,23.45295,0
            120.41545,23.45296,0
            120.41547,23.45297,0
            120.4155,23.453,0
            120.41552,23.45304,0
            120.41556,23.45308,0
            120.41558,23.45311,0
            120.41568,23.45322,0
            120.4157,23.45325,0
            120.41577,23.45333,0
            120.4157,23.45325,0
            120.41568,23.45322,0
            120.41558,23.45311,0
            120.41556,23.45308,0
            120.41552,23.45304,0
            120.4155,23.453,0
            120.41547,23.45297,0
            120.41545,23.45296,0
            120.41544,23.45295,0
            120.41542,23.45294,0
            120.41537,23.45294,0
            120.41534,23.45293,0
            120.41529,23.45294,0
            120.41508,23.45295,0
            120.41538,23.45334,0
            120.41611,23.45414,0
            120.41777,23.45614,0
            120.42575,23.46544,0
            120.42637,23.46619,0
            120.42644,23.46626,0
            120.42845,23.46862,0
            120.42855,23.46875,0
            120.42878,23.469,0
            120.42894,23.4692,0
            120.43021,23.47067,0
            120.43056,23.47105,0
            120.43143,23.47205,0
            120.43175,23.47245,0
            120.43283,23.4737,0
            120.4344,23.47539,0
            120.43442,23.47536,0
            120.43444,23.47535,0
            120.43445,23.47535,0
            120.43446,23.47534,0
            120.43447,23.47534,0
            120.43448,23.47533,0
            120.43451,23.47534,0
            120.43459,23.47534,0
            120.43463,23.47535,0
            120.43466,23.47537,0
            120.43471,23.47539,0
            120.43476,23.47544,0
            120.43484,23.47536,0
            120.43491,23.47532,0
            120.43527,23.47506,0
            120.43535,23.47501,0
            120.43559,23.4749,0
            120.43578,23.47484,0
            120.43592,23.47481,0
            120.43611,23.47478,0
            120.43655,23.47478,0
            120.43677,23.47481,0
            120.43833,23.4749,0
            120.43896,23.47496,0
            120.43901,23.47486,0
            120.43904,23.47483,0
            120.43908,23.4748,0
            120.4391,23.47478,0
            120.4392,23.47472,0
            120.43926,23.4747,0
            120.43926,23.47459,0
            120.43934,23.47402,0
            120.43943,23.47298,0
            120.43947,23.47283,0
            120.43957,23.47285,0
            120.43983,23.47286,0
            120.44014,23.4729,0
            120.44083,23.47294,0
            120.4414,23.473,0
            120.44161,23.47303,0
            120.44176,23.47303,0
            120.44217,23.47306,0
            120.44364,23.47322,0
            120.4442,23.47326,0
            120.44478,23.47333,0
            120.44502,23.47334,0
            120.44574,23.47341,0
            120.44647,23.47345,0
            120.44685,23.4735,0
            120.44796,23.47361,0
            120.44863,23.47365,0
            120.44911,23.47371,0
            120.44951,23.47372,0
            120.4528,23.47404,0
          </coordinates>
        </LineString>
      </Placemark>
      <Placemark>
        <name>高雄市左營區進學里海功路高雄市立左營高級中學</name>
        <styleUrl>#icon-1899-DB4436-nodesc</styleUrl>
        <Point>
          <coordinates>
            120.2961366,22.6936063,0
          </coordinates>
        </Point>
      </Placemark>
      <Placemark>
        <name>828台灣高雄市永安區維新里台17線46號</name>
        <styleUrl>#icon-1899-DB4436-nodesc</styleUrl>
        <Point>
          <coordinates>
            120.2432635,22.8102401,0
          </coordinates>
        </Point>
      </Placemark>
      <Placemark>
        <name>852台灣高雄市茄萣區崎漏里民治路188號</name>
        <styleUrl>#icon-1899-DB4436-nodesc</styleUrl>
        <Point>
          <coordinates>
            120.192898,22.8744988,0
          </coordinates>
        </Point>
      </Placemark>
      <Placemark>
        <name>臺南市七股區七股里七股14鄰7-ELEVEN 七股門市</name>
        <styleUrl>#icon-1899-DB4436-nodesc</styleUrl>
        <Point>
          <coordinates>
            120.1334957,23.1337511,0
          </coordinates>
        </Point>
      </Placemark>
      <Placemark>
        <name>臺南市將軍區將富ZIV將軍驛站</name>
        <styleUrl>#icon-1899-DB4436-nodesc</styleUrl>
        <Point>
          <coordinates>
            120.135292,23.2159191,0
          </coordinates>
        </Point>
      </Placemark>
      <Placemark>
        <name>736台灣臺南市柳營區中埕里柳營路一段60號</name>
        <styleUrl>#icon-1899-DB4436-nodesc</styleUrl>
        <Point>
          <coordinates>
            120.3127189,23.2602368,0
          </coordinates>
        </Point>
      </Placemark>
      <Placemark>
        <name>臺南市後壁區福安里福安里下寮7-ELEVEN 最大蓮營門市</name>
        <styleUrl>#icon-1899-DB4436-nodesc</styleUrl>
        <Point>
          <coordinates>
            120.3439944,23.3281692,0
          </coordinates>
        </Point>
      </Placemark>
      <Placemark>
        <name>嘉義縣水上鄉下寮村北回歸線標</name>
        <styleUrl>#icon-1899-DB4436-nodesc</styleUrl>
        <Point>
          <coordinates>
            120.4157677,23.4533316,0
          </coordinates>
        </Point>
      </Placemark>
      <Placemark>
        <name>嘉義市東區垂楊路嘉義市東區崇文國民小學</name>
        <styleUrl>#icon-1899-DB4436-nodesc</styleUrl>
        <Point>
          <coordinates>
            120.4528018,23.4740404,0
          </coordinates>
        </Point>
      </Placemark>
    </Folder>
  </Document>
</kml>
