<?xml version="1.0" encoding="UTF-8"?>
<kml xmlns="http://www.opengis.net/kml/2.2">
  <Document>
    <name>2026環島Day14</name>
    <description>埔里→台中</description>
    <Style id="icon-1899-DB4436-nodesc-normal">
      <IconStyle>
        <color>ff3644db</color>
        <scale>1</scale>
        <Icon>
          <href>https://www.gstatic.com/mapspro/images/stock/503-wht-blank_maps.png</href>
        </Icon>
        <hotSpot x="32" xunits="pixels" y="64" yunits="insetPixels"/>
      </IconStyle>
      <LabelStyle>
        <scale>0</scale>
      </LabelStyle>
      <BalloonStyle>
        <text><![CDATA[<h3>$[name]</h3>]]></text>
      </BalloonStyle>
    </Style>
    <Style id="icon-1899-DB4436-nodesc-highlight">
      <IconStyle>
        <color>ff3644db</color>
        <scale>1</scale>
        <Icon>
          <href>https://www.gstatic.com/mapspro/images/stock/503-wht-blank_maps.png</href>
        </Icon>
        <hotSpot x="32" xunits="pixels" y="64" yunits="insetPixels"/>
      </IconStyle>
      <LabelStyle>
        <scale>1</scale>
      </LabelStyle>
      <BalloonStyle>
        <text><![CDATA[<h3>$[name]</h3>]]></text>
      </BalloonStyle>
    </Style>
    <StyleMap id="icon-1899-DB4436-nodesc">
      <Pair>
        <key>normal</key>
        <styleUrl>#icon-1899-DB4436-nodesc-normal</styleUrl>
      </Pair>
      <Pair>
        <key>highlight</key>
        <styleUrl>#icon-1899-DB4436-nodesc-highlight</styleUrl>
      </Pair>
    </StyleMap>
    <Style id="line-1267FF-5000-nodesc-normal">
      <LineStyle>
        <color>ffff6712</color>
        <width>5</width>
      </LineStyle>
      <BalloonStyle>
        <text><![CDATA[<h3>$[name]</h3>]]></text>
      </BalloonStyle>
    </Style>
    <Style id="line-1267FF-5000-nodesc-highlight">
      <LineStyle>
        <color>ffff6712</color>
        <width>7.5</width>
      </LineStyle>
      <BalloonStyle>
        <text><![CDATA[<h3>$[name]</h3>]]></text>
      </BalloonStyle>
    </Style>
    <StyleMap id="line-1267FF-5000-nodesc">
      <Pair>
        <key>normal</key>
        <styleUrl>#line-1267FF-5000-nodesc-normal</styleUrl>
      </Pair>
      <Pair>
        <key>highlight</key>
        <styleUrl>#line-1267FF-5000-nodesc-highlight</styleUrl>
      </Pair>
    </StyleMap>
    <Folder>
      <name>溪南國小→國立臺灣體育運動大學</name>
      <Placemark>
        <name>溪南國小→國立臺灣體育運動大學</name>
        <styleUrl>#line-1267FF-5000-nodesc</styleUrl>
        <LineString>
          <tessellate>1</tessellate>
          <coordinates>
            120.95568,23.94764,0
            120.95574,23.94764,0
            120.95592,23.94762,0
            120.95622,23.94761,0
            120.95672,23.94765,0
            120.95675,23.94814,0
            120.95669,23.94837,0
            120.95657,23.94865,0
            120.95644,23.94906,0
            120.95637,23.94935,0
            120.95635,23.94941,0
            120.9563,23.9495,0
            120.95615,23.94967,0
            120.95611,23.9497,0
            120.95609,23.94971,0
            120.95605,23.94972,0
            120.95589,23.94981,0
            120.95591,23.95,0
            120.956,23.95015,0
            120.95611,23.9503,0
            120.95612,23.95032,0
            120.95621,23.95041,0
            120.95623,23.95044,0
            120.95629,23.9505,0
            120.95639,23.95067,0
            120.95646,23.95081,0
            120.95659,23.95132,0
            120.95661,23.95147,0
            120.95663,23.95175,0
            120.95662,23.9518,0
            120.95662,23.95182,0
            120.95658,23.952,0
            120.95654,23.95211,0
            120.95649,23.95222,0
            120.9567,23.9524,0
            120.95711,23.95267,0
            120.95736,23.95286,0
            120.95756,23.95305,0
            120.95813,23.95355,0
            120.95814,23.95357,0
            120.95817,23.95359,0
            120.95825,23.95366,0
            120.95915,23.95457,0
            120.95922,23.95463,0
            120.95792,23.95588,0
            120.95784,23.95593,0
            120.95611,23.95754,0
            120.95579,23.95791,0
            120.95553,23.95835,0
            120.95455,23.96085,0
            120.95446,23.96105,0
            120.9542,23.9615,0
            120.95188,23.96454,0
            120.95162,23.96497,0
            120.95128,23.96565,0
            120.9511,23.96565,0
            120.95094,23.96568,0
            120.94656,23.96737,0
            120.94622,23.96658,0
            120.94611,23.9665,0
            120.94596,23.96642,0
            120.94579,23.96638,0
            120.94566,23.96637,0
            120.94475,23.96645,0
            120.94446,23.96646,0
            120.94407,23.96643,0
            120.94382,23.96638,0
            120.9435,23.9663,0
            120.94314,23.96617,0
            120.94247,23.96588,0
            120.9419,23.96555,0
            120.94128,23.9653,0
            120.94111,23.96526,0
            120.94096,23.96524,0
            120.94077,23.96523,0
            120.93847,23.9653,0
            120.93658,23.96541,0
            120.93626,23.96545,0
            120.93555,23.96557,0
            120.93504,23.96573,0
            120.93445,23.96597,0
            120.93395,23.96623,0
            120.93331,23.96662,0
            120.93301,23.96686,0
            120.93299,23.96689,0
            120.93268,23.9672,0
            120.93241,23.9675,0
            120.93178,23.96836,0
            120.93166,23.9685,0
            120.93128,23.96886,0
            120.93114,23.96896,0
            120.92843,23.9711,0
            120.92636,23.973,0
            120.9262,23.97305,0
            120.9241,23.9749,0
            120.92351,23.97538,0
            120.92322,23.97554,0
            120.92202,23.97634,0
            120.92057,23.97711,0
            120.92005,23.97735,0
            120.91679,23.97896,0
            120.91676,23.97897,0
            120.9156,23.97951,0
            120.91559,23.97952,0
            120.91535,23.97964,0
            120.91522,23.97972,0
            120.91513,23.97979,0
            120.91512,23.97979,0
            120.91492,23.97996,0
            120.91466,23.98023,0
            120.91439,23.98061,0
            120.91438,23.98062,0
            120.91408,23.98108,0
            120.91372,23.98148,0
            120.91331,23.98186,0
            120.91262,23.9824,0
            120.9126,23.9824,0
            120.9126,23.98241,0
            120.91244,23.9825,0
            120.91242,23.98252,0
            120.91208,23.9827,0
            120.91112,23.98314,0
            120.91074,23.98329,0
            120.90485,23.98436,0
            120.90414,23.98445,0
            120.90403,23.98445,0
            120.90364,23.9844,0
            120.90289,23.98424,0
            120.90253,23.9841,0
            120.90234,23.98401,0
            120.90195,23.98379,0
            120.90161,23.98356,0
            120.9013,23.98331,0
            120.90018,23.98227,0
            120.9,23.98214,0
            120.89956,23.98189,0
            120.89924,23.98175,0
            120.89908,23.9817,0
            120.89872,23.98162,0
            120.89842,23.98157,0
            120.89783,23.98153,0
            120.89756,23.98154,0
            120.89707,23.98159,0
            120.89633,23.9817,0
            120.89587,23.98179,0
            120.89548,23.98185,0
            120.89529,23.98189,0
            120.89523,23.98191,0
            120.8951,23.98194,0
            120.89508,23.98195,0
            120.89474,23.98204,0
            120.89428,23.9822,0
            120.89375,23.98243,0
            120.89327,23.98268,0
            120.89272,23.98304,0
            120.89153,23.9839,0
            120.89138,23.98394,0
            120.89021,23.98484,0
            120.89014,23.98494,0
            120.89014,23.98495,0
            120.89013,23.98495,0
            120.88977,23.98517,0
            120.88935,23.98537,0
            120.88919,23.98543,0
            120.88904,23.98547,0
            120.88893,23.98551,0
            120.88845,23.98562,0
            120.88806,23.98565,0
            120.8878,23.98565,0
            120.88739,23.98561,0
            120.88678,23.98548,0
            120.88663,23.98543,0
            120.88655,23.98541,0
            120.88613,23.98521,0
            120.88546,23.98478,0
            120.88474,23.98428,0
            120.88315,23.98324,0
            120.88291,23.98312,0
            120.88283,23.98309,0
            120.88243,23.9829,0
            120.88221,23.98282,0
            120.88124,23.98259,0
            120.8805,23.98248,0
            120.87972,23.98243,0
            120.87911,23.98243,0
            120.87907,23.98244,0
            120.87887,23.98245,0
            120.87845,23.98251,0
            120.87799,23.9826,0
            120.8769,23.98291,0
            120.87683,23.98294,0
            120.87666,23.98299,0
            120.87643,23.98308,0
            120.87563,23.98333,0
            120.87501,23.98349,0
            120.87451,23.9836,0
            120.87407,23.98366,0
            120.87317,23.98367,0
            120.87263,23.98363,0
            120.87215,23.98356,0
            120.87143,23.98343,0
            120.87135,23.98341,0
            120.87133,23.98341,0
            120.87087,23.98331,0
            120.87024,23.98322,0
            120.86875,23.98327,0
            120.86835,23.98332,0
            120.86749,23.98346,0
            120.86695,23.9836,0
            120.86593,23.98392,0
            120.86518,23.98418,0
            120.86461,23.98442,0
            120.86397,23.98475,0
            120.86309,23.98532,0
            120.85981,23.98783,0
            120.85954,23.98809,0
            120.85925,23.98843,0
            120.85913,23.98861,0
            120.85896,23.98893,0
            120.85886,23.98923,0
            120.85878,23.98959,0
            120.85875,23.98979,0
            120.85875,23.98993,0
            120.85881,23.991,0
            120.85879,23.99119,0
            120.85876,23.99136,0
            120.8587,23.9916,0
            120.85863,23.99177,0
            120.85858,23.99187,0
            120.85844,23.99209,0
            120.8582,23.99239,0
            120.85806,23.99253,0
            120.85791,23.99266,0
            120.85666,23.9935,0
            120.85654,23.9936,0
            120.85599,23.99411,0
            120.85575,23.99436,0
            120.85545,23.99471,0
            120.85543,23.99474,0
            120.85428,23.99613,0
            120.85415,23.99626,0
            120.85394,23.99652,0
            120.85376,23.99672,0
            120.85366,23.99681,0
            120.85344,23.99698,0
            120.85333,23.99704,0
            120.85304,23.99717,0
            120.85143,23.99775,0
            120.85035,23.99827,0
            120.84979,23.9986,0
            120.84866,23.9995,0
            120.8482,23.99995,0
            120.84597,24.00238,0
            120.84562,24.00282,0
            120.84552,24.00298,0
            120.84539,24.00324,0
            120.84535,24.00337,0
            120.8453,24.00366,0
            120.8453,24.00393,0
            120.84531,24.00402,0
            120.84536,24.00422,0
            120.84544,24.00447,0
            120.84563,24.00481,0
            120.84567,24.00485,0
            120.84583,24.00508,0
            120.84605,24.00536,0
            120.8468,24.00645,0
            120.84708,24.00689,0
            120.84752,24.00765,0
            120.84805,24.00866,0
            120.84839,24.00947,0
            120.84844,24.00963,0
            120.84852,24.01038,0
            120.84855,24.01082,0
            120.84856,24.01124,0
            120.84848,24.01294,0
            120.84846,24.01411,0
            120.84844,24.01434,0
            120.84835,24.01473,0
            120.84825,24.01507,0
            120.84814,24.01535,0
            120.848,24.01564,0
            120.84765,24.01626,0
            120.84759,24.01635,0
            120.84753,24.01648,0
            120.84695,24.01754,0
            120.84682,24.0178,0
            120.84664,24.01825,0
            120.84659,24.01846,0
            120.84659,24.01847,0
            120.84657,24.01856,0
            120.84656,24.01864,0
            120.84656,24.01883,0
            120.8465,24.01892,0
            120.84648,24.01918,0
            120.84641,24.01957,0
            120.84644,24.02034,0
            120.8464,24.02154,0
            120.84641,24.02173,0
            120.84621,24.02243,0
            120.8461,24.02275,0
            120.84579,24.02344,0
            120.84555,24.0239,0
            120.84452,24.02573,0
            120.8441,24.02636,0
            120.84384,24.02667,0
            120.8437,24.02681,0
            120.84356,24.02692,0
            120.84328,24.0271,0
            120.84294,24.02728,0
            120.84262,24.02742,0
            120.84243,24.02748,0
            120.84227,24.02752,0
            120.84176,24.02758,0
            120.84145,24.02759,0
            120.84092,24.02755,0
            120.84064,24.02751,0
            120.83739,24.02685,0
            120.83656,24.02674,0
            120.83494,24.02646,0
            120.83383,24.02633,0
            120.8331,24.0263,0
            120.83279,24.02627,0
            120.83241,24.02621,0
            120.83131,24.02598,0
            120.83085,24.02582,0
            120.83054,24.02567,0
            120.83002,24.02539,0
            120.82956,24.02512,0
            120.82938,24.02498,0
            120.82775,24.02432,0
            120.82724,24.02409,0
            120.82639,24.02359,0
            120.82605,24.02337,0
            120.82602,24.02334,0
            120.82592,24.02327,0
            120.82579,24.02322,0
            120.82569,24.02314,0
            120.82544,24.02291,0
            120.82523,24.02269,0
            120.82504,24.02247,0
            120.82405,24.02121,0
            120.82309,24.01986,0
            120.82243,24.01876,0
            120.82208,24.01825,0
            120.82174,24.01781,0
            120.82063,24.01651,0
            120.82027,24.01601,0
            120.82019,24.01588,0
            120.82006,24.01563,0
            120.81984,24.01512,0
            120.81977,24.01492,0
            120.81968,24.01471,0
            120.81948,24.01411,0
            120.81938,24.01376,0
            120.81932,24.01362,0
            120.81928,24.01347,0
            120.81927,24.01335,0
            120.81918,24.01294,0
            120.81877,24.01069,0
            120.81842,24.00929,0
            120.81842,24.00927,0
            120.81839,24.00918,0
            120.8183,24.00881,0
            120.81819,24.00843,0
            120.81812,24.00826,0
            120.81769,24.00688,0
            120.81753,24.00631,0
            120.81742,24.006,0
            120.81732,24.00565,0
            120.81699,24.00478,0
            120.81688,24.00456,0
            120.81687,24.00453,0
            120.81635,24.00359,0
            120.8161,24.00317,0
            120.8155,24.00235,0
            120.81525,24.0021,0
            120.81506,24.00193,0
            120.81472,24.00167,0
            120.81416,24.00132,0
            120.81393,24.00119,0
            120.81354,24.00091,0
            120.81311,24.00052,0
            120.81301,24.0004,0
            120.81299,24.00039,0
            120.81299,24.00038,0
            120.81285,24.00019,0
            120.81267,23.99986,0
            120.81254,23.99942,0
            120.81249,23.99916,0
            120.81227,23.99836,0
            120.81217,23.99806,0
            120.81213,23.99797,0
            120.81206,23.99776,0
            120.81202,23.99769,0
            120.81198,23.99764,0
            120.81171,23.99719,0
            120.81135,23.99666,0
            120.81089,23.99592,0
            120.81066,23.9953,0
            120.8106,23.99504,0
            120.81057,23.99486,0
            120.81032,23.99369,0
            120.81016,23.99326,0
            120.81002,23.99297,0
            120.80981,23.99262,0
            120.80951,23.99221,0
            120.80893,23.99149,0
            120.80889,23.99142,0
            120.80729,23.98947,0
            120.80719,23.98944,0
            120.80693,23.98919,0
            120.80649,23.98882,0
            120.80605,23.98854,0
            120.80589,23.98846,0
            120.80517,23.98815,0
            120.80495,23.98808,0
            120.80479,23.98804,0
            120.80476,23.98804,0
            120.80459,23.988,0
            120.80457,23.98799,0
            120.80372,23.98788,0
            120.80167,23.98779,0
            120.8006,23.98777,0
            120.79981,23.98772,0
            120.79952,23.98769,0
            120.79881,23.98757,0
            120.79847,23.98748,0
            120.79824,23.98738,0
            120.79823,23.98738,0
            120.7979,23.98722,0
            120.79782,23.98719,0
            120.7977,23.98713,0
            120.79641,23.9864,0
            120.79634,23.98635,0
            120.79624,23.98625,0
            120.79576,23.98596,0
            120.79419,23.98489,0
            120.79416,23.98486,0
            120.7941,23.98483,0
            120.79326,23.98424,0
            120.79237,23.98369,0
            120.79225,23.98365,0
            120.7921,23.98358,0
            120.79189,23.9835,0
            120.79148,23.98342,0
            120.79106,23.98338,0
            120.79042,23.98337,0
            120.78973,23.98333,0
            120.78918,23.98332,0
            120.78891,23.9833,0
            120.78803,23.98329,0
            120.78798,23.98328,0
            120.78775,23.98328,0
            120.7877,23.9833,0
            120.78766,23.98331,0
            120.78688,23.98328,0
            120.78627,23.98317,0
            120.78577,23.98303,0
            120.78547,23.98293,0
            120.78453,23.98253,0
            120.78437,23.98244,0
            120.78419,23.98237,0
            120.78392,23.98231,0
            120.78359,23.98228,0
            120.78324,23.98228,0
            120.78305,23.98229,0
            120.78277,23.98233,0
            120.78218,23.98252,0
            120.78179,23.98268,0
            120.78094,23.98308,0
            120.77904,23.9839,0
            120.77834,23.98412,0
            120.77794,23.98421,0
            120.77787,23.98421,0
            120.77748,23.98427,0
            120.77735,23.98428,0
            120.77715,23.98428,0
            120.77699,23.98429,0
            120.77643,23.98427,0
            120.77593,23.98422,0
            120.77527,23.9841,0
            120.7752,23.98408,0
            120.77469,23.984,0
            120.77432,23.9839,0
            120.77283,23.98361,0
            120.77237,23.98357,0
            120.77149,23.98353,0
            120.77096,23.98355,0
            120.77001,23.98365,0
            120.76893,23.98382,0
            120.76865,23.98385,0
            120.76812,23.98393,0
            120.76722,23.98416,0
            120.76715,23.9842,0
            120.76668,23.98437,0
            120.76551,23.98494,0
            120.76479,23.98537,0
            120.76472,23.9854,0
            120.76342,23.98613,0
            120.76265,23.9864,0
            120.76226,23.9865,0
            120.76162,23.98657,0
            120.7612,23.98658,0
            120.76114,23.98657,0
            120.76095,23.98657,0
            120.76094,23.98656,0
            120.76071,23.98652,0
            120.76059,23.98648,0
            120.7605,23.98647,0
            120.76024,23.98641,0
            120.75996,23.98632,0
            120.75956,23.98615,0
            120.75951,23.98612,0
            120.75938,23.98606,0
            120.75909,23.98588,0
            120.75904,23.98586,0
            120.7584,23.98545,0
            120.75832,23.98539,0
            120.75792,23.98513,0
            120.75792,23.98512,0
            120.75587,23.98373,0
            120.75586,23.98372,0
            120.75461,23.98287,0
            120.75454,23.98283,0
            120.75416,23.98257,0
            120.75415,23.98256,0
            120.75394,23.98242,0
            120.75362,23.98226,0
            120.75349,23.98221,0
            120.75322,23.98214,0
            120.75291,23.98212,0
            120.75256,23.98213,0
            120.75231,23.98217,0
            120.75223,23.98219,0
            120.7521,23.98224,0
            120.75184,23.98237,0
            120.7516,23.98253,0
            120.75144,23.98265,0
            120.75085,23.98323,0
            120.75045,23.98367,0
            120.75021,23.98387,0
            120.74981,23.98412,0
            120.74938,23.98432,0
            120.74915,23.98441,0
            120.74878,23.98451,0
            120.74827,23.98458,0
            120.74667,23.98475,0
            120.74656,23.98472,0
            120.7464,23.98472,0
            120.74609,23.98474,0
            120.74595,23.98476,0
            120.74586,23.98476,0
            120.74382,23.98493,0
            120.74302,23.98495,0
            120.74251,23.98493,0
            120.74232,23.9849,0
            120.74205,23.98488,0
            120.74181,23.98484,0
            120.74162,23.98484,0
            120.74027,23.98448,0
            120.73901,23.98411,0
            120.73692,23.98359,0
            120.72807,23.9812,0
            120.72777,23.98113,0
            120.72731,23.98099,0
            120.72594,23.98064,0
            120.72577,23.98056,0
            120.72472,23.98024,0
            120.72433,23.98009,0
            120.72431,23.98009,0
            120.72409,23.98001,0
            120.72299,23.97971,0
            120.72275,23.97963,0
            120.72227,23.97951,0
            120.72128,23.97932,0
            120.72105,23.97926,0
            120.7207,23.97919,0
            120.71911,23.97894,0
            120.71773,23.97869,0
            120.71634,23.97834,0
            120.71604,23.97824,0
            120.71555,23.97802,0
            120.71546,23.97801,0
            120.71518,23.97791,0
            120.71426,23.97752,0
            120.71358,23.97718,0
            120.71357,23.97718,0
            120.7135,23.97714,0
            120.71341,23.9771,0
            120.71339,23.9771,0
            120.71327,23.97704,0
            120.71315,23.977,0
            120.71305,23.97698,0
            120.71303,23.97698,0
            120.71283,23.97695,0
            120.71272,23.97695,0
            120.71243,23.97697,0
            120.71212,23.97701,0
            120.71208,23.97702,0
            120.70899,23.97723,0
            120.70879,23.9772,0
            120.70878,23.97719,0
            120.70793,23.97724,0
            120.70747,23.9773,0
            120.70727,23.97734,0
            120.70644,23.97755,0
            120.70549,23.97776,0
            120.70439,23.97815,0
            120.70393,23.97826,0
            120.70374,23.97829,0
            120.7031,23.97836,0
            120.7025,23.97839,0
            120.70206,23.97844,0
            120.70201,23.97845,0
            120.70177,23.97847,0
            120.70159,23.9785,0
            120.69967,23.97868,0
            120.6986,23.97881,0
            120.69759,23.9789,0
            120.69665,23.97903,0
            120.69663,23.97904,0
            120.69304,23.97963,0
            120.69253,23.97969,0
            120.69263,23.98012,0
            120.69269,23.98044,0
            120.69269,23.98051,0
            120.6927,23.98062,0
            120.69256,23.98152,0
            120.69253,23.98162,0
            120.69233,23.98164,0
            120.69175,23.98184,0
            120.69133,23.98204,0
            120.69106,23.98222,0
            120.69071,23.98249,0
            120.69033,23.98281,0
            120.68918,23.98393,0
            120.689,23.98402,0
            120.6884,23.98459,0
            120.68836,23.98462,0
            120.68815,23.98481,0
            120.68807,23.98487,0
            120.68774,23.98505,0
            120.68741,23.98513,0
            120.68736,23.98515,0
            120.68684,23.98526,0
            120.68631,23.98544,0
            120.68553,23.9856,0
            120.68513,23.98566,0
            120.68411,23.98589,0
            120.68402,23.9859,0
            120.68333,23.98603,0
            120.68313,23.98609,0
            120.68307,23.98617,0
            120.68299,23.9862,0
            120.68297,23.98622,0
            120.68286,23.98625,0
            120.68162,23.98644,0
            120.67929,23.98687,0
            120.6792,23.98691,0
            120.67908,23.98698,0
            120.67895,23.98711,0
            120.67894,23.98714,0
            120.67892,23.98717,0
            120.6789,23.98722,0
            120.67889,23.98726,0
            120.67887,23.98729,0
            120.67886,23.98733,0
            120.67902,23.98776,0
            120.67917,23.98807,0
            120.67931,23.98843,0
            120.67943,23.98887,0
            120.6795,23.98918,0
            120.67954,23.98976,0
            120.6794,23.99221,0
            120.67931,23.99328,0
            120.6793,23.99371,0
            120.67935,23.9945,0
            120.67945,23.99506,0
            120.67989,23.997,0
            120.67997,23.99743,0
            120.67999,23.99759,0
            120.67999,23.99779,0
            120.68,23.99794,0
            120.68,23.99824,0
            120.67996,23.99868,0
            120.67989,23.99904,0
            120.67983,23.99928,0
            120.67974,23.99956,0
            120.67942,24.00033,0
            120.67873,24.00148,0
            120.67782,24.00308,0
            120.67638,24.00542,0
            120.67635,24.00553,0
            120.67636,24.00572,0
            120.67664,24.00597,0
            120.6772,24.00659,0
            120.67733,24.00679,0
            120.67771,24.00732,0
            120.67816,24.008,0
            120.67818,24.00809,0
            120.67823,24.00819,0
            120.6786,24.00881,0
            120.67869,24.00893,0
            120.6787,24.00896,0
            120.67907,24.00953,0
            120.6796,24.01046,0
            120.67963,24.01053,0
            120.67964,24.01057,0
            120.67965,24.01067,0
            120.68085,24.01247,0
            120.6814,24.01324,0
            120.68237,24.0148,0
            120.68411,24.01809,0
            120.68433,24.01857,0
            120.68464,24.01944,0
            120.68474,24.02015,0
            120.68485,24.02059,0
            120.68509,24.02135,0
            120.68522,24.02165,0
            120.68571,24.0226,0
            120.68597,24.0232,0
            120.68605,24.02336,0
            120.6861,24.02349,0
            120.68627,24.02402,0
            120.68634,24.02431,0
            120.68634,24.02432,0
            120.68639,24.02449,0
            120.68642,24.02464,0
            120.68648,24.0251,0
            120.68651,24.02558,0
            120.68652,24.026,0
            120.68649,24.02664,0
            120.68637,24.02739,0
            120.68632,24.0276,0
            120.68613,24.02822,0
            120.686,24.02857,0
            120.68571,24.0292,0
            120.68481,24.03103,0
            120.68442,24.03201,0
            120.68424,24.03253,0
            120.68417,24.03282,0
            120.68394,24.03358,0
            120.68367,24.03475,0
            120.68344,24.03558,0
            120.68327,24.03599,0
            120.68306,24.03641,0
            120.68284,24.03673,0
            120.68235,24.03728,0
            120.68199,24.03762,0
            120.68162,24.03789,0
            120.68106,24.03823,0
            120.68025,24.03864,0
            120.67965,24.03892,0
            120.67948,24.03901,0
            120.67751,24.03994,0
            120.67745,24.03995,0
            120.67711,24.04012,0
            120.67671,24.04035,0
            120.67613,24.04073,0
            120.67572,24.04103,0
            120.6757,24.04104,0
            120.67517,24.04143,0
            120.67482,24.04165,0
            120.67454,24.04181,0
            120.67427,24.04194,0
            120.67389,24.0421,0
            120.67248,24.0425,0
            120.6721,24.04264,0
            120.67171,24.04281,0
            120.67137,24.04298,0
            120.67123,24.04304,0
            120.67062,24.04341,0
            120.67044,24.04354,0
            120.66888,24.04484,0
            120.66887,24.04484,0
            120.66872,24.04495,0
            120.66809,24.04536,0
            120.66757,24.04562,0
            120.66635,24.04615,0
            120.66616,24.04626,0
            120.66598,24.04635,0
            120.66571,24.04657,0
            120.66548,24.04672,0
            120.66536,24.04681,0
            120.66504,24.0471,0
            120.66482,24.04733,0
            120.66448,24.04778,0
            120.66434,24.04799,0
            120.66365,24.04917,0
            120.66326,24.04972,0
            120.66266,24.05042,0
            120.66262,24.05048,0
            120.66231,24.05085,0
            120.66211,24.05115,0
            120.66195,24.05144,0
            120.66182,24.05173,0
            120.66164,24.05223,0
            120.66155,24.05265,0
            120.66151,24.0531,0
            120.66151,24.05328,0
            120.66154,24.05373,0
            120.66158,24.05401,0
            120.66167,24.05438,0
            120.66184,24.05488,0
            120.6623,24.05602,0
            120.66242,24.05636,0
            120.66243,24.05638,0
            120.66247,24.05654,0
            120.66248,24.05655,0
            120.66255,24.05691,0
            120.66257,24.05698,0
            120.6626,24.05715,0
            120.66272,24.05809,0
            120.66275,24.05847,0
            120.66276,24.05851,0
            120.66276,24.05858,0
            120.66278,24.05883,0
            120.66289,24.05965,0
            120.6629,24.05969,0
            120.6631,24.06175,0
            120.66315,24.0621,0
            120.66325,24.06338,0
            120.66323,24.06413,0
            120.6632,24.06438,0
            120.66314,24.0647,0
            120.66266,24.06643,0
            120.66249,24.0672,0
            120.66238,24.06794,0
            120.66234,24.069,0
            120.66236,24.06969,0
            120.66239,24.06994,0
            120.66241,24.07025,0
            120.66248,24.07066,0
            120.66261,24.07128,0
            120.66271,24.07168,0
            120.66296,24.07243,0
            120.66306,24.07265,0
            120.66341,24.07356,0
            120.66351,24.07386,0
            120.6637,24.07454,0
            120.66371,24.07456,0
            120.66383,24.07514,0
            120.66391,24.07562,0
            120.66391,24.07567,0
            120.66394,24.07594,0
            120.66399,24.07769,0
            120.664,24.07777,0
            120.66408,24.07978,0
            120.66409,24.07982,0
            120.66423,24.0832,0
            120.66425,24.08344,0
            120.66436,24.08652,0
            120.66449,24.08871,0
            120.66458,24.09269,0
            120.66464,24.09325,0
            120.66466,24.09333,0
            120.66468,24.09348,0
            120.66479,24.09388,0
            120.66502,24.09438,0
            120.6653,24.09482,0
            120.66586,24.09553,0
            120.66678,24.09661,0
            120.66684,24.09667,0
            120.66689,24.09674,0
            120.66739,24.09733,0
            120.66833,24.09838,0
            120.66893,24.099,0
            120.66962,24.09983,0
            120.66964,24.09987,0
            120.66968,24.09992,0
            120.66973,24.1,0
            120.67007,24.10042,0
            120.67072,24.10113,0
            120.67083,24.10127,0
            120.67087,24.1013,0
            120.67145,24.10215,0
            120.6715,24.10224,0
            120.67166,24.10245,0
            120.67183,24.10279,0
            120.67201,24.10322,0
            120.67218,24.10368,0
            120.67231,24.10418,0
            120.67231,24.1042,0
            120.67239,24.10463,0
            120.67241,24.10485,0
            120.67242,24.10573,0
            120.67241,24.10581,0
            120.67239,24.1062,0
            120.67236,24.10639,0
            120.67228,24.10674,0
            120.67218,24.10709,0
            120.67191,24.10765,0
            120.67182,24.10781,0
            120.67173,24.10792,0
            120.67172,24.10794,0
            120.67162,24.10806,0
            120.67143,24.10824,0
            120.67132,24.10839,0
            120.67072,24.1091,0
            120.67057,24.10933,0
            120.67046,24.10956,0
            120.67037,24.1098,0
            120.67026,24.11016,0
            120.67019,24.11047,0
            120.67016,24.11069,0
            120.67015,24.11113,0
            120.67014,24.11124,0
            120.67007,24.11443,0
            120.67008,24.11479,0
            120.67006,24.11903,0
            120.67005,24.11915,0
            120.67006,24.11949,0
            120.67004,24.12002,0
            120.67006,24.12235,0
            120.67004,24.12446,0
            120.67005,24.1247,0
            120.67004,24.12579,0
            120.67006,24.12599,0
            120.67006,24.12636,0
            120.67004,24.12646,0
            120.66947,24.12761,0
            120.66936,24.12786,0
            120.66891,24.12872,0
            120.66859,24.12944,0
            120.66855,24.12951,0
            120.6685,24.12963,0
            120.66838,24.12982,0
            120.66853,24.12989,0
            120.66854,24.12989,0
            120.67059,24.13071,0
            120.67245,24.1315,0
            120.67285,24.13165,0
            120.67462,24.13241,0
            120.67594,24.1331,0
            120.68201,24.13563,0
            120.68227,24.13579,0
            120.6825,24.13596,0
            120.68328,24.13629,0
            120.68382,24.13649,0
            120.68418,24.13667,0
            120.68433,24.13688,0
            120.68436,24.13699,0
            120.68438,24.13702,0
            120.68439,24.13705,0
            120.68439,24.13709,0
            120.68442,24.13718,0
            120.68447,24.13728,0
            120.68455,24.13737,0
            120.68463,24.13742,0
            120.68468,24.13746,0
            120.68509,24.13769,0
            120.68518,24.13778,0
            120.68563,24.13837,0
            120.686,24.13882,0
            120.68604,24.13888,0
            120.68606,24.13901,0
            120.68607,24.13944,0
            120.68606,24.13965,0
            120.68604,24.13983,0
            120.68599,24.14013,0
            120.68595,24.14154,0
            120.68586,24.14314,0
            120.68587,24.14333,0
            120.68592,24.14367,0
            120.68597,24.14386,0
            120.68621,24.14458,0
            120.68648,24.1453,0
            120.68649,24.14561,0
            120.68646,24.14569,0
            120.68645,24.14573,0
            120.6864,24.14583,0
            120.68622,24.14612,0
            120.68616,24.14624,0
            120.68607,24.14639,0
            120.68708,24.14875,0
            120.68754,24.14969,0
            120.68858,24.1521,0
            120.68872,24.15204,0
            120.68892,24.15197,0
          </coordinates>
        </LineString>
      </Placemark>
      <Placemark>
        <name>545台灣南投縣埔里鎮溪南里珠生路68號545</name>
        <styleUrl>#icon-1899-DB4436-nodesc</styleUrl>
        <Point>
          <coordinates>
            120.9556794,23.9476389,0
          </coordinates>
        </Point>
      </Placemark>
      <Placemark>
        <name>南投縣埔里鎮南村里中山路四段全國加油站 愛蘭交流道站</name>
        <styleUrl>#icon-1899-DB4436-nodesc</styleUrl>
        <Point>
          <coordinates>
            120.9438162,23.9663765,0
          </coordinates>
        </Point>
      </Placemark>
      <Placemark>
        <name>南投縣國姓鄉福龜村中正路一段萊爾富便利商店 國姓長壽巷店</name>
        <styleUrl>#icon-1899-DB4436-nodesc</styleUrl>
        <Point>
          <coordinates>
            120.8260525,24.0233653,0
          </coordinates>
        </Point>
      </Placemark>
      <Placemark>
        <name>542台灣南投縣草屯鎮南埔里台14線260-276號</name>
        <styleUrl>#icon-1899-DB4436-nodesc</styleUrl>
        <Point>
          <coordinates>
            120.7222658,23.979509,0
          </coordinates>
        </Point>
      </Placemark>
      <Placemark>
        <name>413台灣臺中市霧峰區舊正里中投西路一段147號</name>
        <styleUrl>#icon-1899-DB4436-nodesc</styleUrl>
        <Point>
          <coordinates>
            120.6860973,24.023489,0
          </coordinates>
        </Point>
      </Placemark>
      <Placemark>
        <name>臺中市北區樂英里力行路臺體體育場</name>
        <styleUrl>#icon-1899-DB4436-nodesc</styleUrl>
        <Point>
          <coordinates>
            120.6889174,24.1519675,0
          </coordinates>
        </Point>
      </Placemark>
    </Folder>
  </Document>
</kml>
