<?xml version="1.0" encoding="UTF-8"?>
<kml xmlns="http://www.opengis.net/kml/2.2">
  <Document>
    <name>2026環島Day5</name>
    <description><![CDATA[羅東===新城→花蓮<br>]]></description>
    <Style id="icon-1899-DB4436-nodesc-normal">
      <IconStyle>
        <color>ff3644db</color>
        <scale>1</scale>
        <Icon>
          <href>https://www.gstatic.com/mapspro/images/stock/503-wht-blank_maps.png</href>
        </Icon>
        <hotSpot x="32" xunits="pixels" y="64" yunits="insetPixels"/>
      </IconStyle>
      <LabelStyle>
        <scale>0</scale>
      </LabelStyle>
      <BalloonStyle>
        <text><![CDATA[<h3>$[name]</h3>]]></text>
      </BalloonStyle>
    </Style>
    <Style id="icon-1899-DB4436-nodesc-highlight">
      <IconStyle>
        <color>ff3644db</color>
        <scale>1</scale>
        <Icon>
          <href>https://www.gstatic.com/mapspro/images/stock/503-wht-blank_maps.png</href>
        </Icon>
        <hotSpot x="32" xunits="pixels" y="64" yunits="insetPixels"/>
      </IconStyle>
      <LabelStyle>
        <scale>1</scale>
      </LabelStyle>
      <BalloonStyle>
        <text><![CDATA[<h3>$[name]</h3>]]></text>
      </BalloonStyle>
    </Style>
    <StyleMap id="icon-1899-DB4436-nodesc">
      <Pair>
        <key>normal</key>
        <styleUrl>#icon-1899-DB4436-nodesc-normal</styleUrl>
      </Pair>
      <Pair>
        <key>highlight</key>
        <styleUrl>#icon-1899-DB4436-nodesc-highlight</styleUrl>
      </Pair>
    </StyleMap>
    <Style id="line-1267FF-5000-nodesc-normal">
      <LineStyle>
        <color>ffff6712</color>
        <width>5</width>
      </LineStyle>
      <BalloonStyle>
        <text><![CDATA[<h3>$[name]</h3>]]></text>
      </BalloonStyle>
    </Style>
    <Style id="line-1267FF-5000-nodesc-highlight">
      <LineStyle>
        <color>ffff6712</color>
        <width>7.5</width>
      </LineStyle>
      <BalloonStyle>
        <text><![CDATA[<h3>$[name]</h3>]]></text>
      </BalloonStyle>
    </Style>
    <StyleMap id="line-1267FF-5000-nodesc">
      <Pair>
        <key>normal</key>
        <styleUrl>#line-1267FF-5000-nodesc-normal</styleUrl>
      </Pair>
      <Pair>
        <key>highlight</key>
        <styleUrl>#line-1267FF-5000-nodesc-highlight</styleUrl>
      </Pair>
    </StyleMap>
    <Folder>
      <name>羅東國中→羅東車站</name>
      <Placemark>
        <name>羅東國中→羅東車站</name>
        <styleUrl>#line-1267FF-5000-nodesc</styleUrl>
        <LineString>
          <tessellate>1</tessellate>
          <coordinates>
            121.76774,24.68264,0
            121.7684,24.68247,0
            121.76815,24.6817,0
            121.76803,24.68132,0
            121.76791,24.68097,0
            121.76762,24.68007,0
            121.76751,24.67977,0
            121.76735,24.67927,0
            121.76804,24.67908,0
            121.76827,24.67902,0
            121.76871,24.6789,0
            121.76956,24.67866,0
            121.77025,24.67849,0
            121.77084,24.67834,0
            121.77151,24.67819,0
            121.77201,24.67805,0
            121.77217,24.67803,0
            121.77272,24.67798,0
            121.77281,24.67797,0
            121.77342,24.67794,0
            121.77402,24.67792,0
            121.77402,24.67787,0
            121.77407,24.67786,0
            121.7741,24.67787,0
            121.77414,24.67787,0
            121.77415,24.67788,0
            121.77417,24.67789,0
            121.77418,24.67791,0
          </coordinates>
        </LineString>
      </Placemark>
      <Placemark>
        <name>宜蘭縣羅東鎮信義里中華路宜蘭縣立羅東國民中學</name>
        <styleUrl>#icon-1899-DB4436-nodesc</styleUrl>
        <Point>
          <coordinates>
            121.7677361,24.6826366,0
          </coordinates>
        </Point>
      </Placemark>
      <Placemark>
        <name>宜蘭縣羅東鎮東安里公正路羅東車站-前站</name>
        <styleUrl>#icon-1899-DB4436-nodesc</styleUrl>
        <Point>
          <coordinates>
            121.7741846,24.6779084,0
          </coordinates>
        </Point>
      </Placemark>
    </Folder>
    <Folder>
      <name>新城→中原國小</name>
      <Placemark>
        <name>新城→中原國小</name>
        <styleUrl>#line-1267FF-5000-nodesc</styleUrl>
        <LineString>
          <tessellate>1</tessellate>
          <coordinates>
            121.641,24.12758,0
            121.64109,24.12773,0
            121.64175,24.12742,0
            121.64378,24.13104,0
            121.644,24.13148,0
            121.64406,24.13157,0
            121.64282,24.13228,0
            121.64228,24.13257,0
            121.64196,24.13278,0
            121.64108,24.13324,0
            121.64102,24.13328,0
            121.64096,24.1333,0
            121.64093,24.1333,0
            121.64091,24.13331,0
            121.64087,24.13331,0
            121.63973,24.13394,0
            121.63945,24.13411,0
            121.63926,24.13421,0
            121.6391,24.13431,0
            121.63907,24.13432,0
            121.63904,24.13434,0
            121.6389,24.13441,0
            121.63801,24.13492,0
            121.63792,24.13498,0
            121.63784,24.13502,0
            121.63778,24.13506,0
            121.63776,24.13508,0
            121.63763,24.13518,0
            121.63761,24.13519,0
            121.63749,24.13531,0
            121.63479,24.1388,0
            121.63476,24.13885,0
            121.6331,24.14102,0
            121.63287,24.1414,0
            121.63275,24.14164,0
            121.63269,24.14178,0
            121.63267,24.14181,0
            121.63257,24.14209,0
            121.63251,24.14233,0
            121.63206,24.14357,0
            121.63195,24.14375,0
            121.63194,24.14378,0
            121.63175,24.14407,0
            121.63127,24.14466,0
            121.63105,24.1449,0
            121.63089,24.1451,0
            121.63087,24.14515,0
            121.63083,24.14519,0
            121.63076,24.1453,0
            121.62923,24.14702,0
            121.62895,24.14736,0
            121.62834,24.14805,0
            121.62825,24.14814,0
            121.62635,24.15033,0
            121.62617,24.15052,0
            121.62437,24.15261,0
            121.62288,24.15425,0
            121.62237,24.15478,0
            121.62175,24.15547,0
            121.62156,24.15564,0
            121.62156,24.15575,0
            121.62158,24.15587,0
            121.62189,24.1566,0
            121.62198,24.15676,0
            121.62212,24.15694,0
            121.62193,24.15722,0
            121.62176,24.15743,0
            121.62161,24.15758,0
            121.62127,24.15784,0
            121.62114,24.15797,0
            121.62086,24.15836,0
            121.62105,24.15861,0
            121.62131,24.15854,0
            121.62169,24.1584,0
            121.62177,24.15838,0
            121.62228,24.15818,0
            121.62177,24.15838,0
            121.62169,24.1584,0
            121.62131,24.15854,0
            121.62105,24.15861,0
            121.62086,24.15836,0
            121.62114,24.15797,0
            121.62127,24.15784,0
            121.62161,24.15758,0
            121.62176,24.15743,0
            121.62193,24.15722,0
            121.62212,24.15694,0
            121.62198,24.15676,0
            121.62189,24.1566,0
            121.62158,24.15587,0
            121.62156,24.15575,0
            121.62156,24.15564,0
            121.62155,24.15559,0
            121.62195,24.15517,0
            121.62231,24.15474,0
            121.62233,24.1547,0
            121.62389,24.153,0
            121.62722,24.14918,0
            121.6285,24.14777,0
            121.62903,24.14711,0
            121.63076,24.14514,0
            121.63089,24.1451,0
            121.63105,24.1449,0
            121.63127,24.14466,0
            121.63175,24.14407,0
            121.63194,24.14378,0
            121.63195,24.14375,0
            121.63206,24.14357,0
            121.63251,24.14233,0
            121.63257,24.14209,0
            121.63267,24.14181,0
            121.63269,24.14178,0
            121.63275,24.14164,0
            121.63287,24.1414,0
            121.6331,24.14102,0
            121.63476,24.13885,0
            121.63479,24.1388,0
            121.63749,24.13531,0
            121.63761,24.13519,0
            121.63763,24.13518,0
            121.63776,24.13508,0
            121.63778,24.13506,0
            121.63784,24.13502,0
            121.63792,24.13498,0
            121.63801,24.13492,0
            121.6389,24.13441,0
            121.63904,24.13434,0
            121.63907,24.13432,0
            121.6391,24.13431,0
            121.63926,24.13421,0
            121.63945,24.13411,0
            121.63973,24.13394,0
            121.64087,24.13331,0
            121.64089,24.13326,0
            121.64092,24.13323,0
            121.64096,24.1332,0
            121.64109,24.13312,0
            121.64189,24.13269,0
            121.64196,24.13266,0
            121.64594,24.1304,0
            121.64629,24.13017,0
            121.64672,24.12985,0
            121.64701,24.12959,0
            121.64731,24.12928,0
            121.64757,24.12896,0
            121.6478,24.12864,0
            121.64785,24.12855,0
            121.64787,24.1285,0
            121.64814,24.128,0
            121.64833,24.12752,0
            121.64841,24.12728,0
            121.64853,24.12672,0
            121.64856,24.12644,0
            121.64858,24.12592,0
            121.64857,24.12565,0
            121.64852,24.12523,0
            121.64847,24.12494,0
            121.64836,24.12454,0
            121.64836,24.12452,0
            121.64825,24.12421,0
            121.64813,24.12392,0
            121.64791,24.12352,0
            121.64765,24.1231,0
            121.64731,24.12265,0
            121.6472,24.12252,0
            121.64702,24.12235,0
            121.64687,24.12224,0
            121.64671,24.12209,0
            121.64642,24.12187,0
            121.64544,24.12123,0
            121.64104,24.11848,0
            121.64097,24.11843,0
            121.63995,24.11781,0
            121.63841,24.11681,0
            121.63713,24.11607,0
            121.63678,24.11583,0
            121.63632,24.11556,0
            121.63215,24.11294,0
            121.63199,24.11283,0
            121.63196,24.11282,0
            121.62831,24.11088,0
            121.628,24.11073,0
            121.62394,24.10858,0
            121.62387,24.10855,0
            121.62352,24.10835,0
            121.62246,24.1078,0
            121.62236,24.10776,0
            121.62082,24.107,0
            121.61937,24.10633,0
            121.61898,24.10613,0
            121.61871,24.10597,0
            121.61845,24.1058,0
            121.61776,24.10523,0
            121.61752,24.10499,0
            121.61717,24.10461,0
            121.61696,24.10432,0
            121.61664,24.10383,0
            121.6165,24.10358,0
            121.61635,24.10327,0
            121.61608,24.10251,0
            121.61475,24.09718,0
            121.61485,24.09712,0
            121.61517,24.0969,0
            121.61517,24.09689,0
            121.61528,24.09682,0
            121.61576,24.09644,0
            121.61578,24.09643,0
            121.61632,24.09598,0
            121.61697,24.0955,0
            121.61738,24.09516,0
            121.61742,24.09512,0
            121.61746,24.09507,0
            121.61752,24.09496,0
            121.61753,24.09491,0
            121.61753,24.09474,0
            121.61752,24.0947,0
            121.61739,24.09444,0
            121.61737,24.09439,0
            121.61736,24.09434,0
            121.61737,24.09427,0
            121.61738,24.09426,0
            121.61739,24.09424,0
            121.6174,24.09423,0
            121.61773,24.09407,0
            121.61775,24.09405,0
            121.61779,24.09402,0
            121.61782,24.09399,0
            121.61786,24.09393,0
            121.61787,24.09392,0
            121.61791,24.0938,0
            121.61793,24.0937,0
            121.61793,24.09364,0
            121.61788,24.0934,0
            121.61786,24.09324,0
            121.61787,24.09322,0
            121.61787,24.09319,0
            121.61789,24.09315,0
            121.61791,24.09314,0
            121.61794,24.09311,0
            121.61816,24.09299,0
            121.61825,24.09295,0
            121.61844,24.09283,0
            121.61858,24.09272,0
            121.61864,24.09265,0
            121.61866,24.09261,0
            121.61868,24.09252,0
            121.6187,24.09226,0
            121.6187,24.09216,0
            121.61865,24.09205,0
            121.61843,24.09188,0
            121.61841,24.09187,0
            121.61834,24.0918,0
            121.61829,24.09169,0
            121.61695,24.08917,0
            121.61595,24.08712,0
            121.6158,24.08684,0
            121.61569,24.08658,0
            121.61485,24.08412,0
            121.61475,24.08377,0
            121.61473,24.08357,0
            121.61473,24.08345,0
            121.61471,24.08323,0
            121.61467,24.08305,0
            121.61467,24.08304,0
            121.61421,24.08168,0
            121.61421,24.08167,0
            121.61415,24.08148,0
            121.61384,24.08066,0
            121.6137,24.0802,0
            121.61357,24.07984,0
            121.61339,24.07925,0
            121.61303,24.07831,0
            121.61296,24.07807,0
            121.61293,24.07542,0
            121.61299,24.07446,0
            121.61298,24.07389,0
            121.61299,24.07372,0
            121.613,24.07365,0
            121.613,24.07353,0
            121.61298,24.07336,0
            121.61284,24.07299,0
            121.61275,24.07012,0
            121.61279,24.06722,0
            121.61281,24.06699,0
            121.61281,24.06692,0
            121.61282,24.06683,0
            121.61286,24.06665,0
            121.61296,24.06634,0
            121.61304,24.06619,0
            121.61332,24.06559,0
            121.6134,24.06538,0
            121.61342,24.06523,0
            121.61342,24.06504,0
            121.61341,24.06501,0
            121.61339,24.06487,0
            121.61336,24.06473,0
            121.61327,24.06446,0
            121.6132,24.06387,0
            121.61321,24.06332,0
            121.61322,24.06321,0
            121.61324,24.06309,0
            121.61329,24.06289,0
            121.61335,24.06274,0
            121.61425,24.0612,0
            121.61426,24.06117,0
            121.61433,24.06104,0
            121.61439,24.06086,0
            121.6144,24.0608,0
            121.61439,24.0604,0
            121.6144,24.06034,0
            121.6144,24.06027,0
            121.61443,24.06008,0
            121.61461,24.05944,0
            121.61461,24.05933,0
            121.61452,24.05918,0
            121.6145,24.05911,0
            121.61448,24.05899,0
            121.6145,24.05822,0
            121.6148,24.05671,0
            121.61493,24.05628,0
            121.61518,24.05555,0
            121.61546,24.05464,0
            121.61616,24.05203,0
            121.61622,24.05162,0
            121.61627,24.0514,0
            121.61647,24.05067,0
            121.61679,24.04923,0
            121.61692,24.04875,0
            121.61709,24.04832,0
            121.6171,24.04826,0
            121.617,24.04818,0
            121.61668,24.04797,0
            121.6166,24.04791,0
            121.61659,24.04791,0
            121.61656,24.04788,0
            121.61651,24.04784,0
            121.61649,24.04783,0
            121.61652,24.04765,0
            121.61662,24.04736,0
            121.61667,24.04725,0
            121.61683,24.04695,0
            121.61693,24.0468,0
            121.61751,24.04615,0
            121.61768,24.04594,0
            121.61772,24.04588,0
            121.61781,24.04583,0
            121.61804,24.04518,0
            121.61822,24.04472,0
            121.61837,24.04442,0
            121.61894,24.04312,0
            121.61993,24.04115,0
            121.62012,24.04095,0
            121.62018,24.04091,0
            121.62022,24.04091,0
            121.6205,24.04088,0
            121.62066,24.04099,0
            121.62072,24.04104,0
            121.62081,24.04108,0
            121.62107,24.04122,0
            121.62121,24.04132,0
            121.62134,24.04138,0
            121.6214,24.0414,0
            121.62149,24.04141,0
            121.6218,24.0414,0
            121.62202,24.04144,0
            121.62217,24.04152,0
            121.6222,24.04153,0
            121.62232,24.04159,0
            121.62249,24.04169,0
            121.62232,24.04159,0
            121.6222,24.04153,0
            121.62217,24.04152,0
            121.62202,24.04144,0
            121.6218,24.0414,0
            121.62149,24.04141,0
            121.6214,24.0414,0
            121.62134,24.04138,0
            121.62121,24.04132,0
            121.62107,24.04122,0
            121.62081,24.04108,0
            121.62072,24.04104,0
            121.62066,24.04099,0
            121.6205,24.04088,0
            121.6206,24.04084,0
            121.62069,24.04079,0
            121.62076,24.04074,0
            121.62079,24.04071,0
            121.62082,24.04069,0
            121.62093,24.04055,0
            121.62109,24.04023,0
            121.62124,24.03987,0
            121.62132,24.03973,0
            121.62137,24.03962,0
            121.62151,24.03942,0
            121.62159,24.03934,0
            121.62174,24.03922,0
            121.62192,24.0391,0
            121.62206,24.03903,0
            121.62218,24.03898,0
            121.62218,24.03897,0
            121.62363,24.03842,0
            121.62374,24.03837,0
            121.6238,24.03833,0
            121.62386,24.03827,0
            121.62393,24.03817,0
            121.62396,24.0381,0
            121.62398,24.03807,0
            121.62411,24.03778,0
            121.6243,24.03741,0
            121.62435,24.03734,0
            121.62441,24.03723,0
            121.62449,24.03711,0
            121.62532,24.03536,0
            121.62543,24.03519,0
            121.62553,24.03507,0
            121.6257,24.03493,0
            121.6263,24.0345,0
            121.62646,24.03435,0
            121.62658,24.03419,0
            121.62659,24.03416,0
            121.62668,24.03398,0
            121.62675,24.03376,0
            121.62679,24.03366,0
            121.62684,24.03348,0
            121.62686,24.03338,0
            121.62688,24.03318,0
            121.62688,24.03309,0
            121.62684,24.03284,0
            121.62655,24.03196,0
            121.62654,24.03195,0
            121.6264,24.0315,0
            121.62635,24.03137,0
            121.62627,24.0312,0
            121.62624,24.03112,0
            121.62622,24.03103,0
            121.62622,24.03089,0
            121.62623,24.0308,0
            121.62625,24.03076,0
            121.62627,24.0307,0
            121.62631,24.03062,0
            121.62644,24.03045,0
            121.62649,24.0304,0
            121.62689,24.02991,0
            121.62709,24.0296,0
            121.62713,24.02952,0
            121.62743,24.02904,0
            121.62924,24.02659,0
            121.62943,24.0263,0
            121.6295,24.02615,0
            121.62965,24.02587,0
            121.62966,24.02583,0
            121.62967,24.02567,0
            121.62964,24.02519,0
            121.6296,24.02479,0
            121.62963,24.02429,0
            121.62966,24.02404,0
            121.62773,24.02164,0
            121.62771,24.02162,0
            121.62555,24.01895,0
            121.62524,24.01854,0
            121.62468,24.01787,0
            121.62415,24.0173,0
            121.62387,24.01702,0
            121.62132,24.01423,0
            121.61888,24.01164,0
            121.61824,24.01086,0
            121.61747,24.01002,0
            121.61644,24.00896,0
            121.61621,24.00868,0
            121.61588,24.00834,0
            121.61584,24.00827,0
            121.6158,24.00809,0
            121.61551,24.0073,0
            121.61548,24.00724,0
            121.61547,24.00721,0
            121.61545,24.00717,0
            121.61544,24.00714,0
            121.61544,24.00712,0
            121.61542,24.00708,0
            121.61541,24.00705,0
            121.61539,24.00701,0
            121.61538,24.00698,0
            121.61536,24.00694,0
            121.61494,24.00588,0
            121.6148,24.00557,0
            121.61478,24.00554,0
            121.61457,24.00507,0
            121.61401,24.00391,0
            121.6137,24.00337,0
            121.61368,24.00327,0
            121.61367,24.00317,0
            121.6137,24.00251,0
            121.61368,24.00236,0
            121.6135,24.0016,0
            121.61345,24.00131,0
            121.61342,24.00122,0
            121.61337,24.00099,0
            121.61315,24.00018,0
            121.61312,24.00003,0
            121.61295,23.99945,0
            121.61281,23.99907,0
            121.6112,23.99427,0
            121.61115,23.99415,0
            121.611,23.99369,0
            121.61096,23.99354,0
            121.61082,23.99284,0
            121.61076,23.99241,0
            121.61076,23.99223,0
            121.61052,23.99121,0
            121.60989,23.98802,0
            121.60989,23.98801,0
            121.60983,23.98773,0
            121.6098,23.98754,0
            121.60981,23.98697,0
            121.60982,23.98696,0
            121.60984,23.98682,0
            121.6099,23.98663,0
            121.61021,23.98602,0
            121.61036,23.98566,0
            121.61052,23.98507,0
            121.61052,23.98489,0
            121.61019,23.98469,0
            121.60979,23.98441,0
            121.6095,23.98419,0
            121.6094,23.98413,0
            121.60835,23.98338,0
            121.60809,23.98323,0
            121.60787,23.98305,0
            121.60643,23.98208,0
            121.60614,23.9819,0
            121.60512,23.98121,0
            121.60507,23.98117,0
            121.60447,23.98076,0
            121.60397,23.98046,0
            121.60362,23.98021,0
            121.60274,23.97964,0
            121.60233,23.97941,0
            121.60188,23.97912,0
            121.60163,23.97893,0
            121.60141,23.97878,0
            121.60104,23.97856,0
            121.60029,23.97807,0
            121.59983,23.97773,0
            121.59946,23.97751,0
            121.59917,23.9773,0
            121.59882,23.97709,0
            121.59853,23.97688,0
            121.5984,23.97681,0
            121.59806,23.97658,0
            121.59696,23.97564,0
            121.59647,23.97519,0
            121.59621,23.97492,0
            121.59625,23.97481,0
            121.5943,23.97464,0
            121.59659,23.97215,0
          </coordinates>
        </LineString>
      </Placemark>
      <Placemark>
        <name>花蓮縣新城鄉新城村新興一路台鐵新城（太魯閣）站</name>
        <styleUrl>#icon-1899-DB4436-nodesc</styleUrl>
        <Point>
          <coordinates>
            121.6410011,24.1275817,0
          </coordinates>
        </Point>
      </Placemark>
      <Placemark>
        <name>花蓮縣秀林鄉富世村富世太魯閣遊客中心</name>
        <styleUrl>#icon-1899-DB4436-nodesc</styleUrl>
        <Point>
          <coordinates>
            121.622283,24.1581844,0
          </coordinates>
        </Point>
      </Placemark>
      <Placemark>
        <name>971台灣花蓮縣新城鄉新城村中正路21號</name>
        <styleUrl>#icon-1899-DB4436-nodesc</styleUrl>
        <Point>
          <coordinates>
            121.6483578,24.1245215,0
          </coordinates>
        </Point>
      </Placemark>
      <Placemark>
        <name>971台灣花蓮縣新城鄉康樂村海岸路25號</name>
        <styleUrl>#icon-1899-DB4436-nodesc</styleUrl>
        <Point>
          <coordinates>
            121.615334,24.0967764,0
          </coordinates>
        </Point>
      </Placemark>
      <Placemark>
        <name>花蓮縣新城鄉滨海路花蓮濱海自行車道</name>
        <styleUrl>#icon-1899-DB4436-nodesc</styleUrl>
        <Point>
          <coordinates>
            121.622492,24.0416877,0
          </coordinates>
        </Point>
      </Placemark>
      <Placemark>
        <name>970台灣花蓮縣花蓮市主權里中原路511號</name>
        <styleUrl>#icon-1899-DB4436-nodesc</styleUrl>
        <Point>
          <coordinates>
            121.5965936,23.9721482,0
          </coordinates>
        </Point>
      </Placemark>
    </Folder>
  </Document>
</kml>
