<?xml version="1.0" encoding="UTF-8"?>
<kml xmlns="http://www.opengis.net/kml/2.2">
  <Document>
    <name>2026環島Day1</name>
    <description>台中→苗栗</description>
    <Style id="icon-1899-DB4436-nodesc-normal">
      <IconStyle>
        <color>ff3644db</color>
        <scale>1</scale>
        <Icon>
          <href>https://www.gstatic.com/mapspro/images/stock/503-wht-blank_maps.png</href>
        </Icon>
        <hotSpot x="32" xunits="pixels" y="64" yunits="insetPixels"/>
      </IconStyle>
      <LabelStyle>
        <scale>0</scale>
      </LabelStyle>
      <BalloonStyle>
        <text><![CDATA[<h3>$[name]</h3>]]></text>
      </BalloonStyle>
    </Style>
    <Style id="icon-1899-DB4436-nodesc-highlight">
      <IconStyle>
        <color>ff3644db</color>
        <scale>1</scale>
        <Icon>
          <href>https://www.gstatic.com/mapspro/images/stock/503-wht-blank_maps.png</href>
        </Icon>
        <hotSpot x="32" xunits="pixels" y="64" yunits="insetPixels"/>
      </IconStyle>
      <LabelStyle>
        <scale>1</scale>
      </LabelStyle>
      <BalloonStyle>
        <text><![CDATA[<h3>$[name]</h3>]]></text>
      </BalloonStyle>
    </Style>
    <StyleMap id="icon-1899-DB4436-nodesc">
      <Pair>
        <key>normal</key>
        <styleUrl>#icon-1899-DB4436-nodesc-normal</styleUrl>
      </Pair>
      <Pair>
        <key>highlight</key>
        <styleUrl>#icon-1899-DB4436-nodesc-highlight</styleUrl>
      </Pair>
    </StyleMap>
    <Style id="line-1267FF-5000-nodesc-normal">
      <LineStyle>
        <color>ffff6712</color>
        <width>5</width>
      </LineStyle>
      <BalloonStyle>
        <text><![CDATA[<h3>$[name]</h3>]]></text>
      </BalloonStyle>
    </Style>
    <Style id="line-1267FF-5000-nodesc-highlight">
      <LineStyle>
        <color>ffff6712</color>
        <width>7.5</width>
      </LineStyle>
      <BalloonStyle>
        <text><![CDATA[<h3>$[name]</h3>]]></text>
      </BalloonStyle>
    </Style>
    <StyleMap id="line-1267FF-5000-nodesc">
      <Pair>
        <key>normal</key>
        <styleUrl>#line-1267FF-5000-nodesc-normal</styleUrl>
      </Pair>
      <Pair>
        <key>highlight</key>
        <styleUrl>#line-1267FF-5000-nodesc-highlight</styleUrl>
      </Pair>
    </StyleMap>
    <Folder>
      <name>國立臺灣體育運動大學→后里7-ELEVEN 福豐門市</name>
      <Placemark>
        <name>國立臺灣體育運動大學→后里7-ELEVEN 福豐門市</name>
        <styleUrl>#line-1267FF-5000-nodesc</styleUrl>
        <LineString>
          <tessellate>1</tessellate>
          <coordinates>
            120.68748,24.14875,0
            120.68749,24.14876,0
            120.68749,24.14886,0
            120.68713,24.14885,0
            120.68754,24.14969,0
            120.68811,24.151,0
            120.68825,24.15135,0
            120.68858,24.1521,0
            120.68866,24.15234,0
            120.6887,24.15243,0
            120.6891,24.15348,0
            120.68911,24.15352,0
            120.68916,24.15363,0
            120.68918,24.15369,0
            120.69003,24.15576,0
            120.69029,24.15647,0
            120.69092,24.15794,0
            120.69106,24.15832,0
            120.69119,24.15861,0
            120.69133,24.15896,0
            120.69141,24.15911,0
            120.69183,24.16015,0
            120.69193,24.16036,0
            120.69258,24.16189,0
            120.69279,24.16234,0
            120.69295,24.16261,0
            120.69317,24.16302,0
            120.69406,24.16454,0
            120.69426,24.16491,0
            120.69467,24.16561,0
            120.69612,24.16785,0
            120.69693,24.16905,0
            120.69766,24.17023,0
            120.69775,24.17035,0
            120.69818,24.17105,0
            120.69823,24.17117,0
            120.69823,24.17118,0
            120.69827,24.17126,0
            120.69836,24.17152,0
            120.69838,24.17177,0
            120.69833,24.17295,0
            120.69836,24.17356,0
            120.6984,24.17376,0
            120.69852,24.17406,0
            120.69931,24.17587,0
            120.69995,24.17719,0
            120.7001,24.17753,0
            120.70016,24.17764,0
            120.70055,24.17848,0
            120.70095,24.17949,0
            120.70139,24.18047,0
            120.70158,24.18099,0
            120.70178,24.18144,0
            120.70183,24.18157,0
            120.7019,24.18179,0
            120.70194,24.18196,0
            120.70195,24.18204,0
            120.70197,24.18205,0
            120.70204,24.18206,0
            120.70206,24.18221,0
            120.70217,24.18233,0
            120.70249,24.18464,0
            120.7025,24.18465,0
            120.70261,24.18571,0
            120.70264,24.1862,0
            120.70262,24.18637,0
            120.70262,24.18647,0
            120.70263,24.18652,0
            120.70268,24.18661,0
            120.70271,24.18714,0
            120.70275,24.18744,0
            120.70282,24.18775,0
            120.70285,24.18818,0
            120.70298,24.18904,0
            120.70301,24.18935,0
            120.70304,24.18955,0
            120.70308,24.18967,0
            120.70322,24.19076,0
            120.7032,24.19083,0
            120.70348,24.19214,0
            120.70373,24.19387,0
            120.70384,24.19442,0
            120.70395,24.1952,0
            120.70396,24.19524,0
            120.70398,24.19547,0
            120.70405,24.19598,0
            120.70407,24.19633,0
            120.7041,24.1965,0
            120.70422,24.19748,0
            120.70437,24.19847,0
            120.70437,24.19851,0
            120.7044,24.19865,0
            120.70448,24.19919,0
            120.70448,24.19922,0
            120.70455,24.19969,0
            120.70461,24.20044,0
            120.70465,24.20072,0
            120.7047,24.20094,0
            120.70489,24.20242,0
            120.70492,24.20257,0
            120.70501,24.20335,0
            120.70503,24.20347,0
            120.70528,24.20606,0
            120.70529,24.20624,0
            120.70538,24.20715,0
            120.70539,24.20718,0
            120.70563,24.20989,0
            120.70584,24.21154,0
            120.70643,24.21849,0
            120.70643,24.21856,0
            120.70658,24.22028,0
            120.70689,24.22151,0
            120.70691,24.22157,0
            120.70729,24.22304,0
            120.70738,24.22351,0
            120.7077,24.22466,0
            120.70774,24.22484,0
            120.70785,24.22521,0
            120.70826,24.22694,0
            120.70825,24.22695,0
            120.70844,24.2276,0
            120.70846,24.2277,0
            120.70847,24.22781,0
            120.70868,24.22866,0
            120.7087,24.2287,0
            120.70881,24.22919,0
            120.70903,24.23001,0
            120.70913,24.23033,0
            120.70924,24.23083,0
            120.70934,24.23122,0
            120.70947,24.23163,0
            120.70995,24.23288,0
            120.71001,24.23301,0
            120.7103,24.2338,0
            120.7106,24.23453,0
            120.7106,24.23454,0
            120.71067,24.2347,0
            120.7111,24.23582,0
            120.71115,24.23593,0
            120.71125,24.23619,0
            120.71126,24.23623,0
            120.7113,24.2363,0
            120.71133,24.2364,0
            120.7116,24.23705,0
            120.71163,24.23715,0
            120.71186,24.23773,0
            120.71186,24.23775,0
            120.71192,24.2379,0
            120.71193,24.23791,0
            120.71232,24.23893,0
            120.7124,24.23907,0
            120.7126,24.23959,0
            120.71304,24.2406,0
            120.71353,24.24153,0
            120.71362,24.24167,0
            120.71362,24.24168,0
            120.71363,24.24169,0
            120.71372,24.24184,0
            120.71379,24.24198,0
            120.71412,24.24238,0
            120.71571,24.24411,0
            120.71593,24.24437,0
            120.71673,24.24523,0
            120.71719,24.24576,0
            120.71742,24.24597,0
            120.71739,24.24603,0
            120.71737,24.24606,0
            120.71924,24.24802,0
            120.72052,24.24929,0
            120.72111,24.25011,0
            120.72121,24.25027,0
            120.72153,24.25072,0
            120.72177,24.25109,0
            120.72219,24.25183,0
            120.72229,24.25198,0
            120.72283,24.25292,0
            120.72285,24.25294,0
            120.72342,24.25388,0
            120.72351,24.25406,0
            120.72361,24.25423,0
            120.72369,24.2544,0
            120.72434,24.25554,0
            120.72393,24.25574,0
            120.72415,24.25603,0
            120.72432,24.2562,0
            120.7245,24.2564,0
            120.72482,24.25692,0
            120.72486,24.25697,0
            120.72501,24.25708,0
            120.72592,24.25819,0
            120.7263,24.25848,0
            120.72641,24.25858,0
            120.72684,24.25892,0
            120.72682,24.25898,0
            120.72734,24.25935,0
            120.72741,24.25939,0
            120.73031,24.26161,0
            120.7309,24.26214,0
            120.73215,24.2631,0
            120.73226,24.2632,0
            120.73348,24.26405,0
            120.73443,24.26477,0
            120.73449,24.2648,0
            120.73455,24.26487,0
            120.73471,24.26502,0
            120.73473,24.26505,0
            120.73484,24.26516,0
            120.73496,24.2653,0
            120.73511,24.2655,0
            120.73559,24.26621,0
            120.73585,24.26667,0
            120.73602,24.26705,0
            120.73607,24.26713,0
            120.73591,24.26719,0
            120.73561,24.26728,0
            120.73554,24.26729,0
            120.73547,24.26731,0
            120.73543,24.26731,0
            120.73523,24.26734,0
            120.73513,24.26737,0
            120.73508,24.2674,0
            120.73442,24.26793,0
            120.7344,24.26794,0
            120.73437,24.26797,0
            120.73433,24.26799,0
            120.73418,24.26809,0
            120.73404,24.2682,0
            120.73398,24.26826,0
            120.73385,24.26844,0
            120.73374,24.26856,0
            120.73404,24.26865,0
            120.73437,24.26877,0
            120.73442,24.26878,0
            120.73448,24.2688,0
            120.73465,24.26884,0
            120.73481,24.26886,0
            120.73491,24.26886,0
            120.73503,24.26884,0
            120.73604,24.26853,0
            120.73613,24.26851,0
            120.73624,24.2685,0
            120.73652,24.2685,0
            120.73666,24.26849,0
            120.73679,24.26849,0
            120.73682,24.2685,0
            120.73686,24.26852,0
            120.73691,24.26857,0
            120.73704,24.26873,0
            120.73706,24.26878,0
            120.73723,24.2691,0
            120.73737,24.26943,0
            120.73751,24.26982,0
            120.73771,24.27048,0
            120.73784,24.27107,0
            120.73795,24.2726,0
            120.73793,24.27298,0
            120.73793,24.2733,0
            120.73806,24.27337,0
            120.73866,24.2736,0
            120.73899,24.27371,0
            120.73914,24.27375,0
            120.73975,24.27399,0
            120.74016,24.27409,0
            120.74045,24.27411,0
            120.74117,24.27421,0
            120.74184,24.27439,0
            120.74196,24.27443,0
            120.74203,24.27444,0
            120.74275,24.27443,0
            120.74318,24.27439,0
            120.74325,24.27439,0
            120.7433,24.2744,0
            120.74333,24.27441,0
            120.74339,24.2744,0
            120.74345,24.2744,0
            120.74354,24.27442,0
            120.74361,24.27445,0
            120.74389,24.27454,0
            120.74397,24.27456,0
            120.74412,24.27463,0
            120.74413,24.27464,0
            120.74415,24.27465,0
            120.74415,24.27466,0
            120.74416,24.27469,0
            120.7442,24.2747,0
            120.74426,24.27465,0
            120.74451,24.27483,0
            120.7447,24.27501,0
            120.74521,24.27558,0
            120.74537,24.2758,0
            120.74547,24.27596,0
            120.74561,24.27622,0
            120.74579,24.2766,0
            120.74586,24.27683,0
            120.74587,24.27688,0
            120.7459,24.27697,0
            120.74597,24.27731,0
            120.74607,24.27802,0
            120.74607,24.2782,0
            120.74608,24.27832,0
            120.74571,24.28092,0
            120.74555,24.28247,0
            120.74377,24.28482,0
            120.74304,24.2857,0
            120.74293,24.28585,0
            120.74263,24.28621,0
            120.73809,24.28923,0
            120.73804,24.28927,0
            120.73754,24.28944,0
            120.73701,24.2895,0
            120.7362,24.28952,0
            120.73543,24.28995,0
            120.73539,24.28996,0
            120.73534,24.28996,0
            120.73524,24.28994,0
            120.73514,24.28993,0
            120.73505,24.28993,0
            120.73499,24.28995,0
            120.73496,24.28997,0
            120.73493,24.28998,0
            120.73486,24.29002,0
            120.73482,24.29005,0
            120.7348,24.29006,0
            120.73475,24.2901,0
            120.73465,24.29022,0
            120.73462,24.29024,0
            120.7346,24.29027,0
            120.73458,24.29029,0
            120.73455,24.29031,0
            120.73451,24.29033,0
            120.7345,24.29034,0
            120.73445,24.29036,0
            120.73443,24.29036,0
            120.73438,24.29039,0
            120.73433,24.2904,0
            120.73433,24.29041,0
            120.73411,24.29048,0
            120.73387,24.29058,0
            120.73363,24.2907,0
            120.73348,24.2908,0
            120.73346,24.29082,0
            120.73339,24.29087,0
            120.73329,24.29093,0
            120.73327,24.29093,0
            120.73324,24.29094,0
            120.73315,24.29094,0
            120.73313,24.29093,0
            120.73308,24.29093,0
            120.73305,24.29092,0
            120.73292,24.29092,0
            120.73288,24.29093,0
            120.73284,24.29093,0
            120.73278,24.29095,0
            120.73276,24.29095,0
            120.73276,24.29096,0
            120.73274,24.29096,0
            120.73274,24.29097,0
            120.73273,24.29098,0
            120.73273,24.29102,0
            120.73272,24.29108,0
            120.73272,24.29136,0
            120.73271,24.29151,0
            120.73269,24.29257,0
            120.73264,24.29316,0
            120.73258,24.29366,0
            120.73249,24.29408,0
            120.73247,24.29421,0
            120.73247,24.29426,0
            120.73248,24.29433,0
            120.73249,24.29437,0
            120.73249,24.29446,0
            120.73246,24.29466,0
            120.73246,24.29472,0
            120.73245,24.29481,0
            120.73245,24.2949,0
            120.7324,24.29566,0
            120.7324,24.29579,0
            120.73241,24.29584,0
            120.73241,24.29593,0
            120.73242,24.29602,0
            120.73241,24.29607,0
            120.73241,24.29614,0
            120.73238,24.29628,0
            120.73237,24.2963,0
            120.73237,24.29637,0
            120.73238,24.29639,0
            120.73238,24.29641,0
            120.73239,24.29643,0
            120.73242,24.29647,0
            120.73244,24.29649,0
            120.73246,24.29652,0
            120.73246,24.29654,0
            120.73247,24.29654,0
            120.73247,24.29656,0
            120.73249,24.29663,0
            120.73249,24.29666,0
            120.73248,24.29671,0
            120.73248,24.29676,0
            120.73246,24.29687,0
            120.73246,24.29707,0
            120.73247,24.29713,0
            120.73247,24.29727,0
            120.73245,24.29761,0
            120.73244,24.29767,0
            120.7324,24.29815,0
            120.7324,24.29825,0
            120.73238,24.29852,0
            120.73223,24.29851,0
            120.73222,24.29862,0
            120.73222,24.29869,0
            120.73213,24.3001,0
            120.73213,24.30066,0
            120.73215,24.3008,0
            120.73216,24.30094,0
            120.73217,24.30099,0
            120.73218,24.30101,0
            120.73219,24.30108,0
            120.73221,24.30114,0
            120.73247,24.3016,0
            120.73254,24.30168,0
            120.73287,24.302,0
            120.73288,24.302,0
            120.73313,24.30222,0
            120.73342,24.30244,0
            120.73371,24.30269,0
            120.73397,24.30294,0
            120.73447,24.30336,0
            120.73474,24.30367,0
            120.73499,24.30411,0
            120.73504,24.30424,0
            120.73508,24.30442,0
            120.73508,24.30444,0
            120.73511,24.30467,0
            120.73512,24.30606,0
            120.73513,24.30611,0
            120.73514,24.30636,0
            120.73518,24.30665,0
            120.73526,24.307,0
            120.73532,24.30717,0
            120.73532,24.30718,0
            120.73551,24.30769,0
            120.73574,24.30809,0
            120.73616,24.30875,0
            120.73636,24.30909,0
            120.73644,24.30927,0
            120.73647,24.30932,0
            120.73662,24.30965,0
            120.7367,24.30988,0
            120.73679,24.3102,0
            120.73709,24.31144,0
            120.7372,24.31182,0
            120.7373,24.31204,0
            120.73742,24.31224,0
            120.73753,24.31238,0
            120.73753,24.31239,0
            120.73763,24.31249,0
            120.73788,24.31268,0
            120.73826,24.3129,0
            120.73859,24.31305,0
            120.73925,24.31329,0
            120.73949,24.31341,0
            120.73963,24.31351,0
            120.73979,24.31365,0
            120.7399,24.31379,0
            120.74008,24.31399,0
            120.74013,24.31407,0
            120.74018,24.31417,0
            120.74022,24.31427,0
            120.74027,24.31444,0
            120.74029,24.31456,0
            120.7403,24.3147,0
            120.7403,24.31483,0
            120.74027,24.31502,0
            120.74017,24.31532,0
            120.74011,24.31544,0
            120.73998,24.31565,0
            120.73988,24.31578,0
            120.73955,24.31608,0
            120.73907,24.31647,0
            120.73851,24.31698,0
            120.73845,24.31705,0
            120.73722,24.31832,0
            120.73697,24.31851,0
            120.73671,24.31865,0
            120.73616,24.31887,0
            120.73254,24.31975,0
            120.72737,24.3211,0
            120.72641,24.32126,0
            120.72522,24.32129,0
            120.72511,24.32144,0
            120.72505,24.32148,0
            120.72485,24.32182,0
            120.72467,24.32205,0
            120.72434,24.32252,0
            120.72423,24.32266,0
            120.72383,24.32323,0
            120.72372,24.32345,0
            120.72367,24.32361,0
            120.72369,24.32367,0
            120.72366,24.32373,0
            120.72357,24.32427,0
            120.72356,24.32428,0
            120.72354,24.32526,0
            120.72356,24.3254,0
            120.72361,24.32553,0
            120.72376,24.32577,0
            120.72379,24.3258,0
            120.72386,24.32585,0
            120.72396,24.32591,0
            120.72408,24.32595,0
            120.72419,24.32597,0
            120.72432,24.32598,0
            120.72461,24.32594,0
            120.72474,24.3259,0
            120.72479,24.32589,0
            120.72644,24.32529,0
            120.72649,24.32528,0
            120.72652,24.32527,0
            120.7266,24.32526,0
            120.72688,24.32526,0
            120.72717,24.3253,0
            120.72738,24.32535,0
            120.72786,24.32551,0
            120.7279,24.32553,0
            120.72798,24.32556,0
            120.72804,24.32559,0
            120.72829,24.32579,0
            120.7286,24.32575,0
          </coordinates>
        </LineString>
      </Placemark>
      <Placemark>
        <name>臺中市北區樂英里雙十路一段國立台灣體育運動大學</name>
        <styleUrl>#icon-1899-DB4436-nodesc</styleUrl>
        <Point>
          <coordinates>
            120.6874843,24.1487467,0
          </coordinates>
        </Point>
      </Placemark>
      <Placemark>
        <name>臺中市后里區福美路7-ELEVEN 福豐門市</name>
        <styleUrl>#icon-1899-DB4436-nodesc</styleUrl>
        <Point>
          <coordinates>
            120.7285988,24.3257514,0
          </coordinates>
        </Point>
      </Placemark>
    </Folder>
    <Folder>
      <name>7-ELEVEN 福豐門市→南勢車站</name>
      <Placemark>
        <name>7-ELEVEN 福豐門市→南勢車站</name>
        <styleUrl>#line-1267FF-5000-nodesc</styleUrl>
        <LineString>
          <tessellate>1</tessellate>
          <coordinates>
            120.7286,24.32575,0
            120.72829,24.32579,0
            120.72829,24.32588,0
            120.72836,24.32597,0
            120.72839,24.32604,0
            120.72844,24.3262,0
            120.72852,24.32654,0
            120.72871,24.32721,0
            120.729,24.32852,0
            120.72937,24.32987,0
            120.72988,24.33195,0
            120.73012,24.3332,0
            120.73108,24.33702,0
            120.73113,24.33729,0
            120.73145,24.33829,0
            120.73154,24.33866,0
            120.73159,24.33895,0
            120.73172,24.3395,0
            120.73179,24.34003,0
            120.7322,24.34172,0
            120.73222,24.34177,0
            120.73264,24.34328,0
            120.73288,24.34398,0
            120.73296,24.34415,0
            120.73313,24.34477,0
            120.73316,24.34493,0
            120.73317,24.34494,0
            120.73412,24.34829,0
            120.735,24.35159,0
            120.73501,24.35161,0
            120.73527,24.35258,0
            120.73529,24.35262,0
            120.73534,24.35278,0
            120.73545,24.35291,0
            120.73571,24.35391,0
            120.73577,24.35409,0
            120.73578,24.35416,0
            120.73582,24.35433,0
            120.73594,24.35517,0
            120.73597,24.35529,0
            120.736,24.35537,0
            120.73608,24.3555,0
            120.73614,24.35567,0
            120.73621,24.35581,0
            120.7363,24.35604,0
            120.73633,24.35626,0
            120.73633,24.35633,0
            120.73632,24.35641,0
            120.73633,24.35659,0
            120.73636,24.35677,0
            120.73642,24.35749,0
            120.73642,24.35756,0
            120.73646,24.35759,0
            120.73635,24.3577,0
            120.73622,24.35779,0
            120.73596,24.35793,0
            120.73493,24.35813,0
            120.73479,24.35814,0
            120.73455,24.35814,0
            120.73416,24.35808,0
            120.73358,24.35793,0
            120.73292,24.35768,0
            120.73275,24.35763,0
            120.73273,24.35762,0
            120.73254,24.35757,0
            120.73253,24.35757,0
            120.73188,24.3574,0
            120.73122,24.35726,0
            120.73101,24.35723,0
            120.73096,24.35725,0
            120.73093,24.35725,0
            120.73087,24.35726,0
            120.72786,24.35713,0
            120.72698,24.35715,0
            120.72609,24.35723,0
            120.72534,24.35734,0
            120.72435,24.35755,0
            120.72433,24.35756,0
            120.7237,24.35769,0
            120.72127,24.3583,0
            120.7211,24.3583,0
            120.72101,24.35833,0
            120.721,24.35833,0
            120.72064,24.35844,0
            120.72064,24.35845,0
            120.71676,24.35978,0
            120.7157,24.3601,0
            120.71396,24.3607,0
            120.71373,24.36075,0
            120.71363,24.36076,0
            120.71349,24.36076,0
            120.71199,24.36063,0
            120.71086,24.36057,0
            120.71005,24.36056,0
            120.70927,24.36074,0
            120.70866,24.36096,0
            120.70645,24.36224,0
            120.70641,24.36227,0
            120.70291,24.36432,0
            120.70228,24.36472,0
            120.70177,24.36509,0
            120.70164,24.3652,0
            120.7016,24.36522,0
            120.70137,24.36541,0
            120.69978,24.36695,0
            120.68762,24.3783,0
            120.68745,24.37844,0
            120.68738,24.37851,0
            120.68734,24.37854,0
            120.68581,24.37998,0
            120.68467,24.38097,0
            120.68317,24.38249,0
            120.68159,24.38388,0
            120.67978,24.38561,0
            120.67943,24.38592,0
            120.67933,24.38604,0
            120.67858,24.38678,0
            120.67848,24.3869,0
            120.6784,24.38698,0
            120.67809,24.38734,0
            120.67355,24.3922,0
            120.6732,24.39255,0
            120.67127,24.39462,0
            120.67121,24.39475,0
            120.67107,24.39492,0
            120.67044,24.3956,0
            120.6689,24.39712,0
            120.66832,24.39773,0
            120.6683,24.39776,0
            120.66799,24.39808,0
            120.66784,24.39814,0
            120.66486,24.40125,0
            120.66482,24.40131,0
            120.66451,24.40169,0
            120.66414,24.40219,0
            120.66128,24.40688,0
            120.66108,24.40728,0
            120.65734,24.41401,0
            120.65727,24.41411,0
            120.65727,24.41412,0
            120.65668,24.4152,0
            120.65655,24.41548,0
            120.65655,24.4155,0
            120.65621,24.41633,0
            120.65527,24.4189,0
            120.65528,24.41899,0
            120.65508,24.41946,0
            120.65492,24.41975,0
            120.65488,24.41981,0
            120.65486,24.41985,0
            120.65476,24.41999,0
            120.65443,24.4204,0
            120.65416,24.42069,0
            120.65337,24.42133,0
            120.65327,24.42139,0
            120.65315,24.42149,0
            120.6529,24.42167,0
            120.65267,24.42181,0
            120.65219,24.4222,0
            120.65207,24.42225,0
            120.65017,24.42371,0
            120.64929,24.42435,0
            120.64416,24.42828,0
            120.64427,24.42867,0
            120.64444,24.42907,0
            120.64457,24.42932,0
            120.64583,24.43143,0
            120.646,24.43177,0
            120.64602,24.43183,0
            120.64605,24.43189,0
            120.64606,24.43193,0
            120.64609,24.432,0
            120.64609,24.43201,0
            120.64589,24.4326,0
            120.64559,24.43332,0
            120.64556,24.43343,0
            120.6452,24.43429,0
            120.64484,24.43504,0
            120.64482,24.4351,0
            120.6448,24.43519,0
            120.64478,24.43534,0
            120.64478,24.43539,0
            120.64479,24.43543,0
            120.64479,24.43547,0
            120.64496,24.43597,0
            120.64504,24.43612,0
            120.64712,24.44087,0
            120.64764,24.44217,0
            120.64875,24.44457,0
            120.64992,24.44742,0
            120.65028,24.44815,0
            120.65043,24.44838,0
            120.65058,24.44856,0
            120.65076,24.44872,0
            120.65107,24.44893,0
            120.6513,24.44906,0
            120.65158,24.44917,0
            120.65317,24.44967,0
            120.65318,24.44967,0
            120.65562,24.4504,0
            120.65696,24.45084,0
            120.6571,24.45091,0
            120.65717,24.45096,0
            120.65728,24.45108,0
            120.6574,24.45126,0
            120.65872,24.45393,0
            120.65884,24.45412,0
            120.65948,24.45494,0
            120.6595,24.45498,0
            120.66039,24.45623,0
            120.66042,24.45626,0
            120.66042,24.45628,0
            120.66043,24.4563,0
            120.66043,24.45634,0
            120.66048,24.4564,0
            120.66063,24.45655,0
            120.66068,24.45661,0
            120.6614,24.45722,0
            120.66154,24.45736,0
            120.66174,24.45759,0
            120.66189,24.45781,0
            120.66204,24.45791,0
            120.6621,24.45798,0
            120.66243,24.45846,0
            120.66263,24.45872,0
            120.66267,24.4588,0
            120.66271,24.45886,0
            120.66282,24.45915,0
            120.66288,24.45936,0
            120.66313,24.46064,0
            120.66337,24.46215,0
            120.66367,24.46374,0
            120.66372,24.46394,0
            120.66379,24.46434,0
            120.66391,24.46486,0
            120.6641,24.46546,0
            120.66419,24.46568,0
            120.66443,24.46618,0
            120.66444,24.46622,0
            120.66457,24.46641,0
            120.66471,24.46665,0
            120.66476,24.46672,0
            120.66573,24.46832,0
            120.666,24.46895,0
            120.66601,24.46896,0
            120.66603,24.46901,0
            120.66627,24.46946,0
            120.66656,24.46992,0
            120.66686,24.47024,0
            120.66688,24.47027,0
            120.66693,24.47031,0
            120.66732,24.47069,0
            120.66781,24.47109,0
            120.66856,24.47162,0
            120.66909,24.47203,0
            120.66984,24.47252,0
            120.67184,24.4739,0
            120.67228,24.47436,0
            120.67266,24.47489,0
            120.67327,24.47588,0
            120.67437,24.47788,0
            120.6745,24.47808,0
            120.67464,24.47826,0
            120.67555,24.47925,0
            120.67553,24.47943,0
            120.67554,24.47954,0
            120.67562,24.47986,0
            120.67572,24.48004,0
            120.67573,24.48014,0
            120.67573,24.48029,0
            120.67574,24.48035,0
            120.67573,24.48049,0
            120.67574,24.48074,0
            120.67571,24.48371,0
            120.67572,24.48377,0
            120.67572,24.48382,0
            120.67573,24.48383,0
            120.67573,24.48387,0
            120.67576,24.48401,0
            120.67578,24.48407,0
            120.67593,24.48441,0
            120.67596,24.48445,0
            120.67598,24.48449,0
            120.67609,24.48464,0
            120.6761,24.48467,0
            120.67634,24.48498,0
            120.67649,24.48514,0
            120.6766,24.48523,0
            120.67664,24.48528,0
            120.67777,24.48605,0
            120.67787,24.48613,0
            120.67801,24.48628,0
            120.67823,24.48658,0
            120.67832,24.48674,0
            120.67837,24.48688,0
            120.67838,24.48693,0
            120.67837,24.48721,0
            120.67819,24.48841,0
            120.67815,24.48881,0
            120.67818,24.4891,0
            120.67819,24.48913,0
            120.67819,24.48918,0
            120.67886,24.49106,0
            120.67874,24.49116,0
            120.67869,24.49119,0
            120.67864,24.49134,0
            120.67861,24.49137,0
            120.6786,24.49137,0
            120.67858,24.49138,0
            120.67857,24.49138,0
            120.67855,24.49139,0
            120.67853,24.49138,0
            120.6785,24.49135,0
            120.67849,24.49135,0
            120.67848,24.49134,0
            120.67847,24.49132,0
            120.67847,24.49131,0
            120.67846,24.4913,0
            120.67846,24.49127,0
            120.67847,24.49126,0
            120.67847,24.49125,0
            120.67849,24.49124,0
            120.67851,24.49122,0
            120.67863,24.49115,0
            120.67869,24.49119,0
            120.67874,24.49116,0
            120.67931,24.49072,0
            120.67943,24.49064,0
            120.67955,24.49058,0
            120.67963,24.49053,0
            120.67981,24.49046,0
            120.68004,24.49039,0
            120.68099,24.4902,0
            120.68163,24.49011,0
            120.68198,24.49021,0
            120.68222,24.49031,0
            120.68301,24.49052,0
            120.68379,24.49083,0
            120.68457,24.49119,0
            120.68478,24.49127,0
            120.6851,24.49144,0
            120.6854,24.49167,0
            120.68741,24.49352,0
            120.68895,24.49472,0
            120.68943,24.49507,0
            120.69043,24.49567,0
            120.69058,24.49573,0
            120.69071,24.49575,0
            120.69087,24.49575,0
            120.69098,24.49574,0
            120.69125,24.49577,0
            120.69136,24.49581,0
            120.69143,24.49585,0
            120.69148,24.49589,0
            120.69161,24.49602,0
            120.69173,24.49624,0
            120.6919,24.4967,0
            120.69204,24.49685,0
            120.69215,24.49694,0
            120.69246,24.49714,0
            120.69257,24.49718,0
            120.69277,24.49722,0
            120.69289,24.49722,0
            120.69328,24.49719,0
            120.69397,24.49708,0
            120.69512,24.49683,0
            120.69587,24.49671,0
            120.69665,24.49663,0
            120.69757,24.49658,0
            120.69884,24.49646,0
            120.69904,24.49646,0
            120.70076,24.4963,0
            120.70176,24.49625,0
            120.70214,24.49629,0
            120.70235,24.49634,0
            120.70295,24.49655,0
            120.7035,24.49678,0
            120.70367,24.49676,0
            120.70394,24.49684,0
            120.70474,24.497,0
            120.70877,24.49746,0
            120.70899,24.4975,0
            120.70915,24.49755,0
            120.70924,24.49759,0
            120.70932,24.49764,0
            120.70936,24.49768,0
            120.70979,24.49821,0
            120.70987,24.49834,0
            120.71002,24.49864,0
            120.71009,24.49875,0
            120.71039,24.49938,0
            120.71072,24.49986,0
            120.71079,24.49994,0
            120.71083,24.5,0
            120.71084,24.50003,0
            120.71086,24.50006,0
            120.7109,24.50017,0
            120.71091,24.50023,0
            120.71091,24.50029,0
            120.71092,24.50033,0
            120.71092,24.50045,0
            120.71091,24.50052,0
            120.71091,24.5006,0
            120.71088,24.50083,0
            120.71081,24.50117,0
            120.7108,24.50127,0
            120.7108,24.50139,0
            120.71081,24.50144,0
            120.71088,24.5016,0
            120.7109,24.50163,0
            120.71103,24.50175,0
            120.71145,24.50199,0
            120.71173,24.50219,0
            120.7126,24.50303,0
            120.71284,24.50321,0
            120.71287,24.50325,0
            120.71291,24.50329,0
            120.7131,24.50377,0
            120.71317,24.50388,0
            120.71328,24.50402,0
            120.71348,24.50419,0
            120.71476,24.50506,0
            120.71583,24.50561,0
            120.71606,24.50577,0
            120.71608,24.50578,0
            120.7169,24.50648,0
            120.71737,24.50685,0
            120.71747,24.50696,0
            120.71755,24.50708,0
            120.71763,24.50729,0
            120.71784,24.50808,0
            120.71794,24.50827,0
            120.71809,24.50848,0
            120.71831,24.50871,0
            120.71833,24.50874,0
            120.71905,24.50948,0
            120.71919,24.50959,0
            120.71936,24.50969,0
            120.71954,24.50974,0
            120.71962,24.50974,0
            120.71998,24.50969,0
            120.72129,24.50928,0
            120.72147,24.5092,0
            120.72156,24.50915,0
            120.72163,24.5091,0
            120.72169,24.50907,0
            120.72205,24.50883,0
            120.72235,24.50869,0
            120.72267,24.5086,0
            120.72415,24.5083,0
            120.72425,24.50827,0
            120.72434,24.50823,0
            120.72466,24.50802,0
            120.7248,24.50789,0
            120.72495,24.50773,0
            120.72553,24.50719,0
            120.72581,24.50697,0
            120.72678,24.50632,0
            120.72708,24.50614,0
            120.72743,24.50589,0
            120.72849,24.50506,0
            120.72893,24.50477,0
            120.72973,24.50434,0
            120.73022,24.50413,0
            120.73058,24.50402,0
            120.73071,24.50397,0
            120.73095,24.50385,0
            120.73124,24.50366,0
            120.73191,24.50317,0
            120.73265,24.50257,0
            120.73271,24.50253,0
            120.73281,24.50241,0
            120.73282,24.50241,0
            120.73288,24.50232,0
            120.73304,24.50213,0
            120.73325,24.50185,0
            120.73337,24.50173,0
            120.73351,24.50161,0
            120.73376,24.50146,0
            120.73395,24.50139,0
            120.73437,24.5013,0
            120.73564,24.50113,0
            120.73596,24.50105,0
            120.73636,24.50085,0
            120.73745,24.50018,0
            120.73776,24.50005,0
            120.73794,24.5,0
            120.74152,24.49963,0
            120.74174,24.49962,0
            120.74615,24.49998,0
            120.74634,24.49996,0
            120.74642,24.49994,0
            120.74662,24.49986,0
            120.74673,24.49978,0
            120.74707,24.49948,0
            120.74818,24.49857,0
            120.74901,24.49768,0
            120.74907,24.49763,0
            120.74912,24.4976,0
            120.74925,24.49757,0
            120.74943,24.49757,0
            120.74955,24.49758,0
            120.74965,24.49761,0
            120.74978,24.49768,0
            120.75016,24.49785,0
            120.75041,24.49799,0
            120.75043,24.49799,0
            120.75059,24.49802,0
            120.75064,24.49802,0
            120.75068,24.49804,0
            120.75072,24.49805,0
            120.75093,24.4982,0
            120.75105,24.4983,0
            120.75158,24.49856,0
            120.75161,24.49858,0
            120.75185,24.49868,0
            120.75198,24.49875,0
            120.75207,24.49881,0
            120.75214,24.49887,0
            120.75223,24.49901,0
            120.75226,24.49909,0
            120.75233,24.49947,0
            120.75242,24.49977,0
            120.75252,24.50001,0
            120.7528,24.50035,0
            120.75439,24.5019,0
            120.75455,24.50203,0
            120.75464,24.50208,0
            120.75471,24.50213,0
            120.75478,24.50215,0
            120.75493,24.50217,0
            120.75502,24.50217,0
            120.7551,24.50216,0
            120.75529,24.5021,0
            120.75563,24.5019,0
            120.75663,24.50125,0
            120.75682,24.50102,0
            120.75692,24.50093,0
            120.75734,24.50064,0
            120.75741,24.50058,0
            120.75748,24.50049,0
            120.75753,24.5004,0
            120.7577,24.49968,0
            120.75772,24.4995,0
            120.75772,24.49929,0
            120.7577,24.4992,0
            120.7577,24.49918,0
            120.75761,24.49878,0
            120.75757,24.49869,0
            120.75755,24.49866,0
            120.75755,24.49865,0
            120.75749,24.49856,0
            120.75745,24.49853,0
            120.75742,24.4985,0
            120.75739,24.49848,0
            120.75735,24.49847,0
            120.75709,24.49835,0
            120.757,24.4983,0
            120.75628,24.49806,0
            120.75617,24.49801,0
            120.75616,24.498,0
            120.75611,24.49797,0
            120.75606,24.4979,0
            120.75601,24.49775,0
            120.75596,24.49753,0
            120.75596,24.49748,0
            120.75598,24.49734,0
            120.756,24.49728,0
            120.75617,24.49704,0
            120.75634,24.49689,0
            120.75651,24.49679,0
            120.75667,24.49675,0
            120.75675,24.49674,0
            120.7571,24.49673,0
            120.75777,24.49678,0
            120.75897,24.49682,0
            120.75938,24.49689,0
            120.75962,24.49696,0
            120.76094,24.49741,0
            120.76095,24.49742,0
            120.76152,24.49765,0
            120.76166,24.49772,0
            120.76189,24.49787,0
            120.76294,24.49866,0
            120.76334,24.49911,0
            120.76359,24.49931,0
            120.76375,24.49942,0
            120.76378,24.49946,0
            120.76382,24.49949,0
            120.76388,24.49958,0
            120.76392,24.49966,0
            120.76403,24.49999,0
            120.76408,24.50007,0
            120.7642,24.5002,0
            120.76437,24.50033,0
            120.7648,24.50062,0
            120.76507,24.50082,0
            120.76701,24.50214,0
            120.76746,24.50248,0
            120.76761,24.50261,0
            120.76825,24.50342,0
            120.76908,24.50401,0
            120.7692,24.50408,0
            120.76924,24.50411,0
            120.76958,24.50425,0
            120.7707,24.50447,0
            120.77222,24.50483,0
            120.77232,24.50484,0
            120.77247,24.50483,0
            120.77257,24.5048,0
            120.77262,24.50477,0
            120.7727,24.50469,0
            120.77275,24.50462,0
            120.77279,24.50453,0
            120.77281,24.50445,0
            120.77284,24.5042,0
            120.7729,24.50394,0
            120.77345,24.50296,0
            120.77366,24.50251,0
            120.77383,24.50203,0
            120.77388,24.50184,0
            120.77399,24.50165,0
            120.77408,24.50153,0
            120.77416,24.50146,0
            120.77429,24.50132,0
            120.77443,24.50119,0
            120.77459,24.5014,0
            120.77588,24.5023,0
            120.77598,24.50238,0
            120.77613,24.50246,0
            120.78001,24.50353,0
            120.78003,24.50354,0
            120.78026,24.50361,0
            120.7805,24.50371,0
            120.78074,24.50387,0
            120.78104,24.50416,0
            120.78109,24.50422,0
            120.78116,24.50428,0
            120.78129,24.50434,0
            120.78131,24.50434,0
            120.78137,24.50436,0
            120.78143,24.50436,0
            120.78156,24.50434,0
            120.78174,24.50426,0
            120.78181,24.50422,0
            120.78193,24.50418,0
            120.78202,24.50414,0
            120.78287,24.50395,0
            120.78288,24.50394,0
            120.7832,24.50386,0
            120.78325,24.50384,0
            120.78326,24.50383,0
            120.78334,24.50379,0
            120.78342,24.50376,0
            120.78381,24.50368,0
            120.78384,24.50367,0
            120.78439,24.50359,0
            120.78453,24.50358,0
            120.78419,24.50579,0
            120.78428,24.50609,0
            120.78458,24.50726,0
            120.78485,24.50857,0
            120.78493,24.50889,0
            120.78507,24.50926,0
            120.78518,24.50944,0
            120.78539,24.50968,0
            120.78597,24.51021,0
            120.78598,24.51021,0
            120.78651,24.51072,0
            120.78662,24.51089,0
            120.78668,24.51103,0
            120.7868,24.51139,0
            120.7869,24.51192,0
            120.787,24.51235,0
            120.78703,24.51253,0
            120.78715,24.51306,0
            120.78749,24.51557,0
            120.78777,24.5169,0
            120.78785,24.51719,0
            120.78785,24.5172,0
            120.78793,24.5175,0
            120.7881,24.51793,0
            120.78824,24.51817,0
            120.78824,24.51818,0
            120.78829,24.51827,0
            120.78839,24.51842,0
            120.78861,24.51871,0
            120.78902,24.51917,0
            120.78905,24.51919,0
            120.78973,24.51984,0
            120.78989,24.52006,0
            120.79123,24.52138,0
            120.79146,24.52157,0
            120.79169,24.52172,0
            120.79163,24.52178,0
            120.79156,24.52182,0
            120.7915,24.52184,0
            120.79145,24.52185,0
            120.79136,24.52185,0
            120.79131,24.52183,0
            120.79123,24.52177,0
            120.7912,24.52179,0
            120.79118,24.52181,0
            120.79118,24.52182,0
            120.79117,24.52183,0
            120.79118,24.52185,0
            120.79118,24.52187,0
            120.79119,24.52188,0
            120.7912,24.52188,0
            120.79121,24.52189,0
            120.79136,24.52197,0
            120.79142,24.52203,0
            120.79142,24.52204,0
            120.79145,24.52209,0
            120.79152,24.52218,0
            120.79155,24.52224,0
            120.79162,24.52245,0
          </coordinates>
        </LineString>
      </Placemark>
      <Placemark>
        <name>臺中市后里區福美路7-ELEVEN 福豐門市</name>
        <styleUrl>#icon-1899-DB4436-nodesc</styleUrl>
        <Point>
          <coordinates>
            120.7285988,24.3257514,0
          </coordinates>
        </Point>
      </Placemark>
      <Placemark>
        <name>苗栗縣苑裡鎮苑港里中山路台灣中油 南北通三站</name>
        <styleUrl>#icon-1899-DB4436-nodesc</styleUrl>
        <Point>
          <coordinates>
            120.6576473,24.4517569,0
          </coordinates>
        </Point>
      </Placemark>
      <Placemark>
        <name>苗栗縣通霄鎮通西里中山路通霄車站</name>
        <styleUrl>#icon-1899-DB4436-nodesc</styleUrl>
        <Point>
          <coordinates>
            120.6784928,24.4913518,0
          </coordinates>
        </Point>
      </Placemark>
      <Placemark>
        <name>苗栗縣苗栗市南勢車站</name>
        <styleUrl>#icon-1899-DB4436-nodesc</styleUrl>
        <Point>
          <coordinates>
            120.7916234,24.5224504,0
          </coordinates>
        </Point>
      </Placemark>
    </Folder>
    <Folder>
      <name>南勢車站→苗栗高中</name>
      <Placemark>
        <name>南勢車站→苗栗高中</name>
        <styleUrl>#line-1267FF-5000-nodesc</styleUrl>
        <LineString>
          <tessellate>1</tessellate>
          <coordinates>
            120.79162,24.52245,0
            120.79167,24.52255,0
            120.79185,24.52281,0
            120.79209,24.52314,0
            120.7921,24.52315,0
            120.79213,24.52316,0
            120.79215,24.52316,0
            120.79218,24.52317,0
            120.79221,24.52316,0
            120.79225,24.52315,0
            120.79227,24.52315,0
            120.79229,24.52314,0
            120.79235,24.5231,0
            120.79239,24.52307,0
            120.7924,24.52306,0
            120.79242,24.52305,0
            120.79244,24.52305,0
            120.79245,24.52305,0
            120.79246,24.52305,0
            120.79248,24.52306,0
            120.79251,24.52309,0
            120.79255,24.52313,0
            120.79262,24.52321,0
            120.79261,24.52322,0
            120.79261,24.52323,0
            120.79262,24.52325,0
            120.79263,24.52327,0
            120.79287,24.52362,0
            120.7931,24.52395,0
            120.79311,24.52397,0
            120.79313,24.52402,0
            120.79348,24.52466,0
            120.7931,24.52489,0
            120.79302,24.52494,0
            120.79294,24.52499,0
            120.79286,24.52503,0
            120.79308,24.52533,0
            120.79319,24.52548,0
            120.7933,24.52563,0
            120.79332,24.52566,0
            120.79333,24.52567,0
            120.79341,24.52578,0
            120.7936,24.52603,0
            120.79388,24.52641,0
            120.79417,24.52684,0
            120.79427,24.52698,0
            120.79442,24.52718,0
            120.79468,24.52756,0
            120.79503,24.52804,0
            120.79532,24.52847,0
            120.79543,24.52862,0
            120.79598,24.52935,0
            120.79606,24.52945,0
            120.79624,24.52971,0
            120.79632,24.52983,0
            120.79642,24.52996,0
            120.7967,24.53036,0
            120.79675,24.53043,0
            120.79681,24.53051,0
            120.79702,24.53081,0
            120.7971,24.53093,0
            120.79712,24.53096,0
            120.79723,24.53112,0
            120.79733,24.53127,0
            120.79744,24.53143,0
            120.79779,24.5319,0
            120.79787,24.53203,0
            120.798,24.53225,0
            120.79812,24.53245,0
            120.79837,24.5328,0
            120.79841,24.53285,0
            120.79876,24.53337,0
            120.79895,24.53365,0
            120.79895,24.53366,0
            120.79911,24.53389,0
            120.79926,24.53412,0
            120.79932,24.53422,0
            120.79933,24.53423,0
            120.79935,24.53428,0
            120.79936,24.53429,0
            120.79944,24.53444,0
            120.79946,24.53447,0
            120.79952,24.53461,0
            120.7996,24.53477,0
            120.79967,24.53493,0
            120.79968,24.53494,0
            120.79974,24.53511,0
            120.79977,24.53518,0
            120.79986,24.53545,0
            120.79988,24.53549,0
            120.79997,24.5358,0
            120.80002,24.53597,0
            120.80015,24.53662,0
            120.80015,24.53668,0
            120.80017,24.53686,0
            120.80017,24.53687,0
            120.80018,24.53704,0
            120.80019,24.53712,0
            120.80019,24.5374,0
            120.80019,24.5375,0
            120.80019,24.53758,0
            120.80019,24.53812,0
            120.80019,24.53814,0
            120.80014,24.53859,0
            120.80013,24.53865,0
            120.80009,24.53883,0
            120.80008,24.53887,0
            120.80005,24.539,0
            120.79996,24.53936,0
            120.79995,24.53938,0
            120.79991,24.53953,0
            120.79985,24.5397,0
            120.79977,24.53992,0
            120.79977,24.53993,0
            120.79974,24.54005,0
            120.79961,24.54052,0
            120.79951,24.54092,0
            120.79947,24.5411,0
            120.79936,24.54149,0
            120.79933,24.54166,0
            120.79931,24.5418,0
            120.7993,24.54187,0
            120.79927,24.5421,0
            120.79925,24.54231,0
            120.79924,24.54236,0
            120.79922,24.54241,0
            120.79922,24.54243,0
            120.7992,24.54244,0
            120.79919,24.54246,0
            120.79917,24.54247,0
            120.79917,24.54248,0
            120.79916,24.54249,0
            120.79915,24.5425,0
            120.79915,24.54251,0
            120.79914,24.54256,0
            120.79914,24.54266,0
            120.79915,24.54281,0
            120.79914,24.54297,0
            120.79914,24.54316,0
            120.79915,24.54332,0
            120.79916,24.54357,0
            120.79915,24.54381,0
            120.79915,24.54391,0
            120.79916,24.54403,0
            120.79916,24.54407,0
            120.79917,24.54417,0
            120.79919,24.54425,0
            120.7992,24.54435,0
            120.79926,24.5446,0
            120.79928,24.54467,0
            120.7993,24.54478,0
            120.79936,24.54501,0
            120.79939,24.54515,0
            120.79941,24.54517,0
            120.79942,24.54518,0
            120.79944,24.54518,0
            120.79945,24.54519,0
            120.79947,24.54519,0
            120.7995,24.54519,0
            120.79952,24.54519,0
            120.79957,24.5452,0
            120.79962,24.54521,0
            120.79967,24.54521,0
            120.7997,24.54521,0
            120.79973,24.54521,0
            120.79981,24.54523,0
            120.79989,24.54526,0
            120.79991,24.5453,0
            120.79992,24.54533,0
            120.79993,24.54534,0
            120.79995,24.54537,0
            120.79997,24.5454,0
            120.79998,24.54542,0
            120.79998,24.54543,0
            120.8,24.54545,0
            120.80002,24.54548,0
            120.80004,24.54552,0
            120.80006,24.54555,0
            120.80007,24.54558,0
            120.80008,24.5456,0
            120.80009,24.54563,0
            120.80009,24.54565,0
            120.8001,24.54567,0
            120.80011,24.5457,0
            120.80012,24.54572,0
            120.80012,24.54574,0
            120.80013,24.54575,0
            120.80015,24.54579,0
            120.80017,24.54581,0
            120.80018,24.54583,0
            120.80022,24.54587,0
            120.80024,24.54589,0
            120.80024,24.5459,0
            120.80026,24.54591,0
            120.80027,24.54594,0
            120.80029,24.54596,0
            120.8003,24.54598,0
            120.80031,24.546,0
            120.80034,24.54605,0
            120.80037,24.54609,0
            120.80038,24.5461,0
            120.8004,24.54613,0
            120.80043,24.54615,0
            120.80044,24.54618,0
            120.80047,24.5462,0
            120.80049,24.54622,0
            120.80051,24.54624,0
            120.80054,24.54627,0
            120.80055,24.54629,0
            120.80057,24.54632,0
            120.80062,24.54638,0
            120.80069,24.5465,0
            120.80074,24.54657,0
            120.80078,24.54662,0
            120.80081,24.54667,0
            120.80085,24.5467,0
            120.80086,24.54671,0
            120.80088,24.54674,0
            120.80095,24.54679,0
            120.80099,24.54682,0
            120.80101,24.54683,0
            120.80103,24.54685,0
            120.80105,24.54686,0
            120.80106,24.54688,0
            120.80112,24.54696,0
            120.80111,24.54701,0
            120.80111,24.54704,0
            120.80111,24.54707,0
            120.80111,24.54709,0
            120.80112,24.54712,0
            120.80113,24.54715,0
            120.80115,24.54718,0
            120.80121,24.54729,0
            120.8013,24.54743,0
            120.80139,24.54759,0
            120.80159,24.54793,0
            120.80169,24.54809,0
            120.80174,24.54817,0
            120.80178,24.54822,0
            120.80179,24.54823,0
            120.80182,24.54827,0
            120.80187,24.54832,0
            120.80192,24.54836,0
            120.80203,24.54846,0
            120.80215,24.54855,0
            120.80235,24.54871,0
            120.80236,24.54873,0
            120.80237,24.54873,0
            120.80256,24.54889,0
            120.80274,24.54904,0
            120.80303,24.54925,0
            120.80352,24.54952,0
            120.80389,24.54973,0
            120.80391,24.54976,0
            120.80392,24.54976,0
            120.80393,24.54977,0
            120.80395,24.54978,0
            120.80397,24.54988,0
            120.80408,24.55048,0
            120.8042,24.5505,0
            120.80425,24.55052,0
            120.80427,24.55052,0
            120.8043,24.55053,0
            120.80434,24.55055,0
            120.80437,24.55057,0
            120.80443,24.55062,0
            120.80444,24.55062,0
            120.80451,24.55068,0
            120.80457,24.55074,0
            120.80463,24.55081,0
            120.80469,24.55089,0
            120.80474,24.55096,0
            120.8048,24.55105,0
            120.80486,24.55121,0
            120.80489,24.55132,0
            120.8049,24.55141,0
            120.80489,24.55152,0
            120.80487,24.55165,0
            120.80474,24.55203,0
            120.8047,24.55216,0
            120.80467,24.55227,0
            120.80465,24.55234,0
            120.80465,24.55242,0
            120.80467,24.55248,0
            120.8047,24.55256,0
            120.80477,24.55268,0
            120.80482,24.55274,0
            120.80489,24.55283,0
            120.80493,24.55289,0
            120.80502,24.55299,0
            120.80506,24.55303,0
            120.80509,24.55306,0
            120.80518,24.55312,0
            120.80521,24.55314,0
            120.80531,24.55318,0
            120.80539,24.55321,0
            120.80577,24.55333,0
            120.80612,24.55343,0
            120.80615,24.55343,0
            120.80632,24.55348,0
            120.80637,24.55349,0
            120.80644,24.55352,0
            120.80653,24.55356,0
            120.80654,24.55357,0
            120.80659,24.5536,0
            120.80668,24.5537,0
            120.80692,24.55394,0
            120.80703,24.55404,0
            120.80709,24.55409,0
            120.8071,24.5541,0
            120.80718,24.55414,0
            120.80726,24.55418,0
            120.80733,24.55421,0
            120.80753,24.55429,0
            120.80766,24.55434,0
            120.80774,24.55436,0
            120.80783,24.55439,0
            120.80789,24.5544,0
            120.808,24.5544,0
            120.80799,24.55446,0
            120.80797,24.55453,0
            120.80795,24.55461,0
            120.80798,24.5547,0
            120.80805,24.55485,0
            120.80809,24.55493,0
            120.8081,24.55495,0
            120.80815,24.555,0
            120.8082,24.55505,0
            120.80824,24.55508,0
            120.80827,24.5551,0
            120.80834,24.55513,0
            120.8084,24.55515,0
            120.80848,24.55517,0
            120.80855,24.55517,0
            120.80861,24.55517,0
            120.80868,24.55516,0
            120.80878,24.55515,0
            120.80885,24.55513,0
            120.80889,24.55511,0
            120.80906,24.55507,0
            120.80901,24.55497,0
            120.80906,24.55507,0
            120.80916,24.55505,0
            120.80922,24.55504,0
            120.80927,24.55504,0
            120.80932,24.55504,0
            120.80939,24.55506,0
            120.80944,24.55508,0
            120.8096,24.55515,0
            120.80978,24.55522,0
            120.81002,24.55532,0
            120.81025,24.55543,0
            120.81062,24.55545,0
            120.81084,24.55548,0
            120.81182,24.55563,0
            120.81206,24.55567,0
            120.81232,24.55571,0
            120.81282,24.55581,0
            120.81289,24.55582,0
            120.81304,24.55585,0
            120.81323,24.55589,0
            120.81328,24.5559,0
            120.81342,24.55594,0
            120.81346,24.55595,0
            120.81355,24.55599,0
            120.81365,24.55602,0
            120.81376,24.55606,0
            120.81383,24.55609,0
            120.81397,24.55615,0
            120.81418,24.55624,0
            120.81472,24.55656,0
            120.81477,24.55659,0
            120.81488,24.55665,0
            120.81494,24.55669,0
            120.81544,24.55698,0
            120.81572,24.55714,0
            120.8168,24.55773,0
            120.8162,24.55832,0
            120.81616,24.55836,0
            120.81615,24.55838,0
            120.81615,24.5584,0
            120.81615,24.55842,0
            120.81615,24.55847,0
            120.81616,24.55851,0
            120.81618,24.55854,0
            120.81622,24.55859,0
            120.81646,24.55879,0
          </coordinates>
        </LineString>
      </Placemark>
      <Placemark>
        <name>苗栗縣苗栗市南勢車站</name>
        <styleUrl>#icon-1899-DB4436-nodesc</styleUrl>
        <Point>
          <coordinates>
            120.7916234,24.5224504,0
          </coordinates>
        </Point>
      </Placemark>
      <Placemark>
        <name>苗栗縣苗栗市南勢里苗栗市獨角仙復育基地</name>
        <styleUrl>#icon-1899-DB4436-nodesc</styleUrl>
        <Point>
          <coordinates>
            120.800169,24.5368695,0
          </coordinates>
        </Point>
      </Placemark>
      <Placemark>
        <name>苗栗縣苗栗市功維敘旅客服務中心</name>
        <styleUrl>#icon-1899-DB4436-nodesc</styleUrl>
        <Point>
          <coordinates>
            120.8039655,24.5498781,0
          </coordinates>
        </Point>
      </Placemark>
      <Placemark>
        <name>苗栗縣苗栗市大同里公園路貓狸山功維敘隧道停車場</name>
        <styleUrl>#icon-1899-DB4436-nodesc</styleUrl>
        <Point>
          <coordinates>
            120.8090148,24.5549747,0
          </coordinates>
        </Point>
      </Placemark>
      <Placemark>
        <name>苗栗縣苗栗市福麗里至公路國立苗栗高級中學</name>
        <styleUrl>#icon-1899-DB4436-nodesc</styleUrl>
        <Point>
          <coordinates>
            120.8164588,24.5587944,0
          </coordinates>
        </Point>
      </Placemark>
    </Folder>
  </Document>
</kml>
