<?xml version="1.0" encoding="UTF-8"?>
<kml xmlns="http://www.opengis.net/kml/2.2">
  <Document>
    <name>2026環島Day8</name>
    <description>花蓮玉里→台東市區</description>
    <Style id="icon-1899-DB4436-nodesc-normal">
      <IconStyle>
        <color>ff3644db</color>
        <scale>1</scale>
        <Icon>
          <href>https://www.gstatic.com/mapspro/images/stock/503-wht-blank_maps.png</href>
        </Icon>
        <hotSpot x="32" xunits="pixels" y="64" yunits="insetPixels"/>
      </IconStyle>
      <LabelStyle>
        <scale>0</scale>
      </LabelStyle>
      <BalloonStyle>
        <text><![CDATA[<h3>$[name]</h3>]]></text>
      </BalloonStyle>
    </Style>
    <Style id="icon-1899-DB4436-nodesc-highlight">
      <IconStyle>
        <color>ff3644db</color>
        <scale>1</scale>
        <Icon>
          <href>https://www.gstatic.com/mapspro/images/stock/503-wht-blank_maps.png</href>
        </Icon>
        <hotSpot x="32" xunits="pixels" y="64" yunits="insetPixels"/>
      </IconStyle>
      <LabelStyle>
        <scale>1</scale>
      </LabelStyle>
      <BalloonStyle>
        <text><![CDATA[<h3>$[name]</h3>]]></text>
      </BalloonStyle>
    </Style>
    <StyleMap id="icon-1899-DB4436-nodesc">
      <Pair>
        <key>normal</key>
        <styleUrl>#icon-1899-DB4436-nodesc-normal</styleUrl>
      </Pair>
      <Pair>
        <key>highlight</key>
        <styleUrl>#icon-1899-DB4436-nodesc-highlight</styleUrl>
      </Pair>
    </StyleMap>
    <Style id="line-1267FF-5000-nodesc-normal">
      <LineStyle>
        <color>ffff6712</color>
        <width>5</width>
      </LineStyle>
      <BalloonStyle>
        <text><![CDATA[<h3>$[name]</h3>]]></text>
      </BalloonStyle>
    </Style>
    <Style id="line-1267FF-5000-nodesc-highlight">
      <LineStyle>
        <color>ffff6712</color>
        <width>7.5</width>
      </LineStyle>
      <BalloonStyle>
        <text><![CDATA[<h3>$[name]</h3>]]></text>
      </BalloonStyle>
    </Style>
    <StyleMap id="line-1267FF-5000-nodesc">
      <Pair>
        <key>normal</key>
        <styleUrl>#line-1267FF-5000-nodesc-normal</styleUrl>
      </Pair>
      <Pair>
        <key>highlight</key>
        <styleUrl>#line-1267FF-5000-nodesc-highlight</styleUrl>
      </Pair>
    </StyleMap>
    <Folder>
      <name>玉里→富里</name>
      <Placemark>
        <name>玉里→富里</name>
        <styleUrl>#line-1267FF-5000-nodesc</styleUrl>
        <LineString>
          <tessellate>1</tessellate>
          <coordinates>
            121.31836,23.34648,0
            121.31832,23.34639,0
            121.31794,23.34533,0
            121.31772,23.34473,0
            121.31764,23.34449,0
            121.31729,23.34349,0
            121.31712,23.34305,0
            121.31698,23.34271,0
            121.31667,23.34176,0
            121.31848,23.34129,0
            121.31921,23.34112,0
            121.31936,23.34108,0
            121.31941,23.34106,0
            121.31949,23.34103,0
            121.31957,23.341,0
            121.31966,23.34096,0
            121.31968,23.34095,0
            121.31978,23.34089,0
            121.31983,23.34086,0
            121.31988,23.34083,0
            121.31991,23.3408,0
            121.31996,23.34075,0
            121.3204,23.34011,0
            121.32049,23.33994,0
            121.3205,23.33993,0
            121.32051,23.33992,0
            121.32054,23.33991,0
            121.32041,23.33925,0
            121.32033,23.33873,0
            121.32028,23.33822,0
            121.32024,23.33767,0
            121.32015,23.33699,0
            121.32013,23.33683,0
            121.32008,23.33654,0
            121.32004,23.33631,0
            121.31992,23.33551,0
            121.31991,23.33539,0
            121.31977,23.33458,0
            121.31975,23.33429,0
            121.31972,23.33344,0
            121.31976,23.33247,0
            121.31986,23.33197,0
            121.31994,23.33172,0
            121.32002,23.33144,0
            121.32034,23.33061,0
            121.32042,23.33038,0
            121.32104,23.32928,0
            121.32133,23.32876,0
            121.32151,23.32845,0
            121.32174,23.328,0
            121.32181,23.32787,0
            121.32195,23.3276,0
            121.32244,23.32669,0
            121.32255,23.3265,0
            121.32284,23.32599,0
            121.32338,23.32498,0
            121.32353,23.32472,0
            121.32372,23.32435,0
            121.32394,23.32394,0
            121.32401,23.32385,0
            121.32403,23.32382,0
            121.32419,23.32376,0
            121.32433,23.32373,0
            121.32452,23.32371,0
            121.32467,23.32368,0
            121.32482,23.32366,0
            121.32494,23.32364,0
            121.32527,23.32358,0
            121.32549,23.32355,0
            121.32561,23.32353,0
            121.32569,23.32346,0
            121.32577,23.32342,0
            121.32579,23.32341,0
            121.32583,23.3234,0
            121.32587,23.32339,0
            121.32592,23.32339,0
            121.32596,23.32339,0
            121.32598,23.32339,0
            121.32599,23.32338,0
            121.326,23.32338,0
            121.32604,23.32337,0
            121.32607,23.32335,0
            121.32609,23.32333,0
            121.32611,23.3233,0
            121.32612,23.32327,0
            121.32614,23.32324,0
            121.32615,23.32319,0
            121.32616,23.3231,0
            121.32622,23.32257,0
            121.32625,23.32242,0
            121.32626,23.32238,0
            121.32628,23.32236,0
            121.32629,23.32234,0
            121.32633,23.32232,0
            121.3264,23.32229,0
            121.32642,23.32229,0
            121.32647,23.32227,0
            121.32655,23.32226,0
            121.32661,23.32224,0
            121.32699,23.32216,0
            121.32701,23.322,0
            121.32702,23.32195,0
            121.32694,23.32191,0
            121.32692,23.3219,0
            121.32689,23.32189,0
            121.32687,23.32188,0
            121.32684,23.32188,0
            121.32673,23.32189,0
            121.32672,23.32189,0
            121.32653,23.3219,0
            121.32652,23.3219,0
            121.32642,23.32191,0
            121.3264,23.32192,0
            121.32639,23.32192,0
            121.32638,23.32192,0
            121.32638,23.32193,0
            121.32638,23.32194,0
            121.32639,23.32195,0
            121.3264,23.32195,0
            121.32642,23.32195,0
            121.32648,23.32195,0
            121.32658,23.32195,0
            121.32671,23.32196,0
            121.32679,23.32198,0
            121.32681,23.32198,0
            121.32697,23.32194,0
            121.32704,23.32192,0
            121.32712,23.32191,0
            121.32733,23.32185,0
            121.32751,23.3218,0
            121.32766,23.32177,0
            121.32768,23.32177,0
            121.32787,23.32173,0
            121.32806,23.32168,0
            121.32844,23.3216,0
            121.32863,23.32155,0
            121.32868,23.32154,0
            121.32882,23.32151,0
            121.3292,23.32142,0
            121.32938,23.32138,0
            121.32939,23.32138,0
            121.3296,23.32133,0
            121.32977,23.32129,0
            121.33015,23.32121,0
            121.3307,23.32109,0
            121.33094,23.32103,0
            121.33108,23.321,0
            121.33121,23.32097,0
            121.33127,23.32096,0
            121.33161,23.32087,0
            121.33165,23.32086,0
            121.33168,23.32085,0
            121.33184,23.32082,0
            121.33189,23.32081,0
            121.33203,23.32078,0
            121.3324,23.32069,0
            121.3326,23.32065,0
            121.33279,23.3206,0
            121.33298,23.32056,0
            121.33299,23.32056,0
            121.33321,23.32049,0
            121.33335,23.32045,0
            121.33352,23.32037,0
            121.3336,23.32034,0
            121.3337,23.32029,0
            121.33385,23.32021,0
            121.33403,23.3201,0
            121.3342,23.32,0
            121.33424,23.31998,0
            121.33435,23.31989,0
            121.3345,23.31977,0
            121.33456,23.31971,0
            121.33463,23.31964,0
            121.33473,23.31955,0
            121.33492,23.31935,0
            121.33502,23.31923,0
            121.33504,23.31921,0
            121.33506,23.31918,0
            121.33511,23.31911,0
            121.33531,23.3188,0
            121.33535,23.31872,0
            121.33544,23.31854,0
            121.33553,23.31834,0
            121.33563,23.31805,0
            121.33564,23.31801,0
            121.33568,23.31783,0
            121.33569,23.31782,0
            121.33573,23.31756,0
            121.33578,23.31712,0
            121.33579,23.31701,0
            121.3358,23.31694,0
            121.33582,23.31676,0
            121.33584,23.31658,0
            121.3359,23.31605,0
            121.33591,23.316,0
            121.33592,23.31587,0
            121.33594,23.31569,0
            121.33597,23.31533,0
            121.336,23.31506,0
            121.33603,23.31479,0
            121.33607,23.31443,0
            121.33609,23.31426,0
            121.33612,23.31395,0
            121.33615,23.31372,0
            121.33617,23.31354,0
            121.33622,23.31307,0
            121.33626,23.31246,0
            121.33626,23.31228,0
            121.33625,23.31212,0
            121.33623,23.31177,0
            121.3362,23.31154,0
            121.33618,23.31139,0
            121.33616,23.31129,0
            121.33615,23.31121,0
            121.33612,23.31103,0
            121.33608,23.31082,0
            121.336,23.31057,0
            121.33599,23.31051,0
            121.33595,23.31039,0
            121.3359,23.31021,0
            121.33577,23.30982,0
            121.33571,23.30965,0
            121.33563,23.3094,0
            121.33554,23.30913,0
            121.33548,23.30896,0
            121.33547,23.30892,0
            121.33537,23.30861,0
            121.33532,23.30844,0
            121.33531,23.30842,0
            121.33521,23.30809,0
            121.3352,23.30808,0
            121.33515,23.30792,0
            121.33509,23.30775,0
            121.33507,23.30768,0
            121.33504,23.30758,0
            121.33498,23.3074,0
            121.33497,23.30735,0
            121.33493,23.30723,0
            121.33488,23.30708,0
            121.33487,23.30706,0
            121.33481,23.30689,0
            121.33475,23.3067,0
            121.3347,23.30654,0
            121.33465,23.30637,0
            121.33464,23.30637,0
            121.33459,23.3062,0
            121.33453,23.30603,0
            121.33446,23.3058,0
            121.33438,23.30555,0
            121.33436,23.30551,0
            121.33425,23.30517,0
            121.33421,23.30503,0
            121.33419,23.30499,0
            121.33408,23.30465,0
            121.33404,23.30453,0
            121.33403,23.30448,0
            121.33397,23.3043,0
            121.33391,23.30413,0
            121.33388,23.30403,0
            121.33385,23.30396,0
            121.33375,23.30365,0
            121.33368,23.30345,0
            121.33366,23.30339,0
            121.33361,23.30328,0
            121.33357,23.30318,0
            121.33349,23.30296,0
            121.33348,23.30294,0
            121.33334,23.3026,0
            121.3332,23.3023,0
            121.33319,23.30227,0
            121.33306,23.30198,0
            121.33304,23.30194,0
            121.33297,23.30177,0
            121.33295,23.30171,0
            121.33283,23.30143,0
            121.33277,23.30126,0
            121.33275,23.30119,0
            121.33272,23.30109,0
            121.33269,23.30101,0
            121.33263,23.30079,0
            121.33258,23.30057,0
            121.33258,23.30056,0
            121.33255,23.30042,0
            121.33255,23.30039,0
            121.33252,23.30023,0
            121.33249,23.29997,0
            121.33249,23.29985,0
            121.33248,23.29967,0
            121.33247,23.29951,0
            121.33248,23.29913,0
            121.33249,23.29902,0
            121.33249,23.29895,0
            121.33249,23.29877,0
            121.33249,23.29873,0
            121.33249,23.29841,0
            121.33249,23.29818,0
            121.33249,23.29796,0
            121.33249,23.29778,0
            121.33249,23.29773,0
            121.33249,23.29719,0
            121.33248,23.29676,0
            121.33248,23.2967,0
            121.33249,23.29624,0
            121.33249,23.29588,0
            121.33248,23.29554,0
            121.33247,23.29544,0
            121.33244,23.29528,0
            121.33239,23.29506,0
            121.33235,23.2949,0
            121.3323,23.29475,0
            121.33225,23.29458,0
            121.33223,23.29454,0
            121.33218,23.29442,0
            121.33211,23.29423,0
            121.33201,23.29404,0
            121.332,23.29402,0
            121.33192,23.29388,0
            121.3319,23.29385,0
            121.33183,23.29373,0
            121.33177,23.29364,0
            121.33168,23.2935,0
            121.33108,23.29268,0
            121.33097,23.29254,0
            121.33097,23.29253,0
            121.33086,23.29238,0
            121.33053,23.29193,0
            121.33042,23.29178,0
            121.33038,23.29173,0
            121.33031,23.29163,0
            121.33019,23.29149,0
            121.33003,23.29128,0
            121.32996,23.2912,0
            121.32974,23.2909,0
            121.32963,23.29075,0
            121.32952,23.29061,0
            121.32932,23.29034,0
            121.32896,23.28986,0
            121.32874,23.28957,0
            121.32873,23.28955,0
            121.32863,23.28942,0
            121.32852,23.28927,0
            121.32841,23.28912,0
            121.32819,23.28882,0
            121.32814,23.28874,0
            121.32808,23.28867,0
            121.32797,23.28853,0
            121.32775,23.28823,0
            121.32772,23.2882,0
            121.32764,23.28808,0
            121.32753,23.28793,0
            121.32726,23.28756,0
            121.32697,23.28719,0
            121.32686,23.28704,0
            121.32675,23.2869,0
            121.32658,23.28668,0
            121.32641,23.28645,0
            121.32631,23.2863,0
            121.3262,23.28615,0
            121.32587,23.28571,0
            121.32564,23.28539,0
            121.32521,23.28481,0
            121.32488,23.28436,0
            121.32466,23.28407,0
            121.32455,23.28392,0
            121.32453,23.28389,0
            121.32445,23.28377,0
            121.32402,23.28316,0
            121.3237,23.28271,0
            121.3236,23.28256,0
            121.32339,23.28226,0
            121.32275,23.28135,0
            121.32235,23.28074,0
            121.32217,23.28046,0
            121.32184,23.27997,0
            121.32174,23.27983,0
            121.32161,23.27968,0
            121.32149,23.27954,0
            121.32136,23.2794,0
            121.32132,23.27935,0
            121.32123,23.27927,0
            121.3211,23.27914,0
            121.32092,23.27897,0
            121.32045,23.27863,0
            121.32021,23.27844,0
            121.3202,23.27844,0
            121.32004,23.27834,0
            121.31988,23.27823,0
            121.31972,23.27813,0
            121.31922,23.2778,0
            121.31906,23.2777,0
            121.31898,23.27764,0
            121.31827,23.27717,0
            121.31795,23.27696,0
            121.31781,23.27687,0
            121.31779,23.27686,0
            121.31747,23.27665,0
            121.31739,23.2766,0
            121.31718,23.27645,0
            121.31653,23.27601,0
            121.31623,23.2758,0
            121.31608,23.2757,0
            121.31592,23.27559,0
            121.31569,23.27543,0
            121.31559,23.27536,0
            121.31543,23.27525,0
            121.31528,23.27514,0
            121.31473,23.27475,0
            121.3145,23.27459,0
            121.31434,23.27449,0
            121.31421,23.27439,0
            121.31403,23.27427,0
            121.31387,23.27416,0
            121.31372,23.27405,0
            121.31356,23.27394,0
            121.31334,23.27379,0
            121.31325,23.27372,0
            121.31316,23.27366,0
            121.31308,23.2736,0
            121.31261,23.27327,0
            121.31246,23.27316,0
            121.31231,23.27305,0
            121.3123,23.27305,0
            121.31214,23.27295,0
            121.31181,23.27276,0
            121.31155,23.2726,0
            121.31132,23.27247,0
            121.31115,23.27237,0
            121.31092,23.27224,0
            121.3106,23.27204,0
            121.31022,23.27181,0
            121.31016,23.27179,0
            121.3099,23.27167,0
            121.30981,23.27163,0
            121.3097,23.27157,0
            121.30963,23.27155,0
            121.30945,23.27148,0
            121.30927,23.27141,0
            121.30888,23.27126,0
            121.30852,23.27113,0
            121.30837,23.27107,0
            121.30819,23.271,0
            121.30778,23.27085,0
            121.30743,23.27073,0
            121.3074,23.27072,0
            121.30743,23.27066,0
            121.30748,23.27057,0
            121.30749,23.27053,0
            121.30749,23.27051,0
            121.30748,23.27049,0
            121.30746,23.27047,0
            121.30742,23.27043,0
            121.30736,23.27041,0
            121.30748,23.27015,0
            121.30737,23.27007,0
          </coordinates>
        </LineString>
      </Placemark>
      <Placemark>
        <name>981台灣花蓮縣玉里鎮永昌里中華路440號</name>
        <styleUrl>#icon-1899-DB4436-nodesc</styleUrl>
        <Point>
          <coordinates>
            121.318356,23.3464844,0
          </coordinates>
        </Point>
      </Placemark>
      <Placemark>
        <name>花蓮縣玉里鎮玉里大橋歐亞板塊及菲律賓海板塊交界紀念碑</name>
        <styleUrl>#icon-1899-DB4436-nodesc</styleUrl>
        <Point>
          <coordinates>
            121.3295986,23.3213319,0
          </coordinates>
        </Point>
      </Placemark>
      <Placemark>
        <name>983台灣花蓮縣富里鄉東里村大莊路183號</name>
        <styleUrl>#icon-1899-DB4436-nodesc</styleUrl>
        <Point>
          <coordinates>
            121.3073706,23.2700713,0
          </coordinates>
        </Point>
      </Placemark>
    </Folder>
    <Folder>
      <name>富里→台東新生國中</name>
      <Placemark>
        <name>富里→台東新生國中</name>
        <styleUrl>#line-1267FF-5000-nodesc</styleUrl>
        <LineString>
          <tessellate>1</tessellate>
          <coordinates>
            121.30737,23.27007,0
            121.30613,23.26927,0
            121.30524,23.26875,0
            121.30484,23.26854,0
            121.30453,23.2684,0
            121.30436,23.26836,0
            121.3042,23.26831,0
            121.30375,23.26811,0
            121.30307,23.26775,0
            121.30306,23.26774,0
            121.30299,23.2677,0
            121.30282,23.26755,0
            121.30272,23.26745,0
            121.30262,23.26732,0
            121.30214,23.26657,0
            121.30199,23.26641,0
            121.30167,23.26587,0
            121.30078,23.26463,0
            121.30062,23.26437,0
            121.29997,23.26306,0
            121.29986,23.26281,0
            121.29984,23.26274,0
            121.29982,23.2625,0
            121.29979,23.26236,0
            121.29973,23.26216,0
            121.29967,23.26189,0
            121.29966,23.26188,0
            121.29961,23.26172,0
            121.29926,23.26088,0
            121.29881,23.26017,0
            121.29857,23.25983,0
            121.29851,23.25973,0
            121.29842,23.25954,0
            121.2983,23.25906,0
            121.2983,23.25903,0
            121.2981,23.25806,0
            121.29793,23.25735,0
            121.29792,23.2572,0
            121.29706,23.2547,0
            121.29698,23.25443,0
            121.29698,23.25441,0
            121.29695,23.25435,0
            121.29693,23.25428,0
            121.29692,23.25418,0
            121.29692,23.25401,0
            121.29694,23.25386,0
            121.29725,23.25257,0
            121.29732,23.25249,0
            121.29809,23.24955,0
            121.29807,23.24946,0
            121.29818,23.24893,0
            121.29822,23.24866,0
            121.29824,23.24762,0
            121.29823,23.24745,0
            121.29818,23.24727,0
            121.29809,23.24705,0
            121.29764,23.24625,0
            121.29696,23.24528,0
            121.29695,23.24526,0
            121.29695,23.24524,0
            121.29694,23.24523,0
            121.29694,23.24518,0
            121.29685,23.24504,0
            121.29654,23.24463,0
            121.29461,23.24232,0
            121.2946,23.2423,0
            121.29448,23.24214,0
            121.29424,23.24168,0
            121.29387,23.24085,0
            121.29386,23.24085,0
            121.29384,23.24083,0
            121.29384,23.24082,0
            121.29383,23.24082,0
            121.29382,23.24081,0
            121.29382,23.24079,0
            121.29381,23.24078,0
            121.2937,23.24052,0
            121.29356,23.24027,0
            121.29349,23.24017,0
            121.2934,23.24006,0
            121.29334,23.24,0
            121.29294,23.23953,0
            121.29209,23.23862,0
            121.29168,23.23821,0
            121.29104,23.23747,0
            121.29084,23.23718,0
            121.29074,23.23706,0
            121.29001,23.23627,0
            121.28991,23.23614,0
            121.2897,23.2359,0
            121.28946,23.23558,0
            121.28938,23.23537,0
            121.28936,23.23525,0
            121.28936,23.23517,0
            121.28946,23.2343,0
            121.28944,23.23422,0
            121.28936,23.23398,0
            121.2893,23.23386,0
            121.28876,23.23301,0
            121.28865,23.23286,0
            121.28527,23.22752,0
            121.28504,23.22718,0
            121.28468,23.22659,0
            121.28253,23.22334,0
            121.28225,23.22297,0
            121.2821,23.22268,0
            121.28207,23.22261,0
            121.28203,23.22249,0
            121.282,23.22224,0
            121.28215,23.2206,0
            121.28221,23.2196,0
            121.28224,23.21935,0
            121.28225,23.219,0
            121.28223,23.21879,0
            121.28219,23.21862,0
            121.28208,23.21831,0
            121.2819,23.21803,0
            121.2815,23.21752,0
            121.28117,23.21716,0
            121.27984,23.21555,0
            121.27965,23.21534,0
            121.27942,23.21504,0
            121.27801,23.21338,0
            121.27792,23.21326,0
            121.2776,23.21289,0
            121.27757,23.21284,0
            121.27705,23.21219,0
            121.27622,23.21122,0
            121.27615,23.21115,0
            121.27528,23.21007,0
            121.27509,23.20977,0
            121.27493,23.20965,0
            121.27415,23.20868,0
            121.2733,23.20771,0
            121.27237,23.20658,0
            121.27234,23.20645,0
            121.27217,23.2062,0
            121.27211,23.20609,0
            121.27209,23.20607,0
            121.27185,23.20561,0
            121.27058,23.20259,0
            121.27024,23.20183,0
            121.26896,23.19879,0
            121.2686,23.19801,0
            121.26834,23.19752,0
            121.26809,23.19713,0
            121.26789,23.19686,0
            121.26765,23.19659,0
            121.26726,23.19622,0
            121.2668,23.19588,0
            121.26451,23.1943,0
            121.26441,23.19422,0
            121.26432,23.19411,0
            121.26424,23.19399,0
            121.26417,23.19385,0
            121.26389,23.19306,0
            121.26377,23.1928,0
            121.26352,23.19234,0
            121.26303,23.19151,0
            121.26289,23.19133,0
            121.26276,23.19119,0
            121.26211,23.1906,0
            121.26054,23.18895,0
            121.26026,23.18863,0
            121.26011,23.18842,0
            121.26009,23.18841,0
            121.25979,23.18793,0
            121.25965,23.18774,0
            121.2594,23.18749,0
            121.25916,23.18727,0
            121.25914,23.18724,0
            121.25811,23.1863,0
            121.25789,23.18608,0
            121.25776,23.18597,0
            121.2577,23.18591,0
            121.25732,23.18566,0
            121.25716,23.18557,0
            121.25691,23.18547,0
            121.25666,23.1854,0
            121.2563,23.18534,0
            121.25614,23.18535,0
            121.25582,23.18532,0
            121.2543,23.18509,0
            121.25422,23.18507,0
            121.25386,23.18501,0
            121.2523,23.18468,0
            121.24974,23.18421,0
            121.24955,23.18416,0
            121.24949,23.18415,0
            121.24943,23.18413,0
            121.24924,23.18404,0
            121.24907,23.1839,0
            121.24901,23.18384,0
            121.24898,23.18379,0
            121.24893,23.18373,0
            121.24873,23.18344,0
            121.2469,23.18042,0
            121.24673,23.18016,0
            121.24429,23.17612,0
            121.24424,23.17606,0
            121.24367,23.17511,0
            121.24358,23.17498,0
            121.24356,23.17493,0
            121.24327,23.17447,0
            121.24327,23.17446,0
            121.24284,23.17379,0
            121.242,23.1724,0
            121.24186,23.17212,0
            121.24171,23.17171,0
            121.24163,23.1714,0
            121.24158,23.17097,0
            121.24162,23.17036,0
            121.24163,23.17035,0
            121.24163,23.17028,0
            121.24188,23.16714,0
            121.24196,23.1665,0
            121.24209,23.16514,0
            121.24202,23.16411,0
            121.242,23.16356,0
            121.24202,23.16303,0
            121.24209,23.16278,0
            121.24224,23.16177,0
            121.24225,23.16163,0
            121.24222,23.16133,0
            121.24204,23.16063,0
            121.2417,23.15963,0
            121.24156,23.15916,0
            121.24156,23.15915,0
            121.24147,23.1589,0
            121.24132,23.15855,0
            121.24109,23.15823,0
            121.24056,23.15769,0
            121.24044,23.15754,0
            121.24026,23.15726,0
            121.24011,23.15691,0
            121.24006,23.15674,0
            121.23994,23.15642,0
            121.23975,23.15581,0
            121.23972,23.15564,0
            121.23969,23.15554,0
            121.23966,23.15547,0
            121.2396,23.15522,0
            121.23959,23.15509,0
            121.23955,23.15482,0
            121.23955,23.15469,0
            121.2396,23.15428,0
            121.23967,23.15409,0
            121.23975,23.15378,0
            121.23978,23.15361,0
            121.23979,23.15342,0
            121.23979,23.15314,0
            121.23973,23.15282,0
            121.23958,23.15231,0
            121.23958,23.1523,0
            121.23946,23.15197,0
            121.23928,23.15132,0
            121.23927,23.1513,0
            121.23922,23.15114,0
            121.23877,23.14996,0
            121.2382,23.14822,0
            121.23744,23.14628,0
            121.23727,23.1458,0
            121.23719,23.14561,0
            121.23715,23.14544,0
            121.23714,23.14542,0
            121.23651,23.14251,0
            121.23643,23.14207,0
            121.23628,23.14143,0
            121.23617,23.14104,0
            121.23614,23.14088,0
            121.23609,23.14068,0
            121.23602,23.14051,0
            121.2359,23.14026,0
            121.23579,23.14007,0
            121.23538,23.13949,0
            121.23536,23.13947,0
            121.23496,23.13883,0
            121.23408,23.13695,0
            121.23385,23.1365,0
            121.2336,23.13606,0
            121.23326,23.13528,0
            121.23322,23.13517,0
            121.23313,23.1348,0
            121.2331,23.13453,0
            121.23309,23.1343,0
            121.23307,23.13416,0
            121.23308,23.13409,0
            121.23301,23.13373,0
            121.23296,23.13357,0
            121.23291,23.13337,0
            121.23281,23.13311,0
            121.23248,23.1324,0
            121.2324,23.13226,0
            121.23198,23.13139,0
            121.23174,23.13084,0
            121.23121,23.12949,0
            121.23102,23.1288,0
            121.23093,23.12813,0
            121.23091,23.12781,0
            121.23088,23.12766,0
            121.23086,23.12761,0
            121.23085,23.12755,0
            121.23081,23.12746,0
            121.23051,23.12705,0
            121.22965,23.12611,0
            121.22899,23.12535,0
            121.2288,23.12516,0
            121.22872,23.12511,0
            121.22866,23.12506,0
            121.22851,23.12498,0
            121.22831,23.12491,0
            121.22733,23.12471,0
            121.22675,23.12457,0
            121.22549,23.12432,0
            121.2254,23.12431,0
            121.22526,23.12428,0
            121.22498,23.12432,0
            121.22258,23.12524,0
            121.22248,23.12529,0
            121.22069,23.12587,0
            121.22054,23.12589,0
            121.22051,23.12587,0
            121.22048,23.12586,0
            121.21998,23.12554,0
            121.21972,23.12583,0
            121.21965,23.12592,0
            121.21942,23.12592,0
            121.2194,23.12593,0
            121.21933,23.12593,0
            121.21932,23.12592,0
            121.2193,23.12591,0
            121.21876,23.12553,0
            121.2191,23.1251,0
            121.21915,23.12505,0
            121.2192,23.12498,0
            121.21691,23.12337,0
            121.21687,23.12335,0
            121.21686,23.12334,0
            121.21537,23.12229,0
            121.21452,23.12175,0
            121.21341,23.12096,0
            121.21331,23.12091,0
            121.21249,23.12031,0
            121.21223,23.12018,0
            121.21217,23.12011,0
            121.21094,23.11843,0
            121.21079,23.11826,0
            121.21077,23.11822,0
            121.21049,23.11786,0
            121.20938,23.11634,0
            121.20934,23.1163,0
            121.20742,23.11383,0
            121.20689,23.11311,0
            121.20547,23.11129,0
            121.20488,23.11045,0
            121.20364,23.10883,0
            121.20334,23.10847,0
            121.20286,23.10779,0
            121.20042,23.10464,0
            121.20022,23.10431,0
            121.2,23.10405,0
            121.19979,23.10377,0
            121.19917,23.10306,0
            121.19896,23.10289,0
            121.19857,23.10262,0
            121.19753,23.102,0
            121.19744,23.10193,0
            121.19736,23.10191,0
            121.19183,23.09858,0
            121.18906,23.09696,0
            121.18716,23.09579,0
            121.18713,23.09575,0
            121.18466,23.09434,0
            121.18352,23.09364,0
            121.18274,23.0932,0
            121.18207,23.09277,0
            121.18132,23.09234,0
            121.17918,23.09103,0
            121.17908,23.09099,0
            121.17777,23.09018,0
            121.17769,23.09014,0
            121.17762,23.09009,0
            121.17729,23.0899,0
            121.17671,23.08952,0
            121.17663,23.08945,0
            121.17658,23.08939,0
            121.17653,23.08934,0
            121.17645,23.08921,0
            121.17636,23.08903,0
            121.17633,23.08894,0
            121.17631,23.08885,0
            121.17628,23.08863,0
            121.17628,23.08849,0
            121.17626,23.08845,0
            121.17628,23.08705,0
            121.1763,23.08669,0
            121.17633,23.08659,0
            121.17634,23.0864,0
            121.17634,23.08575,0
            121.17635,23.08552,0
            121.17627,23.08458,0
            121.17621,23.0829,0
            121.17621,23.08244,0
            121.17613,23.08006,0
            121.17601,23.07937,0
            121.17555,23.07813,0
            121.17534,23.07762,0
            121.17475,23.07601,0
            121.17466,23.0758,0
            121.17432,23.07488,0
            121.17416,23.0745,0
            121.17123,23.06674,0
            121.17058,23.06522,0
            121.1703,23.0643,0
            121.16919,23.06143,0
            121.169,23.06089,0
            121.16873,23.06001,0
            121.16814,23.05856,0
            121.1681,23.05843,0
            121.16751,23.05683,0
            121.1663,23.05385,0
            121.16597,23.05291,0
            121.16594,23.05285,0
            121.16576,23.05235,0
            121.16557,23.05189,0
            121.16451,23.04909,0
            121.16433,23.04868,0
            121.16332,23.04601,0
            121.16294,23.04507,0
            121.16294,23.04501,0
            121.16278,23.04455,0
            121.16158,23.04141,0
            121.16154,23.04128,0
            121.15881,23.03416,0
            121.15834,23.03301,0
            121.1583,23.03288,0
            121.1576,23.031,0
            121.15757,23.03094,0
            121.15755,23.03087,0
            121.15751,23.03077,0
            121.15727,23.03004,0
            121.15721,23.02997,0
            121.15697,23.02935,0
            121.15693,23.02927,0
            121.15588,23.02654,0
            121.15588,23.02652,0
            121.15569,23.02601,0
            121.15544,23.0254,0
            121.15543,23.02535,0
            121.15514,23.02463,0
            121.15369,23.02077,0
            121.15352,23.02038,0
            121.1532,23.01952,0
            121.1532,23.01944,0
            121.15308,23.01913,0
            121.15303,23.01903,0
            121.15278,23.01837,0
            121.15273,23.01826,0
            121.15211,23.01667,0
            121.15198,23.01628,0
            121.15148,23.01496,0
            121.15143,23.01485,0
            121.15139,23.01471,0
            121.15129,23.0145,0
            121.15093,23.01355,0
            121.15091,23.01351,0
            121.15078,23.01316,0
            121.15072,23.0131,0
            121.15012,23.01157,0
            121.15012,23.01156,0
            121.1496,23.0102,0
            121.14961,23.01011,0
            121.14936,23.00939,0
            121.14934,23.00936,0
            121.14927,23.00919,0
            121.14926,23.00915,0
            121.14834,23.00679,0
            121.14831,23.00666,0
            121.1477,23.00512,0
            121.14715,23.00364,0
            121.1471,23.00358,0
            121.14704,23.00344,0
            121.1469,23.00304,0
            121.14572,22.99999,0
            121.14571,22.99988,0
            121.14527,22.9987,0
            121.14503,22.99814,0
            121.14499,22.998,0
            121.14474,22.99737,0
            121.14473,22.99733,0
            121.14455,22.99686,0
            121.14453,22.99679,0
            121.1445,22.99673,0
            121.14329,22.99361,0
            121.14329,22.9936,0
            121.14307,22.993,0
            121.14284,22.99243,0
            121.14253,22.9914,0
            121.14188,22.98968,0
            121.1418,22.98952,0
            121.1417,22.98935,0
            121.14049,22.98618,0
            121.13993,22.98481,0
            121.13963,22.98396,0
            121.13903,22.98243,0
            121.13806,22.97982,0
            121.13802,22.97969,0
            121.1375,22.97841,0
            121.13748,22.97834,0
            121.13744,22.97831,0
            121.13741,22.97825,0
            121.13663,22.9762,0
            121.1366,22.97614,0
            121.13654,22.97598,0
            121.13646,22.97581,0
            121.13478,22.97134,0
            121.13445,22.97056,0
            121.13434,22.97033,0
            121.13422,22.96996,0
            121.13357,22.96819,0
            121.13307,22.96693,0
            121.13306,22.96689,0
            121.13208,22.96468,0
            121.13201,22.96446,0
            121.13189,22.96388,0
            121.13164,22.96317,0
            121.13126,22.96239,0
            121.1311,22.96198,0
            121.13102,22.96172,0
            121.13077,22.96109,0
            121.13069,22.96085,0
            121.12926,22.95707,0
            121.12925,22.957,0
            121.12862,22.95531,0
            121.12855,22.95515,0
            121.12842,22.95497,0
            121.12832,22.9548,0
            121.12827,22.95474,0
            121.12825,22.95464,0
            121.12858,22.95175,0
            121.12861,22.95171,0
            121.12863,22.9516,0
            121.12874,22.95127,0
            121.12884,22.95107,0
            121.12892,22.95094,0
            121.12907,22.95076,0
            121.12948,22.95053,0
            121.12979,22.95031,0
            121.13323,22.94813,0
            121.13346,22.94801,0
            121.13361,22.94795,0
            121.13495,22.9475,0
            121.13527,22.94737,0
            121.13555,22.94724,0
            121.13556,22.94724,0
            121.13594,22.94705,0
            121.1368,22.94657,0
            121.13725,22.94634,0
            121.13746,22.94622,0
            121.13885,22.94532,0
            121.13893,22.94526,0
            121.13945,22.94478,0
            121.13973,22.9445,0
            121.13992,22.94427,0
            121.14054,22.94336,0
            121.14135,22.94196,0
            121.14135,22.94195,0
            121.14219,22.94055,0
            121.14236,22.94024,0
            121.14249,22.93995,0
            121.1426,22.93967,0
            121.14266,22.93949,0
            121.14343,22.9364,0
            121.14363,22.9357,0
            121.14388,22.93504,0
            121.14416,22.9344,0
            121.14485,22.93262,0
            121.14507,22.93192,0
            121.1451,22.93169,0
            121.14511,22.93145,0
            121.1451,22.93132,0
            121.14508,22.93119,0
            121.14504,22.93106,0
            121.14475,22.93042,0
            121.14459,22.92998,0
            121.14451,22.92967,0
            121.14449,22.9294,0
            121.14463,22.92708,0
            121.14465,22.92641,0
            121.14461,22.92581,0
            121.14457,22.92562,0
            121.14448,22.92528,0
            121.14442,22.92515,0
            121.14442,22.92514,0
            121.14434,22.92497,0
            121.14423,22.92469,0
            121.14403,22.92434,0
            121.14386,22.92407,0
            121.14351,22.92364,0
            121.14273,22.92277,0
            121.14086,22.92097,0
            121.14028,22.92036,0
            121.13992,22.91995,0
            121.13966,22.91963,0
            121.13911,22.91884,0
            121.13897,22.91866,0
            121.13877,22.91835,0
            121.13846,22.91775,0
            121.13768,22.91595,0
            121.13763,22.91588,0
            121.13749,22.91565,0
            121.13677,22.91485,0
            121.13647,22.91443,0
            121.13628,22.9139,0
            121.13602,22.91306,0
            121.13599,22.91283,0
            121.13599,22.91263,0
            121.13602,22.91242,0
            121.1366,22.91244,0
            121.13692,22.91247,0
            121.1366,22.91244,0
            121.13602,22.91242,0
            121.13609,22.91171,0
            121.13613,22.91102,0
            121.13614,22.9104,0
            121.13617,22.91008,0
            121.13617,22.90999,0
            121.13621,22.90971,0
            121.13622,22.90953,0
            121.13627,22.90913,0
            121.13639,22.9078,0
            121.13649,22.90699,0
            121.13657,22.90655,0
            121.13665,22.90632,0
            121.13674,22.90615,0
            121.13682,22.90596,0
            121.13726,22.90506,0
            121.13729,22.90501,0
            121.13743,22.90467,0
            121.13745,22.90464,0
            121.13752,22.90446,0
            121.13761,22.9041,0
            121.1377,22.90364,0
            121.13781,22.90271,0
            121.13782,22.90238,0
            121.1378,22.90212,0
            121.13769,22.90171,0
            121.13751,22.90137,0
            121.13727,22.90099,0
            121.13714,22.90076,0
            121.13671,22.89987,0
            121.13666,22.89972,0
            121.13655,22.89927,0
            121.13652,22.89911,0
            121.13643,22.89819,0
            121.1364,22.89614,0
            121.13636,22.89586,0
            121.13632,22.89568,0
            121.13631,22.89566,0
            121.13618,22.89524,0
            121.13606,22.89499,0
            121.13571,22.89444,0
            121.13562,22.89432,0
            121.1355,22.8942,0
            121.1354,22.89412,0
            121.1353,22.89406,0
            121.13499,22.8939,0
            121.13469,22.89377,0
            121.13442,22.89368,0
            121.13417,22.89361,0
            121.1341,22.8936,0
            121.13402,22.89358,0
            121.13384,22.89355,0
            121.13371,22.89354,0
            121.1335,22.89356,0
            121.13319,22.89357,0
            121.13251,22.89363,0
            121.1283,22.89388,0
            121.1277,22.89387,0
            121.12769,22.89386,0
            121.12735,22.89381,0
            121.12664,22.89375,0
            121.1263,22.8937,0
            121.1258,22.89366,0
            121.12564,22.89367,0
            121.12547,22.89367,0
            121.12458,22.89377,0
            121.1225,22.8938,0
            121.12227,22.89383,0
            121.12119,22.89415,0
            121.12096,22.89423,0
            121.12066,22.89436,0
            121.11852,22.89592,0
            121.11774,22.89652,0
            121.11708,22.89698,0
            121.11688,22.89709,0
            121.11663,22.89718,0
            121.11579,22.89737,0
            121.11561,22.89742,0
            121.1129,22.89795,0
            121.11081,22.89844,0
            121.1099,22.89863,0
            121.10902,22.89877,0
            121.10818,22.89884,0
            121.10668,22.89889,0
            121.1011,22.89932,0
            121.10021,22.89948,0
            121.09996,22.89948,0
            121.09986,22.89947,0
            121.09977,22.89947,0
            121.09969,22.89945,0
            121.0996,22.89944,0
            121.09835,22.89893,0
            121.09783,22.8987,0
            121.09694,22.89835,0
            121.09651,22.89815,0
            121.09641,22.89813,0
            121.0962,22.89804,0
            121.09602,22.89795,0
            121.09567,22.89772,0
            121.09553,22.89759,0
            121.09543,22.89745,0
            121.09536,22.89725,0
            121.09531,22.89699,0
            121.09518,22.89532,0
            121.09509,22.89451,0
            121.09507,22.89415,0
            121.09505,22.89397,0
            121.09504,22.89394,0
            121.09498,22.89362,0
            121.09491,22.89336,0
            121.09491,22.89325,0
            121.09465,22.89219,0
            121.09465,22.89217,0
            121.09457,22.89184,0
            121.09437,22.89115,0
            121.09437,22.89113,0
            121.0938,22.88941,0
            121.09376,22.88937,0
            121.09376,22.88936,0
            121.09368,22.88916,0
            121.09365,22.88896,0
            121.09365,22.88884,0
            121.09371,22.88858,0
            121.09375,22.8885,0
            121.09379,22.88825,0
            121.09382,22.88816,0
            121.09388,22.88805,0
            121.09404,22.88785,0
            121.09483,22.88714,0
            121.09486,22.88712,0
            121.09545,22.88664,0
            121.0956,22.88653,0
            121.09588,22.8863,0
            121.0959,22.88629,0
            121.0963,22.88598,0
            121.09648,22.88587,0
            121.09679,22.88565,0
            121.09698,22.88553,0
            121.09776,22.88499,0
            121.09815,22.8848,0
            121.09825,22.88476,0
            121.0983,22.88473,0
            121.09878,22.88454,0
            121.09896,22.88449,0
            121.09897,22.88449,0
            121.09916,22.88445,0
            121.09937,22.88446,0
            121.09944,22.88447,0
            121.09955,22.8845,0
            121.09956,22.8845,0
            121.09965,22.88453,0
            121.09972,22.88457,0
            121.09973,22.88457,0
            121.09989,22.88466,0
            121.09992,22.88467,0
            121.10009,22.88475,0
            121.10016,22.88477,0
            121.10022,22.88478,0
            121.10125,22.88483,0
            121.10199,22.88489,0
            121.1022,22.88492,0
            121.10234,22.88493,0
            121.10263,22.88498,0
            121.10333,22.88514,0
            121.10347,22.88518,0
            121.10358,22.88519,0
            121.10369,22.88521,0
            121.10377,22.8852,0
            121.10383,22.88518,0
            121.10401,22.88508,0
            121.10555,22.88393,0
            121.10599,22.88357,0
            121.1061,22.88344,0
            121.10617,22.88331,0
            121.10621,22.8832,0
            121.10622,22.88315,0
            121.10622,22.8829,0
            121.1062,22.8828,0
            121.10616,22.88273,0
            121.10615,22.8827,0
            121.10605,22.88259,0
            121.10602,22.88255,0
            121.10591,22.88246,0
            121.10499,22.88187,0
            121.10487,22.88175,0
            121.10481,22.88168,0
            121.10475,22.88157,0
            121.1047,22.88134,0
            121.10462,22.88117,0
            121.10446,22.88092,0
            121.10441,22.88086,0
            121.10425,22.8807,0
            121.1039,22.88043,0
            121.10335,22.88017,0
            121.1032,22.88004,0
            121.10317,22.88002,0
            121.10315,22.87999,0
            121.10307,22.87991,0
            121.10293,22.87969,0
            121.10289,22.87964,0
            121.10283,22.87953,0
            121.10278,22.87947,0
            121.10272,22.87929,0
            121.10268,22.87923,0
            121.10263,22.87918,0
            121.10255,22.87912,0
            121.10248,22.8791,0
            121.10243,22.87908,0
            121.10206,22.87906,0
            121.10192,22.87902,0
            121.10186,22.87898,0
            121.10178,22.8789,0
            121.10174,22.87885,0
            121.10167,22.87872,0
            121.10162,22.87865,0
            121.10151,22.87843,0
            121.10144,22.87825,0
            121.10131,22.87803,0
            121.10111,22.87776,0
            121.10095,22.87761,0
            121.10093,22.87753,0
            121.10045,22.87698,0
            121.0997,22.87603,0
            121.09963,22.87591,0
            121.09956,22.87572,0
            121.09953,22.87555,0
            121.09951,22.8751,0
            121.09949,22.87493,0
            121.0995,22.87451,0
            121.09948,22.87423,0
            121.09941,22.87385,0
            121.09934,22.87365,0
            121.09925,22.87334,0
            121.09908,22.873,0
            121.0989,22.87268,0
            121.09883,22.87258,0
            121.09879,22.87249,0
            121.09863,22.87219,0
            121.09861,22.87216,0
            121.0985,22.87185,0
            121.09842,22.8715,0
            121.09836,22.87101,0
            121.09811,22.86972,0
            121.0981,22.8696,0
            121.09806,22.86933,0
            121.09806,22.86922,0
            121.09812,22.86895,0
            121.09831,22.86848,0
            121.09899,22.86663,0
            121.09904,22.86637,0
            121.09904,22.86628,0
            121.09901,22.86607,0
            121.09891,22.86572,0
            121.09876,22.86548,0
            121.09845,22.86517,0
            121.098,22.86485,0
            121.09787,22.86477,0
            121.09764,22.86467,0
            121.09741,22.86461,0
            121.09647,22.86452,0
            121.09611,22.86446,0
            121.09589,22.8644,0
            121.09543,22.86423,0
            121.09509,22.86408,0
            121.09482,22.86389,0
            121.09456,22.8636,0
            121.09335,22.86204,0
            121.09306,22.86153,0
            121.09295,22.86128,0
            121.09253,22.85985,0
            121.09233,22.85925,0
            121.09229,22.85894,0
            121.09225,22.85786,0
            121.09226,22.85571,0
            121.09222,22.85441,0
            121.09215,22.85336,0
            121.09211,22.85164,0
            121.0921,22.85152,0
            121.09207,22.84995,0
            121.09203,22.84942,0
            121.09201,22.84854,0
            121.09199,22.8483,0
            121.092,22.84779,0
            121.09205,22.84747,0
            121.09213,22.84721,0
            121.09237,22.84657,0
            121.09336,22.84423,0
            121.09345,22.84392,0
            121.09349,22.84362,0
            121.09352,22.84123,0
            121.09353,22.84108,0
            121.09357,22.83883,0
            121.09356,22.83847,0
            121.09362,22.83448,0
            121.09371,22.83151,0
            121.09369,22.83108,0
            121.09368,22.82985,0
            121.09366,22.82947,0
            121.09364,22.82932,0
            121.09361,22.82917,0
            121.09351,22.82885,0
            121.09298,22.82775,0
            121.09226,22.82578,0
            121.09225,22.82574,0
            121.09139,22.82332,0
            121.09137,22.82329,0
            121.09091,22.82197,0
            121.0909,22.82192,0
            121.09052,22.8209,0
            121.09019,22.81987,0
            121.08936,22.81653,0
            121.08936,22.81649,0
            121.08923,22.81576,0
            121.08923,22.81573,0
            121.08919,22.81538,0
            121.08917,22.81494,0
            121.08921,22.81409,0
            121.08921,22.81319,0
            121.08923,22.81284,0
            121.08923,22.81253,0
            121.08927,22.8119,0
            121.08934,22.81155,0
            121.08954,22.81124,0
            121.08969,22.81108,0
            121.09149,22.80988,0
            121.0915,22.80986,0
            121.09169,22.80971,0
            121.09177,22.80962,0
            121.09181,22.80956,0
            121.09195,22.80927,0
            121.09209,22.80885,0
            121.09374,22.80263,0
            121.09398,22.80189,0
            121.09411,22.80164,0
            121.09444,22.80118,0
            121.09473,22.80091,0
            121.09453,22.80071,0
            121.09447,22.80066,0
            121.09438,22.80057,0
            121.0941,22.80033,0
            121.09441,22.79992,0
            121.09482,22.79934,0
            121.09628,22.79743,0
            121.09793,22.79517,0
            121.09794,22.79515,0
            121.10387,22.78751,0
            121.1039,22.78748,0
            121.10491,22.78616,0
            121.10592,22.78492,0
            121.10594,22.78489,0
            121.1099,22.78012,0
            121.10993,22.78009,0
            121.10993,22.78008,0
            121.11029,22.77963,0
            121.11103,22.77865,0
            121.11179,22.77773,0
            121.11193,22.77759,0
            121.11206,22.7775,0
            121.11224,22.7774,0
            121.1124,22.77735,0
            121.11288,22.77731,0
            121.11294,22.77731,0
            121.1141,22.77722,0
            121.11641,22.77711,0
            121.1174,22.77704,0
            121.11768,22.77698,0
            121.11814,22.77681,0
            121.12112,22.77556,0
            121.12266,22.77486,0
            121.12271,22.77483,0
            121.12425,22.77409,0
            121.12458,22.77391,0
            121.12607,22.7732,0
            121.12677,22.77283,0
            121.12844,22.77171,0
            121.13036,22.77032,0
            121.1307,22.77004,0
            121.13117,22.76962,0
            121.13148,22.76928,0
            121.13152,22.76922,0
            121.1316,22.76914,0
            121.13231,22.76827,0
            121.13287,22.76744,0
            121.13314,22.76692,0
            121.13333,22.7663,0
            121.13336,22.76623,0
            121.13343,22.76613,0
            121.13358,22.766,0
            121.13478,22.76474,0
            121.13517,22.76438,0
            121.13645,22.76305,0
            121.13667,22.76279,0
            121.13601,22.76225,0
            121.13598,22.76222,0
            121.13581,22.76209,0
            121.13562,22.76192,0
          </coordinates>
        </LineString>
      </Placemark>
      <Placemark>
        <name>983台灣花蓮縣富里鄉東里村大莊路183號</name>
        <styleUrl>#icon-1899-DB4436-nodesc</styleUrl>
        <Point>
          <coordinates>
            121.3073706,23.2700713,0
          </coordinates>
        </Point>
      </Placemark>
      <Placemark>
        <name>臺東縣池上鄉福文村鐵花路池上火車站</name>
        <styleUrl>#icon-1899-DB4436-nodesc</styleUrl>
        <Point>
          <coordinates>
            121.2194385,23.1259216,0
          </coordinates>
        </Point>
      </Placemark>
      <Placemark>
        <name>臺東縣鹿野鄉鹿野站</name>
        <styleUrl>#icon-1899-DB4436-nodesc</styleUrl>
        <Point>
          <coordinates>
            121.1369151,22.9124742,0
          </coordinates>
        </Point>
      </Placemark>
      <Placemark>
        <name>950台灣臺東縣臺東市光明里中興路二段138巷28弄10號</name>
        <styleUrl>#icon-1899-DB4436-nodesc</styleUrl>
        <Point>
          <coordinates>
            121.1315244,22.7692234,0
          </coordinates>
        </Point>
      </Placemark>
      <Placemark>
        <name>臺東縣臺東市馬蘭里新生路641巷臺東縣立新生國民中學</name>
        <styleUrl>#icon-1899-DB4436-nodesc</styleUrl>
        <Point>
          <coordinates>
            121.1356169,22.761917,0
          </coordinates>
        </Point>
      </Placemark>
    </Folder>
  </Document>
</kml>
