<?xml version="1.0" encoding="UTF-8"?>
<gpx version="1.1" creator="2026-routes" xmlns="http://www.topografix.com/GPX/1/1">
  <metadata>
    <name>台中到苗栗高中</name>
    <desc>臺中→崇德路→豐原→豐原大道→豐科路→后里→后科路→台13→三義→銅鑼→山線鐵路自行車道→苗28→貓貍山公園→公園路→苗栗高中</desc>
  </metadata>
  <trk>
    <name>Day 1 台中到苗栗高中</name>
    <trkseg>
      <trkpt lat="24.148750" lon="120.687480"></trkpt>
      <trkpt lat="24.148760" lon="120.687490"></trkpt>
      <trkpt lat="24.148860" lon="120.687490"></trkpt>
      <trkpt lat="24.148850" lon="120.687130"></trkpt>
      <trkpt lat="24.149690" lon="120.687540"></trkpt>
      <trkpt lat="24.152100" lon="120.688580"></trkpt>
      <trkpt lat="24.152340" lon="120.688660"></trkpt>
      <trkpt lat="24.153480" lon="120.689100"></trkpt>
      <trkpt lat="24.153520" lon="120.689110"></trkpt>
      <trkpt lat="24.155760" lon="120.690030"></trkpt>
      <trkpt lat="24.156470" lon="120.690290"></trkpt>
      <trkpt lat="24.157940" lon="120.690920"></trkpt>
      <trkpt lat="24.158320" lon="120.691060"></trkpt>
      <trkpt lat="24.158960" lon="120.691330"></trkpt>
      <trkpt lat="24.159110" lon="120.691410"></trkpt>
      <trkpt lat="24.160150" lon="120.691830"></trkpt>
      <trkpt lat="24.162340" lon="120.692790"></trkpt>
      <trkpt lat="24.165610" lon="120.694670"></trkpt>
      <trkpt lat="24.169050" lon="120.696930"></trkpt>
      <trkpt lat="24.170230" lon="120.697660"></trkpt>
      <trkpt lat="24.170350" lon="120.697750"></trkpt>
      <trkpt lat="24.171050" lon="120.698180"></trkpt>
      <trkpt lat="24.171170" lon="120.698230"></trkpt>
      <trkpt lat="24.171180" lon="120.698230"></trkpt>
      <trkpt lat="24.171260" lon="120.698270"></trkpt>
      <trkpt lat="24.171520" lon="120.698360"></trkpt>
      <trkpt lat="24.171770" lon="120.698380"></trkpt>
      <trkpt lat="24.172950" lon="120.698330"></trkpt>
      <trkpt lat="24.173560" lon="120.698360"></trkpt>
      <trkpt lat="24.173760" lon="120.698400"></trkpt>
      <trkpt lat="24.175870" lon="120.699310"></trkpt>
      <trkpt lat="24.178480" lon="120.700550"></trkpt>
      <trkpt lat="24.179490" lon="120.700950"></trkpt>
      <trkpt lat="24.180470" lon="120.701390"></trkpt>
      <trkpt lat="24.180990" lon="120.701580"></trkpt>
      <trkpt lat="24.181570" lon="120.701830"></trkpt>
      <trkpt lat="24.181790" lon="120.701900"></trkpt>
      <trkpt lat="24.181960" lon="120.701940"></trkpt>
      <trkpt lat="24.182040" lon="120.701950"></trkpt>
      <trkpt lat="24.182050" lon="120.701970"></trkpt>
      <trkpt lat="24.182060" lon="120.702040"></trkpt>
      <trkpt lat="24.182210" lon="120.702060"></trkpt>
      <trkpt lat="24.182330" lon="120.702170"></trkpt>
      <trkpt lat="24.184640" lon="120.702490"></trkpt>
      <trkpt lat="24.184650" lon="120.702500"></trkpt>
      <trkpt lat="24.185710" lon="120.702610"></trkpt>
      <trkpt lat="24.186200" lon="120.702640"></trkpt>
      <trkpt lat="24.186370" lon="120.702620"></trkpt>
      <trkpt lat="24.186470" lon="120.702620"></trkpt>
      <trkpt lat="24.186520" lon="120.702630"></trkpt>
      <trkpt lat="24.186610" lon="120.702680"></trkpt>
      <trkpt lat="24.187140" lon="120.702710"></trkpt>
      <trkpt lat="24.187440" lon="120.702750"></trkpt>
      <trkpt lat="24.187750" lon="120.702820"></trkpt>
      <trkpt lat="24.188180" lon="120.702850"></trkpt>
      <trkpt lat="24.189550" lon="120.703040"></trkpt>
      <trkpt lat="24.189670" lon="120.703080"></trkpt>
      <trkpt lat="24.190760" lon="120.703220"></trkpt>
      <trkpt lat="24.190830" lon="120.703200"></trkpt>
      <trkpt lat="24.192140" lon="120.703480"></trkpt>
      <trkpt lat="24.193870" lon="120.703730"></trkpt>
      <trkpt lat="24.194420" lon="120.703840"></trkpt>
      <trkpt lat="24.195200" lon="120.703950"></trkpt>
      <trkpt lat="24.195240" lon="120.703960"></trkpt>
      <trkpt lat="24.195980" lon="120.704050"></trkpt>
      <trkpt lat="24.196330" lon="120.704070"></trkpt>
      <trkpt lat="24.196500" lon="120.704100"></trkpt>
      <trkpt lat="24.197480" lon="120.704220"></trkpt>
      <trkpt lat="24.198470" lon="120.704370"></trkpt>
      <trkpt lat="24.198510" lon="120.704370"></trkpt>
      <trkpt lat="24.198650" lon="120.704400"></trkpt>
      <trkpt lat="24.199190" lon="120.704480"></trkpt>
      <trkpt lat="24.199220" lon="120.704480"></trkpt>
      <trkpt lat="24.199690" lon="120.704550"></trkpt>
      <trkpt lat="24.200440" lon="120.704610"></trkpt>
      <trkpt lat="24.200720" lon="120.704650"></trkpt>
      <trkpt lat="24.200940" lon="120.704700"></trkpt>
      <trkpt lat="24.202420" lon="120.704890"></trkpt>
      <trkpt lat="24.202570" lon="120.704920"></trkpt>
      <trkpt lat="24.203470" lon="120.705030"></trkpt>
      <trkpt lat="24.207150" lon="120.705380"></trkpt>
      <trkpt lat="24.207180" lon="120.705390"></trkpt>
      <trkpt lat="24.209890" lon="120.705630"></trkpt>
      <trkpt lat="24.211540" lon="120.705840"></trkpt>
      <trkpt lat="24.218490" lon="120.706430"></trkpt>
      <trkpt lat="24.218560" lon="120.706430"></trkpt>
      <trkpt lat="24.220280" lon="120.706580"></trkpt>
      <trkpt lat="24.223040" lon="120.707290"></trkpt>
      <trkpt lat="24.223510" lon="120.707380"></trkpt>
      <trkpt lat="24.224660" lon="120.707700"></trkpt>
      <trkpt lat="24.224840" lon="120.707740"></trkpt>
      <trkpt lat="24.225210" lon="120.707850"></trkpt>
      <trkpt lat="24.226940" lon="120.708260"></trkpt>
      <trkpt lat="24.226950" lon="120.708250"></trkpt>
      <trkpt lat="24.227600" lon="120.708440"></trkpt>
      <trkpt lat="24.227700" lon="120.708460"></trkpt>
      <trkpt lat="24.227810" lon="120.708470"></trkpt>
      <trkpt lat="24.228660" lon="120.708680"></trkpt>
      <trkpt lat="24.228700" lon="120.708700"></trkpt>
      <trkpt lat="24.229190" lon="120.708810"></trkpt>
      <trkpt lat="24.230010" lon="120.709030"></trkpt>
      <trkpt lat="24.230330" lon="120.709130"></trkpt>
      <trkpt lat="24.231220" lon="120.709340"></trkpt>
      <trkpt lat="24.231630" lon="120.709470"></trkpt>
      <trkpt lat="24.232880" lon="120.709950"></trkpt>
      <trkpt lat="24.233010" lon="120.710010"></trkpt>
      <trkpt lat="24.233800" lon="120.710300"></trkpt>
      <trkpt lat="24.234530" lon="120.710600"></trkpt>
      <trkpt lat="24.234540" lon="120.710600"></trkpt>
      <trkpt lat="24.236190" lon="120.711250"></trkpt>
      <trkpt lat="24.236230" lon="120.711260"></trkpt>
      <trkpt lat="24.236300" lon="120.711300"></trkpt>
      <trkpt lat="24.236400" lon="120.711330"></trkpt>
      <trkpt lat="24.237050" lon="120.711600"></trkpt>
      <trkpt lat="24.237150" lon="120.711630"></trkpt>
      <trkpt lat="24.237730" lon="120.711860"></trkpt>
      <trkpt lat="24.237750" lon="120.711860"></trkpt>
      <trkpt lat="24.237900" lon="120.711920"></trkpt>
      <trkpt lat="24.237910" lon="120.711930"></trkpt>
      <trkpt lat="24.238930" lon="120.712320"></trkpt>
      <trkpt lat="24.239070" lon="120.712400"></trkpt>
      <trkpt lat="24.239590" lon="120.712600"></trkpt>
      <trkpt lat="24.240600" lon="120.713040"></trkpt>
      <trkpt lat="24.241530" lon="120.713530"></trkpt>
      <trkpt lat="24.241670" lon="120.713620"></trkpt>
      <trkpt lat="24.241680" lon="120.713620"></trkpt>
      <trkpt lat="24.241690" lon="120.713630"></trkpt>
      <trkpt lat="24.241840" lon="120.713720"></trkpt>
      <trkpt lat="24.241980" lon="120.713790"></trkpt>
      <trkpt lat="24.242380" lon="120.714120"></trkpt>
      <trkpt lat="24.244110" lon="120.715710"></trkpt>
      <trkpt lat="24.244370" lon="120.715930"></trkpt>
      <trkpt lat="24.245230" lon="120.716730"></trkpt>
      <trkpt lat="24.245760" lon="120.717190"></trkpt>
      <trkpt lat="24.245970" lon="120.717420"></trkpt>
      <trkpt lat="24.246060" lon="120.717370"></trkpt>
      <trkpt lat="24.248020" lon="120.719240"></trkpt>
      <trkpt lat="24.249290" lon="120.720520"></trkpt>
      <trkpt lat="24.250110" lon="120.721110"></trkpt>
      <trkpt lat="24.250270" lon="120.721210"></trkpt>
      <trkpt lat="24.250720" lon="120.721530"></trkpt>
      <trkpt lat="24.251090" lon="120.721770"></trkpt>
      <trkpt lat="24.251830" lon="120.722190"></trkpt>
      <trkpt lat="24.251980" lon="120.722290"></trkpt>
      <trkpt lat="24.252920" lon="120.722830"></trkpt>
      <trkpt lat="24.252940" lon="120.722850"></trkpt>
      <trkpt lat="24.253880" lon="120.723420"></trkpt>
      <trkpt lat="24.254060" lon="120.723510"></trkpt>
      <trkpt lat="24.254230" lon="120.723610"></trkpt>
      <trkpt lat="24.254400" lon="120.723690"></trkpt>
      <trkpt lat="24.255540" lon="120.724340"></trkpt>
      <trkpt lat="24.255740" lon="120.723930"></trkpt>
      <trkpt lat="24.256030" lon="120.724150"></trkpt>
      <trkpt lat="24.256400" lon="120.724500"></trkpt>
      <trkpt lat="24.256920" lon="120.724820"></trkpt>
      <trkpt lat="24.256970" lon="120.724860"></trkpt>
      <trkpt lat="24.257080" lon="120.725010"></trkpt>
      <trkpt lat="24.258190" lon="120.725920"></trkpt>
      <trkpt lat="24.258480" lon="120.726300"></trkpt>
      <trkpt lat="24.258580" lon="120.726410"></trkpt>
      <trkpt lat="24.258920" lon="120.726840"></trkpt>
      <trkpt lat="24.258980" lon="120.726820"></trkpt>
      <trkpt lat="24.259350" lon="120.727340"></trkpt>
      <trkpt lat="24.259390" lon="120.727410"></trkpt>
      <trkpt lat="24.261610" lon="120.730310"></trkpt>
      <trkpt lat="24.262140" lon="120.730900"></trkpt>
      <trkpt lat="24.263100" lon="120.732150"></trkpt>
      <trkpt lat="24.263200" lon="120.732260"></trkpt>
      <trkpt lat="24.264050" lon="120.733480"></trkpt>
      <trkpt lat="24.264770" lon="120.734430"></trkpt>
      <trkpt lat="24.264800" lon="120.734490"></trkpt>
      <trkpt lat="24.264870" lon="120.734550"></trkpt>
      <trkpt lat="24.265020" lon="120.734710"></trkpt>
      <trkpt lat="24.265050" lon="120.734730"></trkpt>
      <trkpt lat="24.265160" lon="120.734840"></trkpt>
      <trkpt lat="24.265300" lon="120.734960"></trkpt>
      <trkpt lat="24.265500" lon="120.735110"></trkpt>
      <trkpt lat="24.266210" lon="120.735590"></trkpt>
      <trkpt lat="24.266670" lon="120.735850"></trkpt>
      <trkpt lat="24.267050" lon="120.736020"></trkpt>
      <trkpt lat="24.267130" lon="120.736070"></trkpt>
      <trkpt lat="24.267190" lon="120.735910"></trkpt>
      <trkpt lat="24.267280" lon="120.735610"></trkpt>
      <trkpt lat="24.267290" lon="120.735540"></trkpt>
      <trkpt lat="24.267310" lon="120.735470"></trkpt>
      <trkpt lat="24.267310" lon="120.735430"></trkpt>
      <trkpt lat="24.267340" lon="120.735230"></trkpt>
      <trkpt lat="24.267370" lon="120.735130"></trkpt>
      <trkpt lat="24.267400" lon="120.735080"></trkpt>
      <trkpt lat="24.267930" lon="120.734420"></trkpt>
      <trkpt lat="24.267940" lon="120.734400"></trkpt>
      <trkpt lat="24.267970" lon="120.734370"></trkpt>
      <trkpt lat="24.267990" lon="120.734330"></trkpt>
      <trkpt lat="24.268090" lon="120.734180"></trkpt>
      <trkpt lat="24.268200" lon="120.734040"></trkpt>
      <trkpt lat="24.268260" lon="120.733980"></trkpt>
      <trkpt lat="24.268440" lon="120.733850"></trkpt>
      <trkpt lat="24.268560" lon="120.733740"></trkpt>
      <trkpt lat="24.268650" lon="120.734040"></trkpt>
      <trkpt lat="24.268770" lon="120.734370"></trkpt>
      <trkpt lat="24.268840" lon="120.734650"></trkpt>
      <trkpt lat="24.268860" lon="120.734810"></trkpt>
      <trkpt lat="24.268860" lon="120.734910"></trkpt>
      <trkpt lat="24.268840" lon="120.735030"></trkpt>
      <trkpt lat="24.268530" lon="120.736040"></trkpt>
      <trkpt lat="24.268510" lon="120.736130"></trkpt>
      <trkpt lat="24.268500" lon="120.736240"></trkpt>
      <trkpt lat="24.268490" lon="120.736790"></trkpt>
      <trkpt lat="24.268520" lon="120.736860"></trkpt>
      <trkpt lat="24.268570" lon="120.736910"></trkpt>
      <trkpt lat="24.268730" lon="120.737040"></trkpt>
      <trkpt lat="24.268780" lon="120.737060"></trkpt>
      <trkpt lat="24.269100" lon="120.737230"></trkpt>
      <trkpt lat="24.269430" lon="120.737370"></trkpt>
      <trkpt lat="24.269820" lon="120.737510"></trkpt>
      <trkpt lat="24.270480" lon="120.737710"></trkpt>
      <trkpt lat="24.271070" lon="120.737840"></trkpt>
      <trkpt lat="24.272600" lon="120.737950"></trkpt>
      <trkpt lat="24.272980" lon="120.737930"></trkpt>
      <trkpt lat="24.273300" lon="120.737930"></trkpt>
      <trkpt lat="24.273370" lon="120.738060"></trkpt>
      <trkpt lat="24.273600" lon="120.738660"></trkpt>
      <trkpt lat="24.273710" lon="120.738990"></trkpt>
      <trkpt lat="24.273750" lon="120.739140"></trkpt>
      <trkpt lat="24.273990" lon="120.739750"></trkpt>
      <trkpt lat="24.274090" lon="120.740160"></trkpt>
      <trkpt lat="24.274110" lon="120.740450"></trkpt>
      <trkpt lat="24.274210" lon="120.741170"></trkpt>
      <trkpt lat="24.274430" lon="120.741960"></trkpt>
      <trkpt lat="24.274440" lon="120.742030"></trkpt>
      <trkpt lat="24.274430" lon="120.742750"></trkpt>
      <trkpt lat="24.274390" lon="120.743180"></trkpt>
      <trkpt lat="24.274390" lon="120.743250"></trkpt>
      <trkpt lat="24.274410" lon="120.743330"></trkpt>
      <trkpt lat="24.274400" lon="120.743390"></trkpt>
      <trkpt lat="24.274400" lon="120.743450"></trkpt>
      <trkpt lat="24.274420" lon="120.743540"></trkpt>
      <trkpt lat="24.274450" lon="120.743610"></trkpt>
      <trkpt lat="24.274560" lon="120.743970"></trkpt>
      <trkpt lat="24.274630" lon="120.744120"></trkpt>
      <trkpt lat="24.274640" lon="120.744130"></trkpt>
      <trkpt lat="24.274650" lon="120.744150"></trkpt>
      <trkpt lat="24.274660" lon="120.744150"></trkpt>
      <trkpt lat="24.274690" lon="120.744160"></trkpt>
      <trkpt lat="24.274700" lon="120.744200"></trkpt>
      <trkpt lat="24.274650" lon="120.744260"></trkpt>
      <trkpt lat="24.274830" lon="120.744510"></trkpt>
      <trkpt lat="24.275010" lon="120.744700"></trkpt>
      <trkpt lat="24.275580" lon="120.745210"></trkpt>
      <trkpt lat="24.275800" lon="120.745370"></trkpt>
      <trkpt lat="24.275960" lon="120.745470"></trkpt>
      <trkpt lat="24.276220" lon="120.745610"></trkpt>
      <trkpt lat="24.276600" lon="120.745790"></trkpt>
      <trkpt lat="24.276830" lon="120.745860"></trkpt>
      <trkpt lat="24.276880" lon="120.745870"></trkpt>
      <trkpt lat="24.276970" lon="120.745900"></trkpt>
      <trkpt lat="24.277310" lon="120.745970"></trkpt>
      <trkpt lat="24.278020" lon="120.746070"></trkpt>
      <trkpt lat="24.278200" lon="120.746070"></trkpt>
      <trkpt lat="24.278320" lon="120.746080"></trkpt>
      <trkpt lat="24.280920" lon="120.745710"></trkpt>
      <trkpt lat="24.282470" lon="120.745550"></trkpt>
      <trkpt lat="24.284820" lon="120.743770"></trkpt>
      <trkpt lat="24.285700" lon="120.743040"></trkpt>
      <trkpt lat="24.285850" lon="120.742930"></trkpt>
      <trkpt lat="24.286210" lon="120.742630"></trkpt>
      <trkpt lat="24.289230" lon="120.738090"></trkpt>
      <trkpt lat="24.289270" lon="120.738040"></trkpt>
      <trkpt lat="24.289440" lon="120.737540"></trkpt>
      <trkpt lat="24.289500" lon="120.737010"></trkpt>
      <trkpt lat="24.289520" lon="120.736200"></trkpt>
      <trkpt lat="24.289950" lon="120.735430"></trkpt>
      <trkpt lat="24.289960" lon="120.735390"></trkpt>
      <trkpt lat="24.289960" lon="120.735340"></trkpt>
      <trkpt lat="24.289940" lon="120.735240"></trkpt>
      <trkpt lat="24.289930" lon="120.735140"></trkpt>
      <trkpt lat="24.289930" lon="120.735050"></trkpt>
      <trkpt lat="24.289950" lon="120.734990"></trkpt>
      <trkpt lat="24.289970" lon="120.734960"></trkpt>
      <trkpt lat="24.289980" lon="120.734930"></trkpt>
      <trkpt lat="24.290020" lon="120.734860"></trkpt>
      <trkpt lat="24.290050" lon="120.734820"></trkpt>
      <trkpt lat="24.290060" lon="120.734800"></trkpt>
      <trkpt lat="24.290100" lon="120.734750"></trkpt>
      <trkpt lat="24.290220" lon="120.734650"></trkpt>
      <trkpt lat="24.290240" lon="120.734620"></trkpt>
      <trkpt lat="24.290270" lon="120.734600"></trkpt>
      <trkpt lat="24.290290" lon="120.734580"></trkpt>
      <trkpt lat="24.290330" lon="120.734510"></trkpt>
      <trkpt lat="24.290340" lon="120.734500"></trkpt>
      <trkpt lat="24.290360" lon="120.734450"></trkpt>
      <trkpt lat="24.290360" lon="120.734430"></trkpt>
      <trkpt lat="24.290390" lon="120.734380"></trkpt>
      <trkpt lat="24.290400" lon="120.734330"></trkpt>
      <trkpt lat="24.290410" lon="120.734330"></trkpt>
      <trkpt lat="24.290480" lon="120.734110"></trkpt>
      <trkpt lat="24.290580" lon="120.733870"></trkpt>
      <trkpt lat="24.290700" lon="120.733630"></trkpt>
      <trkpt lat="24.290800" lon="120.733480"></trkpt>
      <trkpt lat="24.290820" lon="120.733460"></trkpt>
      <trkpt lat="24.290930" lon="120.733290"></trkpt>
      <trkpt lat="24.290930" lon="120.733270"></trkpt>
      <trkpt lat="24.290940" lon="120.733240"></trkpt>
      <trkpt lat="24.290940" lon="120.733150"></trkpt>
      <trkpt lat="24.290930" lon="120.733130"></trkpt>
      <trkpt lat="24.290930" lon="120.733080"></trkpt>
      <trkpt lat="24.290920" lon="120.733050"></trkpt>
      <trkpt lat="24.290920" lon="120.732920"></trkpt>
      <trkpt lat="24.290930" lon="120.732880"></trkpt>
      <trkpt lat="24.290930" lon="120.732840"></trkpt>
      <trkpt lat="24.290950" lon="120.732780"></trkpt>
      <trkpt lat="24.290950" lon="120.732760"></trkpt>
      <trkpt lat="24.290960" lon="120.732760"></trkpt>
      <trkpt lat="24.290960" lon="120.732740"></trkpt>
      <trkpt lat="24.290970" lon="120.732740"></trkpt>
      <trkpt lat="24.290980" lon="120.732730"></trkpt>
      <trkpt lat="24.291020" lon="120.732730"></trkpt>
      <trkpt lat="24.291080" lon="120.732720"></trkpt>
      <trkpt lat="24.292570" lon="120.732690"></trkpt>
      <trkpt lat="24.293660" lon="120.732580"></trkpt>
      <trkpt lat="24.294210" lon="120.732470"></trkpt>
      <trkpt lat="24.294260" lon="120.732470"></trkpt>
      <trkpt lat="24.294370" lon="120.732490"></trkpt>
      <trkpt lat="24.294460" lon="120.732490"></trkpt>
      <trkpt lat="24.294660" lon="120.732460"></trkpt>
      <trkpt lat="24.295660" lon="120.732400"></trkpt>
      <trkpt lat="24.295790" lon="120.732400"></trkpt>
      <trkpt lat="24.295840" lon="120.732410"></trkpt>
      <trkpt lat="24.295930" lon="120.732410"></trkpt>
      <trkpt lat="24.296020" lon="120.732420"></trkpt>
      <trkpt lat="24.296070" lon="120.732410"></trkpt>
      <trkpt lat="24.296140" lon="120.732410"></trkpt>
      <trkpt lat="24.296280" lon="120.732380"></trkpt>
      <trkpt lat="24.296300" lon="120.732370"></trkpt>
      <trkpt lat="24.296370" lon="120.732370"></trkpt>
      <trkpt lat="24.296390" lon="120.732380"></trkpt>
      <trkpt lat="24.296410" lon="120.732380"></trkpt>
      <trkpt lat="24.296430" lon="120.732390"></trkpt>
      <trkpt lat="24.296520" lon="120.732460"></trkpt>
      <trkpt lat="24.296540" lon="120.732460"></trkpt>
      <trkpt lat="24.296540" lon="120.732470"></trkpt>
      <trkpt lat="24.296560" lon="120.732470"></trkpt>
      <trkpt lat="24.296630" lon="120.732490"></trkpt>
      <trkpt lat="24.296660" lon="120.732490"></trkpt>
      <trkpt lat="24.296710" lon="120.732480"></trkpt>
      <trkpt lat="24.296760" lon="120.732480"></trkpt>
      <trkpt lat="24.296870" lon="120.732460"></trkpt>
      <trkpt lat="24.297070" lon="120.732460"></trkpt>
      <trkpt lat="24.297130" lon="120.732470"></trkpt>
      <trkpt lat="24.297610" lon="120.732450"></trkpt>
      <trkpt lat="24.298150" lon="120.732400"></trkpt>
      <trkpt lat="24.298250" lon="120.732400"></trkpt>
      <trkpt lat="24.298520" lon="120.732380"></trkpt>
      <trkpt lat="24.298510" lon="120.732230"></trkpt>
      <trkpt lat="24.300100" lon="120.732130"></trkpt>
      <trkpt lat="24.300660" lon="120.732130"></trkpt>
      <trkpt lat="24.300990" lon="120.732170"></trkpt>
      <trkpt lat="24.301010" lon="120.732180"></trkpt>
      <trkpt lat="24.301080" lon="120.732190"></trkpt>
      <trkpt lat="24.301140" lon="120.732210"></trkpt>
      <trkpt lat="24.301600" lon="120.732470"></trkpt>
      <trkpt lat="24.301680" lon="120.732540"></trkpt>
      <trkpt lat="24.302000" lon="120.732870"></trkpt>
      <trkpt lat="24.302000" lon="120.732880"></trkpt>
      <trkpt lat="24.302220" lon="120.733130"></trkpt>
      <trkpt lat="24.302440" lon="120.733420"></trkpt>
      <trkpt lat="24.302690" lon="120.733710"></trkpt>
      <trkpt lat="24.302940" lon="120.733970"></trkpt>
      <trkpt lat="24.303360" lon="120.734470"></trkpt>
      <trkpt lat="24.303670" lon="120.734740"></trkpt>
      <trkpt lat="24.304110" lon="120.734990"></trkpt>
      <trkpt lat="24.304240" lon="120.735040"></trkpt>
      <trkpt lat="24.304420" lon="120.735080"></trkpt>
      <trkpt lat="24.304670" lon="120.735110"></trkpt>
      <trkpt lat="24.306060" lon="120.735120"></trkpt>
      <trkpt lat="24.306110" lon="120.735130"></trkpt>
      <trkpt lat="24.306360" lon="120.735140"></trkpt>
      <trkpt lat="24.306650" lon="120.735180"></trkpt>
      <trkpt lat="24.307000" lon="120.735260"></trkpt>
      <trkpt lat="24.307170" lon="120.735320"></trkpt>
      <trkpt lat="24.307180" lon="120.735320"></trkpt>
      <trkpt lat="24.307690" lon="120.735510"></trkpt>
      <trkpt lat="24.309090" lon="120.736360"></trkpt>
      <trkpt lat="24.309270" lon="120.736440"></trkpt>
      <trkpt lat="24.309320" lon="120.736470"></trkpt>
      <trkpt lat="24.309650" lon="120.736620"></trkpt>
      <trkpt lat="24.309880" lon="120.736700"></trkpt>
      <trkpt lat="24.311440" lon="120.737090"></trkpt>
      <trkpt lat="24.311820" lon="120.737200"></trkpt>
      <trkpt lat="24.312040" lon="120.737300"></trkpt>
      <trkpt lat="24.312240" lon="120.737420"></trkpt>
      <trkpt lat="24.312380" lon="120.737530"></trkpt>
      <trkpt lat="24.312390" lon="120.737530"></trkpt>
      <trkpt lat="24.312490" lon="120.737630"></trkpt>
      <trkpt lat="24.312680" lon="120.737880"></trkpt>
      <trkpt lat="24.312900" lon="120.738260"></trkpt>
      <trkpt lat="24.313050" lon="120.738590"></trkpt>
      <trkpt lat="24.313290" lon="120.739250"></trkpt>
      <trkpt lat="24.313410" lon="120.739490"></trkpt>
      <trkpt lat="24.313510" lon="120.739630"></trkpt>
      <trkpt lat="24.313650" lon="120.739790"></trkpt>
      <trkpt lat="24.313790" lon="120.739900"></trkpt>
      <trkpt lat="24.313990" lon="120.740080"></trkpt>
      <trkpt lat="24.314070" lon="120.740130"></trkpt>
      <trkpt lat="24.314270" lon="120.740220"></trkpt>
      <trkpt lat="24.314440" lon="120.740270"></trkpt>
      <trkpt lat="24.314560" lon="120.740290"></trkpt>
      <trkpt lat="24.314830" lon="120.740300"></trkpt>
      <trkpt lat="24.315020" lon="120.740270"></trkpt>
      <trkpt lat="24.315320" lon="120.740170"></trkpt>
      <trkpt lat="24.315440" lon="120.740110"></trkpt>
      <trkpt lat="24.315650" lon="120.739980"></trkpt>
      <trkpt lat="24.315780" lon="120.739880"></trkpt>
      <trkpt lat="24.316080" lon="120.739550"></trkpt>
      <trkpt lat="24.316470" lon="120.739070"></trkpt>
      <trkpt lat="24.316980" lon="120.738510"></trkpt>
      <trkpt lat="24.318320" lon="120.737220"></trkpt>
      <trkpt lat="24.318510" lon="120.736970"></trkpt>
      <trkpt lat="24.318650" lon="120.736710"></trkpt>
      <trkpt lat="24.318870" lon="120.736160"></trkpt>
      <trkpt lat="24.319750" lon="120.732540"></trkpt>
      <trkpt lat="24.321100" lon="120.727370"></trkpt>
      <trkpt lat="24.321260" lon="120.726410"></trkpt>
      <trkpt lat="24.321290" lon="120.725220"></trkpt>
      <trkpt lat="24.321440" lon="120.725110"></trkpt>
      <trkpt lat="24.321480" lon="120.725050"></trkpt>
      <trkpt lat="24.321820" lon="120.724850"></trkpt>
      <trkpt lat="24.322050" lon="120.724670"></trkpt>
      <trkpt lat="24.323230" lon="120.723830"></trkpt>
      <trkpt lat="24.323450" lon="120.723720"></trkpt>
      <trkpt lat="24.323610" lon="120.723670"></trkpt>
      <trkpt lat="24.323670" lon="120.723690"></trkpt>
      <trkpt lat="24.323730" lon="120.723660"></trkpt>
      <trkpt lat="24.324270" lon="120.723570"></trkpt>
      <trkpt lat="24.324280" lon="120.723560"></trkpt>
      <trkpt lat="24.325260" lon="120.723540"></trkpt>
      <trkpt lat="24.325400" lon="120.723560"></trkpt>
      <trkpt lat="24.325530" lon="120.723610"></trkpt>
      <trkpt lat="24.325770" lon="120.723760"></trkpt>
      <trkpt lat="24.325800" lon="120.723790"></trkpt>
      <trkpt lat="24.325910" lon="120.723960"></trkpt>
      <trkpt lat="24.325950" lon="120.724080"></trkpt>
      <trkpt lat="24.325970" lon="120.724190"></trkpt>
      <trkpt lat="24.325980" lon="120.724320"></trkpt>
      <trkpt lat="24.325940" lon="120.724610"></trkpt>
      <trkpt lat="24.325890" lon="120.724790"></trkpt>
      <trkpt lat="24.325290" lon="120.726440"></trkpt>
      <trkpt lat="24.325270" lon="120.726520"></trkpt>
      <trkpt lat="24.325260" lon="120.726600"></trkpt>
      <trkpt lat="24.325260" lon="120.726880"></trkpt>
      <trkpt lat="24.325300" lon="120.727170"></trkpt>
      <trkpt lat="24.325350" lon="120.727380"></trkpt>
      <trkpt lat="24.325510" lon="120.727860"></trkpt>
      <trkpt lat="24.325590" lon="120.728040"></trkpt>
      <trkpt lat="24.325790" lon="120.728290"></trkpt>
      <trkpt lat="24.325750" lon="120.728600"></trkpt>
      <trkpt lat="24.325790" lon="120.728290"></trkpt>
      <trkpt lat="24.325880" lon="120.728290"></trkpt>
      <trkpt lat="24.325970" lon="120.728360"></trkpt>
      <trkpt lat="24.326040" lon="120.728390"></trkpt>
      <trkpt lat="24.326200" lon="120.728440"></trkpt>
      <trkpt lat="24.326540" lon="120.728520"></trkpt>
      <trkpt lat="24.327210" lon="120.728710"></trkpt>
      <trkpt lat="24.328520" lon="120.729000"></trkpt>
      <trkpt lat="24.329870" lon="120.729370"></trkpt>
      <trkpt lat="24.331950" lon="120.729880"></trkpt>
      <trkpt lat="24.333200" lon="120.730120"></trkpt>
      <trkpt lat="24.337020" lon="120.731080"></trkpt>
      <trkpt lat="24.337290" lon="120.731130"></trkpt>
      <trkpt lat="24.338290" lon="120.731450"></trkpt>
      <trkpt lat="24.338660" lon="120.731540"></trkpt>
      <trkpt lat="24.338950" lon="120.731590"></trkpt>
      <trkpt lat="24.339500" lon="120.731720"></trkpt>
      <trkpt lat="24.340030" lon="120.731790"></trkpt>
      <trkpt lat="24.341720" lon="120.732200"></trkpt>
      <trkpt lat="24.341770" lon="120.732220"></trkpt>
      <trkpt lat="24.343280" lon="120.732640"></trkpt>
      <trkpt lat="24.343980" lon="120.732880"></trkpt>
      <trkpt lat="24.344150" lon="120.732960"></trkpt>
      <trkpt lat="24.344770" lon="120.733130"></trkpt>
      <trkpt lat="24.344930" lon="120.733160"></trkpt>
      <trkpt lat="24.344940" lon="120.733170"></trkpt>
      <trkpt lat="24.348290" lon="120.734120"></trkpt>
      <trkpt lat="24.351590" lon="120.735000"></trkpt>
      <trkpt lat="24.351610" lon="120.735010"></trkpt>
      <trkpt lat="24.352580" lon="120.735270"></trkpt>
      <trkpt lat="24.352620" lon="120.735290"></trkpt>
      <trkpt lat="24.354300" lon="120.735750"></trkpt>
      <trkpt lat="24.354500" lon="120.735770"></trkpt>
      <trkpt lat="24.354530" lon="120.735780"></trkpt>
      <trkpt lat="24.355360" lon="120.735860"></trkpt>
      <trkpt lat="24.355810" lon="120.735930"></trkpt>
      <trkpt lat="24.355830" lon="120.735940"></trkpt>
      <trkpt lat="24.355870" lon="120.735940"></trkpt>
      <trkpt lat="24.356110" lon="120.736000"></trkpt>
      <trkpt lat="24.356220" lon="120.736050"></trkpt>
      <trkpt lat="24.356340" lon="120.736090"></trkpt>
      <trkpt lat="24.356550" lon="120.736200"></trkpt>
      <trkpt lat="24.356640" lon="120.736260"></trkpt>
      <trkpt lat="24.357380" lon="120.736830"></trkpt>
      <trkpt lat="24.357460" lon="120.736910"></trkpt>
      <trkpt lat="24.358490" lon="120.737810"></trkpt>
      <trkpt lat="24.358490" lon="120.737820"></trkpt>
      <trkpt lat="24.358600" lon="120.737920"></trkpt>
      <trkpt lat="24.358630" lon="120.737940"></trkpt>
      <trkpt lat="24.359180" lon="120.738440"></trkpt>
      <trkpt lat="24.359330" lon="120.738540"></trkpt>
      <trkpt lat="24.359770" lon="120.738870"></trkpt>
      <trkpt lat="24.359990" lon="120.738970"></trkpt>
      <trkpt lat="24.360060" lon="120.739010"></trkpt>
      <trkpt lat="24.360210" lon="120.739070"></trkpt>
      <trkpt lat="24.360500" lon="120.739120"></trkpt>
      <trkpt lat="24.360660" lon="120.739110"></trkpt>
      <trkpt lat="24.360910" lon="120.739050"></trkpt>
      <trkpt lat="24.361360" lon="120.738970"></trkpt>
      <trkpt lat="24.361520" lon="120.738980"></trkpt>
      <trkpt lat="24.361660" lon="120.739000"></trkpt>
      <trkpt lat="24.361870" lon="120.739090"></trkpt>
      <trkpt lat="24.362020" lon="120.739180"></trkpt>
      <trkpt lat="24.362740" lon="120.739810"></trkpt>
      <trkpt lat="24.363560" lon="120.740480"></trkpt>
      <trkpt lat="24.363650" lon="120.740510"></trkpt>
      <trkpt lat="24.367590" lon="120.743760"></trkpt>
      <trkpt lat="24.369580" lon="120.745190"></trkpt>
      <trkpt lat="24.370840" lon="120.746040"></trkpt>
      <trkpt lat="24.372140" lon="120.746780"></trkpt>
      <trkpt lat="24.372300" lon="120.746860"></trkpt>
      <trkpt lat="24.373440" lon="120.747510"></trkpt>
      <trkpt lat="24.373480" lon="120.747520"></trkpt>
      <trkpt lat="24.374230" lon="120.747900"></trkpt>
      <trkpt lat="24.374650" lon="120.748090"></trkpt>
      <trkpt lat="24.374720" lon="120.748110"></trkpt>
      <trkpt lat="24.375900" lon="120.748600"></trkpt>
      <trkpt lat="24.375730" lon="120.749120"></trkpt>
      <trkpt lat="24.375670" lon="120.749380"></trkpt>
      <trkpt lat="24.375660" lon="120.749390"></trkpt>
      <trkpt lat="24.375590" lon="120.749580"></trkpt>
      <trkpt lat="24.375590" lon="120.749610"></trkpt>
      <trkpt lat="24.375620" lon="120.749640"></trkpt>
      <trkpt lat="24.375740" lon="120.749680"></trkpt>
      <trkpt lat="24.375900" lon="120.749750"></trkpt>
      <trkpt lat="24.375910" lon="120.749750"></trkpt>
      <trkpt lat="24.376070" lon="120.749820"></trkpt>
      <trkpt lat="24.376080" lon="120.749830"></trkpt>
      <trkpt lat="24.376090" lon="120.749830"></trkpt>
      <trkpt lat="24.376110" lon="120.749870"></trkpt>
      <trkpt lat="24.376110" lon="120.749900"></trkpt>
      <trkpt lat="24.376090" lon="120.749990"></trkpt>
      <trkpt lat="24.376090" lon="120.750070"></trkpt>
      <trkpt lat="24.376120" lon="120.750190"></trkpt>
      <trkpt lat="24.376230" lon="120.750170"></trkpt>
      <trkpt lat="24.376260" lon="120.750170"></trkpt>
      <trkpt lat="24.376340" lon="120.750190"></trkpt>
      <trkpt lat="24.376370" lon="120.750210"></trkpt>
      <trkpt lat="24.381670" lon="120.752690"></trkpt>
      <trkpt lat="24.383620" lon="120.753530"></trkpt>
      <trkpt lat="24.383630" lon="120.753530"></trkpt>
      <trkpt lat="24.383630" lon="120.753540"></trkpt>
      <trkpt lat="24.383780" lon="120.753590"></trkpt>
      <trkpt lat="24.383820" lon="120.753610"></trkpt>
      <trkpt lat="24.384050" lon="120.753680"></trkpt>
      <trkpt lat="24.384400" lon="120.753820"></trkpt>
      <trkpt lat="24.384950" lon="120.754070"></trkpt>
      <trkpt lat="24.385130" lon="120.754140"></trkpt>
      <trkpt lat="24.385140" lon="120.754150"></trkpt>
      <trkpt lat="24.385150" lon="120.754150"></trkpt>
      <trkpt lat="24.385480" lon="120.754300"></trkpt>
      <trkpt lat="24.385610" lon="120.754390"></trkpt>
      <trkpt lat="24.385630" lon="120.754400"></trkpt>
      <trkpt lat="24.386210" lon="120.754870"></trkpt>
      <trkpt lat="24.386330" lon="120.755020"></trkpt>
      <trkpt lat="24.386380" lon="120.755070"></trkpt>
      <trkpt lat="24.386840" lon="120.755690"></trkpt>
      <trkpt lat="24.386910" lon="120.755770"></trkpt>
      <trkpt lat="24.387120" lon="120.755940"></trkpt>
      <trkpt lat="24.387530" lon="120.756130"></trkpt>
      <trkpt lat="24.387540" lon="120.756140"></trkpt>
      <trkpt lat="24.387710" lon="120.756210"></trkpt>
      <trkpt lat="24.388370" lon="120.756540"></trkpt>
      <trkpt lat="24.388490" lon="120.756570"></trkpt>
      <trkpt lat="24.388920" lon="120.756740"></trkpt>
      <trkpt lat="24.389030" lon="120.756820"></trkpt>
      <trkpt lat="24.389560" lon="120.757070"></trkpt>
      <trkpt lat="24.389880" lon="120.757200"></trkpt>
      <trkpt lat="24.390540" lon="120.757550"></trkpt>
      <trkpt lat="24.391250" lon="120.757840"></trkpt>
      <trkpt lat="24.391660" lon="120.757960"></trkpt>
      <trkpt lat="24.391840" lon="120.758030"></trkpt>
      <trkpt lat="24.391870" lon="120.758050"></trkpt>
      <trkpt lat="24.391910" lon="120.758090"></trkpt>
      <trkpt lat="24.391920" lon="120.758120"></trkpt>
      <trkpt lat="24.391940" lon="120.758150"></trkpt>
      <trkpt lat="24.391940" lon="120.758240"></trkpt>
      <trkpt lat="24.391910" lon="120.758280"></trkpt>
      <trkpt lat="24.391890" lon="120.758320"></trkpt>
      <trkpt lat="24.391860" lon="120.758350"></trkpt>
      <trkpt lat="24.391820" lon="120.758380"></trkpt>
      <trkpt lat="24.391700" lon="120.758440"></trkpt>
      <trkpt lat="24.391670" lon="120.758460"></trkpt>
      <trkpt lat="24.391640" lon="120.758520"></trkpt>
      <trkpt lat="24.391640" lon="120.758610"></trkpt>
      <trkpt lat="24.391670" lon="120.758690"></trkpt>
      <trkpt lat="24.391740" lon="120.758760"></trkpt>
      <trkpt lat="24.391750" lon="120.758890"></trkpt>
      <trkpt lat="24.391750" lon="120.759040"></trkpt>
      <trkpt lat="24.391740" lon="120.759120"></trkpt>
      <trkpt lat="24.391550" lon="120.759250"></trkpt>
      <trkpt lat="24.391390" lon="120.759310"></trkpt>
      <trkpt lat="24.391300" lon="120.759320"></trkpt>
      <trkpt lat="24.391220" lon="120.759320"></trkpt>
      <trkpt lat="24.391060" lon="120.759290"></trkpt>
      <trkpt lat="24.390820" lon="120.759200"></trkpt>
      <trkpt lat="24.390740" lon="120.759450"></trkpt>
      <trkpt lat="24.390860" lon="120.759490"></trkpt>
      <trkpt lat="24.391330" lon="120.759570"></trkpt>
      <trkpt lat="24.391530" lon="120.759540"></trkpt>
      <trkpt lat="24.391820" lon="120.759440"></trkpt>
      <trkpt lat="24.391870" lon="120.759430"></trkpt>
      <trkpt lat="24.391930" lon="120.759430"></trkpt>
      <trkpt lat="24.392040" lon="120.759470"></trkpt>
      <trkpt lat="24.392270" lon="120.759600"></trkpt>
      <trkpt lat="24.392610" lon="120.759750"></trkpt>
      <trkpt lat="24.392740" lon="120.759780"></trkpt>
      <trkpt lat="24.392800" lon="120.759780"></trkpt>
      <trkpt lat="24.392860" lon="120.759790"></trkpt>
      <trkpt lat="24.393090" lon="120.759780"></trkpt>
      <trkpt lat="24.393370" lon="120.759750"></trkpt>
      <trkpt lat="24.393540" lon="120.759710"></trkpt>
      <trkpt lat="24.393750" lon="120.759680"></trkpt>
      <trkpt lat="24.393870" lon="120.759680"></trkpt>
      <trkpt lat="24.394300" lon="120.759750"></trkpt>
      <trkpt lat="24.394310" lon="120.759760"></trkpt>
      <trkpt lat="24.394440" lon="120.759790"></trkpt>
      <trkpt lat="24.394580" lon="120.759860"></trkpt>
      <trkpt lat="24.395930" lon="120.760790"></trkpt>
      <trkpt lat="24.397030" lon="120.761480"></trkpt>
      <trkpt lat="24.397080" lon="120.761520"></trkpt>
      <trkpt lat="24.397350" lon="120.761680"></trkpt>
      <trkpt lat="24.397490" lon="120.761790"></trkpt>
      <trkpt lat="24.398000" lon="120.762240"></trkpt>
      <trkpt lat="24.398600" lon="120.762660"></trkpt>
      <trkpt lat="24.398750" lon="120.762810"></trkpt>
      <trkpt lat="24.398780" lon="120.762850"></trkpt>
      <trkpt lat="24.398890" lon="120.762940"></trkpt>
      <trkpt lat="24.399880" lon="120.763570"></trkpt>
      <trkpt lat="24.399720" lon="120.763900"></trkpt>
      <trkpt lat="24.400900" lon="120.764600"></trkpt>
      <trkpt lat="24.400860" lon="120.764690"></trkpt>
      <trkpt lat="24.400810" lon="120.764780"></trkpt>
      <trkpt lat="24.400730" lon="120.764890"></trkpt>
      <trkpt lat="24.400430" lon="120.765200"></trkpt>
      <trkpt lat="24.400670" lon="120.765420"></trkpt>
      <trkpt lat="24.400920" lon="120.765600"></trkpt>
      <trkpt lat="24.401440" lon="120.765860"></trkpt>
      <trkpt lat="24.401440" lon="120.765870"></trkpt>
      <trkpt lat="24.401670" lon="120.765980"></trkpt>
      <trkpt lat="24.401790" lon="120.766060"></trkpt>
      <trkpt lat="24.402110" lon="120.766310"></trkpt>
      <trkpt lat="24.402200" lon="120.766370"></trkpt>
      <trkpt lat="24.402300" lon="120.766420"></trkpt>
      <trkpt lat="24.402500" lon="120.766490"></trkpt>
      <trkpt lat="24.402660" lon="120.766530"></trkpt>
      <trkpt lat="24.402830" lon="120.766600"></trkpt>
      <trkpt lat="24.402900" lon="120.766640"></trkpt>
      <trkpt lat="24.402970" lon="120.766690"></trkpt>
      <trkpt lat="24.403330" lon="120.767020"></trkpt>
      <trkpt lat="24.403500" lon="120.767210"></trkpt>
      <trkpt lat="24.403570" lon="120.767310"></trkpt>
      <trkpt lat="24.403620" lon="120.767410"></trkpt>
      <trkpt lat="24.403630" lon="120.767440"></trkpt>
      <trkpt lat="24.403630" lon="120.767450"></trkpt>
      <trkpt lat="24.403680" lon="120.767500"></trkpt>
      <trkpt lat="24.403750" lon="120.767540"></trkpt>
      <trkpt lat="24.403840" lon="120.767560"></trkpt>
      <trkpt lat="24.404140" lon="120.767590"></trkpt>
      <trkpt lat="24.404200" lon="120.767590"></trkpt>
      <trkpt lat="24.404270" lon="120.767600"></trkpt>
      <trkpt lat="24.405000" lon="120.767610"></trkpt>
      <trkpt lat="24.407490" lon="120.767540"></trkpt>
      <trkpt lat="24.407630" lon="120.767600"></trkpt>
      <trkpt lat="24.407810" lon="120.767710"></trkpt>
      <trkpt lat="24.409320" lon="120.768740"></trkpt>
      <trkpt lat="24.412090" lon="120.770500"></trkpt>
      <trkpt lat="24.412100" lon="120.770540"></trkpt>
      <trkpt lat="24.412290" lon="120.770990"></trkpt>
      <trkpt lat="24.412340" lon="120.771150"></trkpt>
      <trkpt lat="24.412460" lon="120.771390"></trkpt>
      <trkpt lat="24.412540" lon="120.771480"></trkpt>
      <trkpt lat="24.412650" lon="120.771580"></trkpt>
      <trkpt lat="24.412740" lon="120.771640"></trkpt>
      <trkpt lat="24.413340" lon="120.771900"></trkpt>
      <trkpt lat="24.414690" lon="120.772590"></trkpt>
      <trkpt lat="24.416330" lon="120.773320"></trkpt>
      <trkpt lat="24.416490" lon="120.773410"></trkpt>
      <trkpt lat="24.416820" lon="120.773570"></trkpt>
      <trkpt lat="24.416960" lon="120.773650"></trkpt>
      <trkpt lat="24.417350" lon="120.773800"></trkpt>
      <trkpt lat="24.417450" lon="120.773820"></trkpt>
      <trkpt lat="24.417670" lon="120.773810"></trkpt>
      <trkpt lat="24.417840" lon="120.773770"></trkpt>
      <trkpt lat="24.417820" lon="120.773990"></trkpt>
      <trkpt lat="24.417820" lon="120.774070"></trkpt>
      <trkpt lat="24.417780" lon="120.774310"></trkpt>
      <trkpt lat="24.417790" lon="120.774620"></trkpt>
      <trkpt lat="24.417800" lon="120.774660"></trkpt>
      <trkpt lat="24.417810" lon="120.774680"></trkpt>
      <trkpt lat="24.417840" lon="120.774650"></trkpt>
      <trkpt lat="24.417880" lon="120.774630"></trkpt>
      <trkpt lat="24.418160" lon="120.774670"></trkpt>
      <trkpt lat="24.419080" lon="120.774710"></trkpt>
      <trkpt lat="24.419510" lon="120.774760"></trkpt>
      <trkpt lat="24.420090" lon="120.774780"></trkpt>
      <trkpt lat="24.420380" lon="120.774760"></trkpt>
      <trkpt lat="24.420560" lon="120.774760"></trkpt>
      <trkpt lat="24.421790" lon="120.774970"></trkpt>
      <trkpt lat="24.421900" lon="120.774970"></trkpt>
      <trkpt lat="24.422800" lon="120.775130"></trkpt>
      <trkpt lat="24.423090" lon="120.775200"></trkpt>
      <trkpt lat="24.423150" lon="120.775040"></trkpt>
      <trkpt lat="24.423210" lon="120.774750"></trkpt>
      <trkpt lat="24.423220" lon="120.774630"></trkpt>
      <trkpt lat="24.423230" lon="120.774590"></trkpt>
      <trkpt lat="24.423230" lon="120.774430"></trkpt>
      <trkpt lat="24.423240" lon="120.774420"></trkpt>
      <trkpt lat="24.423240" lon="120.774410"></trkpt>
      <trkpt lat="24.423250" lon="120.774390"></trkpt>
      <trkpt lat="24.423260" lon="120.774380"></trkpt>
      <trkpt lat="24.423280" lon="120.774380"></trkpt>
      <trkpt lat="24.423320" lon="120.774370"></trkpt>
      <trkpt lat="24.424150" lon="120.774250"></trkpt>
      <trkpt lat="24.424170" lon="120.774260"></trkpt>
      <trkpt lat="24.424180" lon="120.774260"></trkpt>
      <trkpt lat="24.424260" lon="120.774280"></trkpt>
      <trkpt lat="24.424660" lon="120.774470"></trkpt>
      <trkpt lat="24.424750" lon="120.774330"></trkpt>
      <trkpt lat="24.424770" lon="120.774320"></trkpt>
      <trkpt lat="24.424810" lon="120.774320"></trkpt>
      <trkpt lat="24.425120" lon="120.774420"></trkpt>
      <trkpt lat="24.426320" lon="120.774700"></trkpt>
      <trkpt lat="24.426600" lon="120.774790"></trkpt>
      <trkpt lat="24.427260" lon="120.775130"></trkpt>
      <trkpt lat="24.427400" lon="120.775240"></trkpt>
      <trkpt lat="24.427410" lon="120.775240"></trkpt>
      <trkpt lat="24.427460" lon="120.775280"></trkpt>
      <trkpt lat="24.427520" lon="120.775340"></trkpt>
      <trkpt lat="24.427530" lon="120.775370"></trkpt>
      <trkpt lat="24.427540" lon="120.775380"></trkpt>
      <trkpt lat="24.427540" lon="120.775390"></trkpt>
      <trkpt lat="24.427560" lon="120.775440"></trkpt>
      <trkpt lat="24.427640" lon="120.775490"></trkpt>
      <trkpt lat="24.428410" lon="120.775840"></trkpt>
      <trkpt lat="24.428550" lon="120.775880"></trkpt>
      <trkpt lat="24.428710" lon="120.775940"></trkpt>
      <trkpt lat="24.428730" lon="120.775940"></trkpt>
      <trkpt lat="24.429330" lon="120.776130"></trkpt>
      <trkpt lat="24.429410" lon="120.776180"></trkpt>
      <trkpt lat="24.429800" lon="120.776350"></trkpt>
      <trkpt lat="24.429900" lon="120.776380"></trkpt>
      <trkpt lat="24.430360" lon="120.776430"></trkpt>
      <trkpt lat="24.430520" lon="120.776460"></trkpt>
      <trkpt lat="24.430630" lon="120.776490"></trkpt>
      <trkpt lat="24.431460" lon="120.776780"></trkpt>
      <trkpt lat="24.431860" lon="120.776890"></trkpt>
      <trkpt lat="24.432080" lon="120.776890"></trkpt>
      <trkpt lat="24.433200" lon="120.776690"></trkpt>
      <trkpt lat="24.433580" lon="120.776640"></trkpt>
      <trkpt lat="24.434490" lon="120.776620"></trkpt>
      <trkpt lat="24.435220" lon="120.776570"></trkpt>
      <trkpt lat="24.436050" lon="120.776460"></trkpt>
      <trkpt lat="24.436500" lon="120.776440"></trkpt>
      <trkpt lat="24.436700" lon="120.776450"></trkpt>
      <trkpt lat="24.437890" lon="120.776770"></trkpt>
      <trkpt lat="24.438330" lon="120.776870"></trkpt>
      <trkpt lat="24.438600" lon="120.776910"></trkpt>
      <trkpt lat="24.439250" lon="120.776940"></trkpt>
      <trkpt lat="24.439540" lon="120.776970"></trkpt>
      <trkpt lat="24.439680" lon="120.777010"></trkpt>
      <trkpt lat="24.439940" lon="120.777110"></trkpt>
      <trkpt lat="24.440080" lon="120.777180"></trkpt>
      <trkpt lat="24.440660" lon="120.777430"></trkpt>
      <trkpt lat="24.440900" lon="120.777510"></trkpt>
      <trkpt lat="24.441230" lon="120.777580"></trkpt>
      <trkpt lat="24.442020" lon="120.777710"></trkpt>
      <trkpt lat="24.442150" lon="120.777750"></trkpt>
      <trkpt lat="24.442250" lon="120.777790"></trkpt>
      <trkpt lat="24.442350" lon="120.777820"></trkpt>
      <trkpt lat="24.442560" lon="120.777950"></trkpt>
      <trkpt lat="24.442670" lon="120.778030"></trkpt>
      <trkpt lat="24.442770" lon="120.778120"></trkpt>
      <trkpt lat="24.443150" lon="120.778520"></trkpt>
      <trkpt lat="24.443720" lon="120.779030"></trkpt>
      <trkpt lat="24.443800" lon="120.779080"></trkpt>
      <trkpt lat="24.444060" lon="120.779160"></trkpt>
      <trkpt lat="24.444710" lon="120.779210"></trkpt>
      <trkpt lat="24.445610" lon="120.779210"></trkpt>
      <trkpt lat="24.446820" lon="120.779260"></trkpt>
      <trkpt lat="24.448630" lon="120.779270"></trkpt>
      <trkpt lat="24.448690" lon="120.779280"></trkpt>
      <trkpt lat="24.448760" lon="120.779300"></trkpt>
      <trkpt lat="24.448880" lon="120.779350"></trkpt>
      <trkpt lat="24.448950" lon="120.779400"></trkpt>
      <trkpt lat="24.449380" lon="120.779820"></trkpt>
      <trkpt lat="24.449430" lon="120.779840"></trkpt>
      <trkpt lat="24.449440" lon="120.779850"></trkpt>
      <trkpt lat="24.449510" lon="120.779890"></trkpt>
      <trkpt lat="24.449580" lon="120.779940"></trkpt>
      <trkpt lat="24.450030" lon="120.780110"></trkpt>
      <trkpt lat="24.450050" lon="120.780110"></trkpt>
      <trkpt lat="24.450540" lon="120.780320"></trkpt>
      <trkpt lat="24.451030" lon="120.780490"></trkpt>
      <trkpt lat="24.451220" lon="120.780520"></trkpt>
      <trkpt lat="24.452990" lon="120.780620"></trkpt>
      <trkpt lat="24.453300" lon="120.780690"></trkpt>
      <trkpt lat="24.453640" lon="120.780790"></trkpt>
      <trkpt lat="24.453680" lon="120.780810"></trkpt>
      <trkpt lat="24.453970" lon="120.780890"></trkpt>
      <trkpt lat="24.454340" lon="120.780950"></trkpt>
      <trkpt lat="24.454690" lon="120.780990"></trkpt>
      <trkpt lat="24.455520" lon="120.781120"></trkpt>
      <trkpt lat="24.457490" lon="120.781370"></trkpt>
      <trkpt lat="24.458770" lon="120.781830"></trkpt>
      <trkpt lat="24.459190" lon="120.781950"></trkpt>
      <trkpt lat="24.459270" lon="120.781980"></trkpt>
      <trkpt lat="24.462440" lon="120.782600"></trkpt>
      <trkpt lat="24.465940" lon="120.783220"></trkpt>
      <trkpt lat="24.465990" lon="120.783190"></trkpt>
      <trkpt lat="24.466130" lon="120.783150"></trkpt>
      <trkpt lat="24.466140" lon="120.783110"></trkpt>
      <trkpt lat="24.466140" lon="120.783060"></trkpt>
      <trkpt lat="24.466250" lon="120.782520"></trkpt>
      <trkpt lat="24.466270" lon="120.782300"></trkpt>
      <trkpt lat="24.466290" lon="120.782250"></trkpt>
      <trkpt lat="24.466300" lon="120.782240"></trkpt>
      <trkpt lat="24.466300" lon="120.782230"></trkpt>
      <trkpt lat="24.466310" lon="120.782230"></trkpt>
      <trkpt lat="24.466330" lon="120.782220"></trkpt>
      <trkpt lat="24.466400" lon="120.782220"></trkpt>
      <trkpt lat="24.466630" lon="120.782260"></trkpt>
      <trkpt lat="24.466920" lon="120.782290"></trkpt>
      <trkpt lat="24.467060" lon="120.782280"></trkpt>
      <trkpt lat="24.467160" lon="120.782300"></trkpt>
      <trkpt lat="24.467480" lon="120.782390"></trkpt>
      <trkpt lat="24.467890" lon="120.782470"></trkpt>
      <trkpt lat="24.467980" lon="120.782480"></trkpt>
      <trkpt lat="24.468020" lon="120.782490"></trkpt>
      <trkpt lat="24.468070" lon="120.782490"></trkpt>
      <trkpt lat="24.468150" lon="120.782480"></trkpt>
      <trkpt lat="24.468190" lon="120.782480"></trkpt>
      <trkpt lat="24.468200" lon="120.782470"></trkpt>
      <trkpt lat="24.468210" lon="120.782470"></trkpt>
      <trkpt lat="24.468450" lon="120.782330"></trkpt>
      <trkpt lat="24.468880" lon="120.782280"></trkpt>
      <trkpt lat="24.469070" lon="120.782230"></trkpt>
      <trkpt lat="24.469230" lon="120.782220"></trkpt>
      <trkpt lat="24.469330" lon="120.782250"></trkpt>
      <trkpt lat="24.469430" lon="120.782300"></trkpt>
      <trkpt lat="24.469590" lon="120.782430"></trkpt>
      <trkpt lat="24.469630" lon="120.782450"></trkpt>
      <trkpt lat="24.470090" lon="120.782470"></trkpt>
      <trkpt lat="24.470120" lon="120.782480"></trkpt>
      <trkpt lat="24.470130" lon="120.782490"></trkpt>
      <trkpt lat="24.470150" lon="120.782490"></trkpt>
      <trkpt lat="24.470160" lon="120.782500"></trkpt>
      <trkpt lat="24.470170" lon="120.782520"></trkpt>
      <trkpt lat="24.470230" lon="120.782600"></trkpt>
      <trkpt lat="24.470260" lon="120.782620"></trkpt>
      <trkpt lat="24.470290" lon="120.782650"></trkpt>
      <trkpt lat="24.470360" lon="120.782700"></trkpt>
      <trkpt lat="24.470650" lon="120.782860"></trkpt>
      <trkpt lat="24.470750" lon="120.782900"></trkpt>
      <trkpt lat="24.470960" lon="120.782940"></trkpt>
      <trkpt lat="24.470990" lon="120.782950"></trkpt>
      <trkpt lat="24.471010" lon="120.782950"></trkpt>
      <trkpt lat="24.471160" lon="120.783040"></trkpt>
      <trkpt lat="24.471180" lon="120.783060"></trkpt>
      <trkpt lat="24.471820" lon="120.783420"></trkpt>
      <trkpt lat="24.471990" lon="120.783490"></trkpt>
      <trkpt lat="24.472250" lon="120.783570"></trkpt>
      <trkpt lat="24.472310" lon="120.783570"></trkpt>
      <trkpt lat="24.472320" lon="120.783580"></trkpt>
      <trkpt lat="24.472380" lon="120.783570"></trkpt>
      <trkpt lat="24.472440" lon="120.783570"></trkpt>
      <trkpt lat="24.472790" lon="120.783470"></trkpt>
      <trkpt lat="24.472940" lon="120.783470"></trkpt>
      <trkpt lat="24.473020" lon="120.783490"></trkpt>
      <trkpt lat="24.473280" lon="120.783590"></trkpt>
      <trkpt lat="24.473350" lon="120.783610"></trkpt>
      <trkpt lat="24.473780" lon="120.783640"></trkpt>
      <trkpt lat="24.474420" lon="120.783720"></trkpt>
      <trkpt lat="24.474480" lon="120.783720"></trkpt>
      <trkpt lat="24.474510" lon="120.783710"></trkpt>
      <trkpt lat="24.474540" lon="120.783690"></trkpt>
      <trkpt lat="24.474900" lon="120.783330"></trkpt>
      <trkpt lat="24.474920" lon="120.783320"></trkpt>
      <trkpt lat="24.474930" lon="120.783310"></trkpt>
      <trkpt lat="24.474950" lon="120.783310"></trkpt>
      <trkpt lat="24.474970" lon="120.783300"></trkpt>
      <trkpt lat="24.474990" lon="120.783300"></trkpt>
      <trkpt lat="24.475110" lon="120.783330"></trkpt>
      <trkpt lat="24.475130" lon="120.783340"></trkpt>
      <trkpt lat="24.475190" lon="120.783340"></trkpt>
      <trkpt lat="24.475230" lon="120.783320"></trkpt>
      <trkpt lat="24.475260" lon="120.783290"></trkpt>
      <trkpt lat="24.475280" lon="120.783280"></trkpt>
      <trkpt lat="24.475410" lon="120.783240"></trkpt>
      <trkpt lat="24.475450" lon="120.783280"></trkpt>
      <trkpt lat="24.475470" lon="120.783320"></trkpt>
      <trkpt lat="24.475490" lon="120.783430"></trkpt>
      <trkpt lat="24.475490" lon="120.783470"></trkpt>
      <trkpt lat="24.475500" lon="120.783510"></trkpt>
      <trkpt lat="24.475660" lon="120.783880"></trkpt>
      <trkpt lat="24.475750" lon="120.784010"></trkpt>
      <trkpt lat="24.475940" lon="120.784430"></trkpt>
      <trkpt lat="24.476000" lon="120.784530"></trkpt>
      <trkpt lat="24.476060" lon="120.784590"></trkpt>
      <trkpt lat="24.476110" lon="120.784610"></trkpt>
      <trkpt lat="24.476130" lon="120.784610"></trkpt>
      <trkpt lat="24.476240" lon="120.784630"></trkpt>
      <trkpt lat="24.476400" lon="120.784630"></trkpt>
      <trkpt lat="24.476470" lon="120.784620"></trkpt>
      <trkpt lat="24.476690" lon="120.784540"></trkpt>
      <trkpt lat="24.479140" lon="120.783500"></trkpt>
      <trkpt lat="24.479380" lon="120.784050"></trkpt>
      <trkpt lat="24.479500" lon="120.784380"></trkpt>
      <trkpt lat="24.479710" lon="120.784330"></trkpt>
      <trkpt lat="24.479790" lon="120.784290"></trkpt>
      <trkpt lat="24.479900" lon="120.784260"></trkpt>
      <trkpt lat="24.480010" lon="120.784260"></trkpt>
      <trkpt lat="24.480040" lon="120.784290"></trkpt>
      <trkpt lat="24.480070" lon="120.784350"></trkpt>
      <trkpt lat="24.480080" lon="120.784380"></trkpt>
      <trkpt lat="24.480080" lon="120.784390"></trkpt>
      <trkpt lat="24.480120" lon="120.784430"></trkpt>
      <trkpt lat="24.480200" lon="120.784490"></trkpt>
      <trkpt lat="24.480330" lon="120.784570"></trkpt>
      <trkpt lat="24.480450" lon="120.784610"></trkpt>
      <trkpt lat="24.480450" lon="120.784950"></trkpt>
      <trkpt lat="24.481210" lon="120.784890"></trkpt>
      <trkpt lat="24.481270" lon="120.784880"></trkpt>
      <trkpt lat="24.481840" lon="120.784680"></trkpt>
      <trkpt lat="24.481910" lon="120.784680"></trkpt>
      <trkpt lat="24.481940" lon="120.784690"></trkpt>
      <trkpt lat="24.482010" lon="120.784690"></trkpt>
      <trkpt lat="24.482070" lon="120.784700"></trkpt>
      <trkpt lat="24.482100" lon="120.784690"></trkpt>
      <trkpt lat="24.482140" lon="120.784690"></trkpt>
      <trkpt lat="24.482840" lon="120.784500"></trkpt>
      <trkpt lat="24.482910" lon="120.784500"></trkpt>
      <trkpt lat="24.483210" lon="120.784540"></trkpt>
      <trkpt lat="24.483300" lon="120.784560"></trkpt>
      <trkpt lat="24.483410" lon="120.784600"></trkpt>
      <trkpt lat="24.484440" lon="120.784770"></trkpt>
      <trkpt lat="24.484520" lon="120.784790"></trkpt>
      <trkpt lat="24.484630" lon="120.784790"></trkpt>
      <trkpt lat="24.484650" lon="120.784780"></trkpt>
      <trkpt lat="24.484670" lon="120.784780"></trkpt>
      <trkpt lat="24.484690" lon="120.784770"></trkpt>
      <trkpt lat="24.484750" lon="120.784770"></trkpt>
      <trkpt lat="24.484800" lon="120.784780"></trkpt>
      <trkpt lat="24.484860" lon="120.784780"></trkpt>
      <trkpt lat="24.485760" lon="120.784950"></trkpt>
      <trkpt lat="24.485970" lon="120.785020"></trkpt>
      <trkpt lat="24.486100" lon="120.785050"></trkpt>
      <trkpt lat="24.486190" lon="120.785080"></trkpt>
      <trkpt lat="24.486270" lon="120.785080"></trkpt>
      <trkpt lat="24.486380" lon="120.785100"></trkpt>
      <trkpt lat="24.486840" lon="120.785060"></trkpt>
      <trkpt lat="24.486900" lon="120.785040"></trkpt>
      <trkpt lat="24.486920" lon="120.785040"></trkpt>
      <trkpt lat="24.486960" lon="120.785030"></trkpt>
      <trkpt lat="24.487170" lon="120.785030"></trkpt>
      <trkpt lat="24.487420" lon="120.785060"></trkpt>
      <trkpt lat="24.487600" lon="120.785110"></trkpt>
      <trkpt lat="24.488170" lon="120.785180"></trkpt>
      <trkpt lat="24.488620" lon="120.785280"></trkpt>
      <trkpt lat="24.489110" lon="120.785330"></trkpt>
      <trkpt lat="24.489110" lon="120.785850"></trkpt>
      <trkpt lat="24.489120" lon="120.786020"></trkpt>
      <trkpt lat="24.489110" lon="120.786040"></trkpt>
      <trkpt lat="24.489110" lon="120.786340"></trkpt>
      <trkpt lat="24.489080" lon="120.786640"></trkpt>
      <trkpt lat="24.489230" lon="120.786680"></trkpt>
      <trkpt lat="24.489340" lon="120.786720"></trkpt>
      <trkpt lat="24.489350" lon="120.786720"></trkpt>
      <trkpt lat="24.489650" lon="120.786860"></trkpt>
      <trkpt lat="24.490030" lon="120.786920"></trkpt>
      <trkpt lat="24.491070" lon="120.787040"></trkpt>
      <trkpt lat="24.491050" lon="120.787720"></trkpt>
      <trkpt lat="24.491060" lon="120.787740"></trkpt>
      <trkpt lat="24.491060" lon="120.787760"></trkpt>
      <trkpt lat="24.491210" lon="120.788030"></trkpt>
      <trkpt lat="24.491490" lon="120.787860"></trkpt>
      <trkpt lat="24.491530" lon="120.787830"></trkpt>
      <trkpt lat="24.491650" lon="120.787810"></trkpt>
      <trkpt lat="24.491660" lon="120.787800"></trkpt>
      <trkpt lat="24.491840" lon="120.787700"></trkpt>
      <trkpt lat="24.492360" lon="120.787360"></trkpt>
      <trkpt lat="24.492590" lon="120.787830"></trkpt>
      <trkpt lat="24.492990" lon="120.787410"></trkpt>
      <trkpt lat="24.493070" lon="120.787360"></trkpt>
      <trkpt lat="24.493080" lon="120.787350"></trkpt>
      <trkpt lat="24.493100" lon="120.787350"></trkpt>
      <trkpt lat="24.493110" lon="120.787340"></trkpt>
      <trkpt lat="24.493220" lon="120.787340"></trkpt>
      <trkpt lat="24.493330" lon="120.787410"></trkpt>
      <trkpt lat="24.493330" lon="120.787720"></trkpt>
      <trkpt lat="24.493350" lon="120.787710"></trkpt>
      <trkpt lat="24.493400" lon="120.787710"></trkpt>
      <trkpt lat="24.493440" lon="120.787720"></trkpt>
      <trkpt lat="24.493460" lon="120.787720"></trkpt>
      <trkpt lat="24.493570" lon="120.787770"></trkpt>
      <trkpt lat="24.493960" lon="120.787890"></trkpt>
      <trkpt lat="24.493990" lon="120.787910"></trkpt>
      <trkpt lat="24.494020" lon="120.787920"></trkpt>
      <trkpt lat="24.494050" lon="120.787940"></trkpt>
      <trkpt lat="24.494080" lon="120.787950"></trkpt>
      <trkpt lat="24.494150" lon="120.787960"></trkpt>
      <trkpt lat="24.494170" lon="120.787970"></trkpt>
      <trkpt lat="24.494190" lon="120.787990"></trkpt>
      <trkpt lat="24.494230" lon="120.788010"></trkpt>
      <trkpt lat="24.494440" lon="120.788170"></trkpt>
      <trkpt lat="24.494450" lon="120.788230"></trkpt>
      <trkpt lat="24.494580" lon="120.788230"></trkpt>
      <trkpt lat="24.495090" lon="120.788270"></trkpt>
      <trkpt lat="24.495120" lon="120.788280"></trkpt>
      <trkpt lat="24.495780" lon="120.788260"></trkpt>
      <trkpt lat="24.496300" lon="120.788190"></trkpt>
      <trkpt lat="24.496360" lon="120.788190"></trkpt>
      <trkpt lat="24.496440" lon="120.788180"></trkpt>
      <trkpt lat="24.496700" lon="120.788180"></trkpt>
      <trkpt lat="24.496980" lon="120.788110"></trkpt>
      <trkpt lat="24.497130" lon="120.788060"></trkpt>
      <trkpt lat="24.497370" lon="120.787950"></trkpt>
      <trkpt lat="24.497520" lon="120.787830"></trkpt>
      <trkpt lat="24.497530" lon="120.787830"></trkpt>
      <trkpt lat="24.497610" lon="120.787750"></trkpt>
      <trkpt lat="24.497650" lon="120.787670"></trkpt>
      <trkpt lat="24.497680" lon="120.787570"></trkpt>
      <trkpt lat="24.497700" lon="120.787330"></trkpt>
      <trkpt lat="24.497740" lon="120.787140"></trkpt>
      <trkpt lat="24.497780" lon="120.787060"></trkpt>
      <trkpt lat="24.497790" lon="120.787020"></trkpt>
      <trkpt lat="24.497820" lon="120.786980"></trkpt>
      <trkpt lat="24.497890" lon="120.786960"></trkpt>
      <trkpt lat="24.497910" lon="120.786950"></trkpt>
      <trkpt lat="24.497940" lon="120.786950"></trkpt>
      <trkpt lat="24.498050" lon="120.786930"></trkpt>
      <trkpt lat="24.498250" lon="120.786920"></trkpt>
      <trkpt lat="24.498730" lon="120.786930"></trkpt>
      <trkpt lat="24.498990" lon="120.786910"></trkpt>
      <trkpt lat="24.499160" lon="120.786870"></trkpt>
      <trkpt lat="24.499330" lon="120.786800"></trkpt>
      <trkpt lat="24.499500" lon="120.786690"></trkpt>
      <trkpt lat="24.499610" lon="120.786630"></trkpt>
      <trkpt lat="24.499640" lon="120.786620"></trkpt>
      <trkpt lat="24.500230" lon="120.786510"></trkpt>
      <trkpt lat="24.500170" lon="120.786300"></trkpt>
      <trkpt lat="24.499830" lon="120.785320"></trkpt>
      <trkpt lat="24.499840" lon="120.785310"></trkpt>
      <trkpt lat="24.500780" lon="120.785100"></trkpt>
      <trkpt lat="24.500950" lon="120.785050"></trkpt>
      <trkpt lat="24.502590" lon="120.784690"></trkpt>
      <trkpt lat="24.505790" lon="120.784190"></trkpt>
      <trkpt lat="24.506090" lon="120.784280"></trkpt>
      <trkpt lat="24.507260" lon="120.784580"></trkpt>
      <trkpt lat="24.508570" lon="120.784850"></trkpt>
      <trkpt lat="24.508890" lon="120.784930"></trkpt>
      <trkpt lat="24.509260" lon="120.785070"></trkpt>
      <trkpt lat="24.509440" lon="120.785180"></trkpt>
      <trkpt lat="24.509500" lon="120.785110"></trkpt>
      <trkpt lat="24.509560" lon="120.785080"></trkpt>
      <trkpt lat="24.509590" lon="120.785080"></trkpt>
      <trkpt lat="24.509620" lon="120.785070"></trkpt>
      <trkpt lat="24.509680" lon="120.785080"></trkpt>
      <trkpt lat="24.509730" lon="120.785100"></trkpt>
      <trkpt lat="24.509800" lon="120.785150"></trkpt>
      <trkpt lat="24.509850" lon="120.785170"></trkpt>
      <trkpt lat="24.510320" lon="120.785460"></trkpt>
      <trkpt lat="24.510630" lon="120.785620"></trkpt>
      <trkpt lat="24.510700" lon="120.785670"></trkpt>
      <trkpt lat="24.510780" lon="120.785700"></trkpt>
      <trkpt lat="24.510810" lon="120.785700"></trkpt>
      <trkpt lat="24.510980" lon="120.785740"></trkpt>
      <trkpt lat="24.511090" lon="120.785750"></trkpt>
      <trkpt lat="24.511150" lon="120.785740"></trkpt>
      <trkpt lat="24.511160" lon="120.785730"></trkpt>
      <trkpt lat="24.511190" lon="120.785730"></trkpt>
      <trkpt lat="24.511220" lon="120.785710"></trkpt>
      <trkpt lat="24.511240" lon="120.785690"></trkpt>
      <trkpt lat="24.511240" lon="120.785650"></trkpt>
      <trkpt lat="24.511250" lon="120.785630"></trkpt>
      <trkpt lat="24.511250" lon="120.785260"></trkpt>
      <trkpt lat="24.511260" lon="120.785220"></trkpt>
      <trkpt lat="24.511260" lon="120.785190"></trkpt>
      <trkpt lat="24.511270" lon="120.785180"></trkpt>
      <trkpt lat="24.511280" lon="120.785150"></trkpt>
      <trkpt lat="24.511320" lon="120.785080"></trkpt>
      <trkpt lat="24.511350" lon="120.785050"></trkpt>
      <trkpt lat="24.511370" lon="120.785040"></trkpt>
      <trkpt lat="24.511390" lon="120.785020"></trkpt>
      <trkpt lat="24.511400" lon="120.785000"></trkpt>
      <trkpt lat="24.511410" lon="120.784990"></trkpt>
      <trkpt lat="24.511420" lon="120.784990"></trkpt>
      <trkpt lat="24.511430" lon="120.784980"></trkpt>
      <trkpt lat="24.511440" lon="120.784980"></trkpt>
      <trkpt lat="24.511460" lon="120.784970"></trkpt>
      <trkpt lat="24.511480" lon="120.784970"></trkpt>
      <trkpt lat="24.511530" lon="120.784990"></trkpt>
      <trkpt lat="24.511540" lon="120.785000"></trkpt>
      <trkpt lat="24.511550" lon="120.785000"></trkpt>
      <trkpt lat="24.511550" lon="120.785010"></trkpt>
      <trkpt lat="24.511560" lon="120.785020"></trkpt>
      <trkpt lat="24.511580" lon="120.785090"></trkpt>
      <trkpt lat="24.511580" lon="120.785110"></trkpt>
      <trkpt lat="24.511590" lon="120.785140"></trkpt>
      <trkpt lat="24.511620" lon="120.785170"></trkpt>
      <trkpt lat="24.511680" lon="120.785170"></trkpt>
      <trkpt lat="24.511710" lon="120.785160"></trkpt>
      <trkpt lat="24.511780" lon="120.785160"></trkpt>
      <trkpt lat="24.511810" lon="120.785150"></trkpt>
      <trkpt lat="24.511910" lon="120.785150"></trkpt>
      <trkpt lat="24.511970" lon="120.785170"></trkpt>
      <trkpt lat="24.512000" lon="120.785190"></trkpt>
      <trkpt lat="24.512050" lon="120.785250"></trkpt>
      <trkpt lat="24.512060" lon="120.785270"></trkpt>
      <trkpt lat="24.512080" lon="120.785280"></trkpt>
      <trkpt lat="24.512120" lon="120.785310"></trkpt>
      <trkpt lat="24.512160" lon="120.785320"></trkpt>
      <trkpt lat="24.512210" lon="120.785340"></trkpt>
      <trkpt lat="24.512240" lon="120.785340"></trkpt>
      <trkpt lat="24.512290" lon="120.785360"></trkpt>
      <trkpt lat="24.512340" lon="120.785410"></trkpt>
      <trkpt lat="24.512350" lon="120.785430"></trkpt>
      <trkpt lat="24.512370" lon="120.785450"></trkpt>
      <trkpt lat="24.512400" lon="120.785470"></trkpt>
      <trkpt lat="24.512410" lon="120.785490"></trkpt>
      <trkpt lat="24.512440" lon="120.785500"></trkpt>
      <trkpt lat="24.512500" lon="120.785500"></trkpt>
      <trkpt lat="24.512540" lon="120.785460"></trkpt>
      <trkpt lat="24.512550" lon="120.785440"></trkpt>
      <trkpt lat="24.512590" lon="120.785400"></trkpt>
      <trkpt lat="24.512640" lon="120.785400"></trkpt>
      <trkpt lat="24.512750" lon="120.785500"></trkpt>
      <trkpt lat="24.512660" lon="120.785780"></trkpt>
      <trkpt lat="24.512520" lon="120.786040"></trkpt>
      <trkpt lat="24.512510" lon="120.786070"></trkpt>
      <trkpt lat="24.512410" lon="120.786160"></trkpt>
      <trkpt lat="24.512280" lon="120.786390"></trkpt>
      <trkpt lat="24.512210" lon="120.786640"></trkpt>
      <trkpt lat="24.512280" lon="120.786620"></trkpt>
      <trkpt lat="24.512530" lon="120.786590"></trkpt>
      <trkpt lat="24.512650" lon="120.786600"></trkpt>
      <trkpt lat="24.512700" lon="120.786610"></trkpt>
      <trkpt lat="24.512870" lon="120.786670"></trkpt>
      <trkpt lat="24.513340" lon="120.786950"></trkpt>
      <trkpt lat="24.513590" lon="120.787160"></trkpt>
      <trkpt lat="24.513590" lon="120.787230"></trkpt>
      <trkpt lat="24.515570" lon="120.787490"></trkpt>
      <trkpt lat="24.516900" lon="120.787770"></trkpt>
      <trkpt lat="24.517190" lon="120.787850"></trkpt>
      <trkpt lat="24.517200" lon="120.787850"></trkpt>
      <trkpt lat="24.517500" lon="120.787930"></trkpt>
      <trkpt lat="24.517720" lon="120.788010"></trkpt>
      <trkpt lat="24.517710" lon="120.788160"></trkpt>
      <trkpt lat="24.517700" lon="120.788190"></trkpt>
      <trkpt lat="24.517700" lon="120.788240"></trkpt>
      <trkpt lat="24.517690" lon="120.788270"></trkpt>
      <trkpt lat="24.517690" lon="120.788280"></trkpt>
      <trkpt lat="24.517660" lon="120.788340"></trkpt>
      <trkpt lat="24.517630" lon="120.788370"></trkpt>
      <trkpt lat="24.517630" lon="120.788380"></trkpt>
      <trkpt lat="24.517580" lon="120.788430"></trkpt>
      <trkpt lat="24.517440" lon="120.788520"></trkpt>
      <trkpt lat="24.517280" lon="120.788560"></trkpt>
      <trkpt lat="24.517230" lon="120.788580"></trkpt>
      <trkpt lat="24.517150" lon="120.788590"></trkpt>
      <trkpt lat="24.517450" lon="120.788790"></trkpt>
      <trkpt lat="24.517610" lon="120.788830"></trkpt>
      <trkpt lat="24.517640" lon="120.788830"></trkpt>
      <trkpt lat="24.517890" lon="120.788970"></trkpt>
      <trkpt lat="24.519590" lon="120.789600"></trkpt>
      <trkpt lat="24.519770" lon="120.789620"></trkpt>
      <trkpt lat="24.519940" lon="120.789680"></trkpt>
      <trkpt lat="24.519950" lon="120.789680"></trkpt>
      <trkpt lat="24.520180" lon="120.789800"></trkpt>
      <trkpt lat="24.520480" lon="120.790090"></trkpt>
      <trkpt lat="24.520670" lon="120.790200"></trkpt>
      <trkpt lat="24.520950" lon="120.790340"></trkpt>
      <trkpt lat="24.521320" lon="120.790600"></trkpt>
      <trkpt lat="24.521350" lon="120.790630"></trkpt>
      <trkpt lat="24.521660" lon="120.790870"></trkpt>
      <trkpt lat="24.521980" lon="120.791180"></trkpt>
      <trkpt lat="24.522010" lon="120.791220"></trkpt>
      <trkpt lat="24.522020" lon="120.791260"></trkpt>
      <trkpt lat="24.522070" lon="120.791370"></trkpt>
      <trkpt lat="24.522090" lon="120.791450"></trkpt>
      <trkpt lat="24.522180" lon="120.791520"></trkpt>
      <trkpt lat="24.522240" lon="120.791550"></trkpt>
      <trkpt lat="24.522550" lon="120.791670"></trkpt>
      <trkpt lat="24.523150" lon="120.792100"></trkpt>
      <trkpt lat="24.523160" lon="120.792130"></trkpt>
      <trkpt lat="24.523160" lon="120.792150"></trkpt>
      <trkpt lat="24.523170" lon="120.792180"></trkpt>
      <trkpt lat="24.523150" lon="120.792250"></trkpt>
      <trkpt lat="24.523150" lon="120.792270"></trkpt>
      <trkpt lat="24.523140" lon="120.792290"></trkpt>
      <trkpt lat="24.523060" lon="120.792400"></trkpt>
      <trkpt lat="24.523050" lon="120.792420"></trkpt>
      <trkpt lat="24.523050" lon="120.792460"></trkpt>
      <trkpt lat="24.523060" lon="120.792480"></trkpt>
      <trkpt lat="24.523210" lon="120.792620"></trkpt>
      <trkpt lat="24.523220" lon="120.792610"></trkpt>
      <trkpt lat="24.523230" lon="120.792610"></trkpt>
      <trkpt lat="24.523270" lon="120.792630"></trkpt>
      <trkpt lat="24.523950" lon="120.793100"></trkpt>
      <trkpt lat="24.524020" lon="120.793130"></trkpt>
      <trkpt lat="24.524660" lon="120.793480"></trkpt>
      <trkpt lat="24.524990" lon="120.792940"></trkpt>
      <trkpt lat="24.525030" lon="120.792860"></trkpt>
      <trkpt lat="24.526410" lon="120.793880"></trkpt>
      <trkpt lat="24.528470" lon="120.795320"></trkpt>
      <trkpt lat="24.529450" lon="120.796060"></trkpt>
      <trkpt lat="24.531430" lon="120.797440"></trkpt>
      <trkpt lat="24.531900" lon="120.797790"></trkpt>
      <trkpt lat="24.532450" lon="120.798120"></trkpt>
      <trkpt lat="24.533650" lon="120.798950"></trkpt>
      <trkpt lat="24.533660" lon="120.798950"></trkpt>
      <trkpt lat="24.534220" lon="120.799320"></trkpt>
      <trkpt lat="24.534230" lon="120.799330"></trkpt>
      <trkpt lat="24.534280" lon="120.799350"></trkpt>
      <trkpt lat="24.534290" lon="120.799360"></trkpt>
      <trkpt lat="24.534470" lon="120.799460"></trkpt>
      <trkpt lat="24.534930" lon="120.799670"></trkpt>
      <trkpt lat="24.534940" lon="120.799680"></trkpt>
      <trkpt lat="24.535450" lon="120.799860"></trkpt>
      <trkpt lat="24.535490" lon="120.799880"></trkpt>
      <trkpt lat="24.535970" lon="120.800020"></trkpt>
      <trkpt lat="24.536620" lon="120.800150"></trkpt>
      <trkpt lat="24.536680" lon="120.800150"></trkpt>
      <trkpt lat="24.537120" lon="120.800190"></trkpt>
      <trkpt lat="24.538140" lon="120.800190"></trkpt>
      <trkpt lat="24.538650" lon="120.800130"></trkpt>
      <trkpt lat="24.539360" lon="120.799960"></trkpt>
      <trkpt lat="24.539380" lon="120.799950"></trkpt>
      <trkpt lat="24.539530" lon="120.799910"></trkpt>
      <trkpt lat="24.539920" lon="120.799770"></trkpt>
      <trkpt lat="24.539930" lon="120.799770"></trkpt>
      <trkpt lat="24.541490" lon="120.799360"></trkpt>
      <trkpt lat="24.542100" lon="120.799270"></trkpt>
      <trkpt lat="24.542310" lon="120.799250"></trkpt>
      <trkpt lat="24.542360" lon="120.799240"></trkpt>
      <trkpt lat="24.542410" lon="120.799220"></trkpt>
      <trkpt lat="24.542430" lon="120.799220"></trkpt>
      <trkpt lat="24.542440" lon="120.799200"></trkpt>
      <trkpt lat="24.542460" lon="120.799190"></trkpt>
      <trkpt lat="24.542470" lon="120.799170"></trkpt>
      <trkpt lat="24.542480" lon="120.799170"></trkpt>
      <trkpt lat="24.542500" lon="120.799150"></trkpt>
      <trkpt lat="24.542560" lon="120.799140"></trkpt>
      <trkpt lat="24.542810" lon="120.799150"></trkpt>
      <trkpt lat="24.542970" lon="120.799140"></trkpt>
      <trkpt lat="24.543570" lon="120.799160"></trkpt>
      <trkpt lat="24.543910" lon="120.799150"></trkpt>
      <trkpt lat="24.544170" lon="120.799170"></trkpt>
      <trkpt lat="24.544250" lon="120.799190"></trkpt>
      <trkpt lat="24.544350" lon="120.799200"></trkpt>
      <trkpt lat="24.545150" lon="120.799390"></trkpt>
      <trkpt lat="24.545180" lon="120.799420"></trkpt>
      <trkpt lat="24.545180" lon="120.799440"></trkpt>
      <trkpt lat="24.545190" lon="120.799450"></trkpt>
      <trkpt lat="24.545190" lon="120.799520"></trkpt>
      <trkpt lat="24.545210" lon="120.799620"></trkpt>
      <trkpt lat="24.545210" lon="120.799730"></trkpt>
      <trkpt lat="24.545230" lon="120.799810"></trkpt>
      <trkpt lat="24.545260" lon="120.799890"></trkpt>
      <trkpt lat="24.545330" lon="120.799920"></trkpt>
      <trkpt lat="24.545340" lon="120.799930"></trkpt>
      <trkpt lat="24.545420" lon="120.799980"></trkpt>
      <trkpt lat="24.545430" lon="120.799980"></trkpt>
      <trkpt lat="24.545450" lon="120.800000"></trkpt>
      <trkpt lat="24.545550" lon="120.800060"></trkpt>
      <trkpt lat="24.545630" lon="120.800090"></trkpt>
      <trkpt lat="24.545650" lon="120.800090"></trkpt>
      <trkpt lat="24.545720" lon="120.800120"></trkpt>
      <trkpt lat="24.545740" lon="120.800120"></trkpt>
      <trkpt lat="24.545750" lon="120.800130"></trkpt>
      <trkpt lat="24.545790" lon="120.800150"></trkpt>
      <trkpt lat="24.545810" lon="120.800170"></trkpt>
      <trkpt lat="24.545830" lon="120.800180"></trkpt>
      <trkpt lat="24.545890" lon="120.800240"></trkpt>
      <trkpt lat="24.545900" lon="120.800240"></trkpt>
      <trkpt lat="24.545910" lon="120.800260"></trkpt>
      <trkpt lat="24.545940" lon="120.800270"></trkpt>
      <trkpt lat="24.545960" lon="120.800290"></trkpt>
      <trkpt lat="24.546050" lon="120.800340"></trkpt>
      <trkpt lat="24.546130" lon="120.800400"></trkpt>
      <trkpt lat="24.546150" lon="120.800430"></trkpt>
      <trkpt lat="24.546180" lon="120.800440"></trkpt>
      <trkpt lat="24.546200" lon="120.800470"></trkpt>
      <trkpt lat="24.546270" lon="120.800540"></trkpt>
      <trkpt lat="24.546320" lon="120.800570"></trkpt>
      <trkpt lat="24.546380" lon="120.800620"></trkpt>
      <trkpt lat="24.546500" lon="120.800690"></trkpt>
      <trkpt lat="24.546620" lon="120.800780"></trkpt>
      <trkpt lat="24.546670" lon="120.800810"></trkpt>
      <trkpt lat="24.546710" lon="120.800860"></trkpt>
      <trkpt lat="24.546740" lon="120.800880"></trkpt>
      <trkpt lat="24.546820" lon="120.800990"></trkpt>
      <trkpt lat="24.546830" lon="120.801010"></trkpt>
      <trkpt lat="24.546850" lon="120.801030"></trkpt>
      <trkpt lat="24.546860" lon="120.801050"></trkpt>
      <trkpt lat="24.546880" lon="120.801060"></trkpt>
      <trkpt lat="24.546960" lon="120.801120"></trkpt>
      <trkpt lat="24.547010" lon="120.801110"></trkpt>
      <trkpt lat="24.547090" lon="120.801110"></trkpt>
      <trkpt lat="24.547150" lon="120.801130"></trkpt>
      <trkpt lat="24.548170" lon="120.801740"></trkpt>
      <trkpt lat="24.548270" lon="120.801820"></trkpt>
      <trkpt lat="24.548460" lon="120.802030"></trkpt>
      <trkpt lat="24.548710" lon="120.802350"></trkpt>
      <trkpt lat="24.548730" lon="120.802360"></trkpt>
      <trkpt lat="24.548730" lon="120.802370"></trkpt>
      <trkpt lat="24.549040" lon="120.802740"></trkpt>
      <trkpt lat="24.549250" lon="120.803030"></trkpt>
      <trkpt lat="24.549730" lon="120.803890"></trkpt>
      <trkpt lat="24.549760" lon="120.803910"></trkpt>
      <trkpt lat="24.549760" lon="120.803920"></trkpt>
      <trkpt lat="24.549770" lon="120.803930"></trkpt>
      <trkpt lat="24.549780" lon="120.803950"></trkpt>
      <trkpt lat="24.550480" lon="120.804080"></trkpt>
      <trkpt lat="24.550500" lon="120.804200"></trkpt>
      <trkpt lat="24.550520" lon="120.804250"></trkpt>
      <trkpt lat="24.550520" lon="120.804270"></trkpt>
      <trkpt lat="24.550550" lon="120.804340"></trkpt>
      <trkpt lat="24.550620" lon="120.804430"></trkpt>
      <trkpt lat="24.550620" lon="120.804440"></trkpt>
      <trkpt lat="24.550740" lon="120.804570"></trkpt>
      <trkpt lat="24.550810" lon="120.804630"></trkpt>
      <trkpt lat="24.551050" lon="120.804800"></trkpt>
      <trkpt lat="24.551210" lon="120.804860"></trkpt>
      <trkpt lat="24.551320" lon="120.804890"></trkpt>
      <trkpt lat="24.551410" lon="120.804900"></trkpt>
      <trkpt lat="24.551650" lon="120.804870"></trkpt>
      <trkpt lat="24.552030" lon="120.804740"></trkpt>
      <trkpt lat="24.552340" lon="120.804650"></trkpt>
      <trkpt lat="24.552420" lon="120.804650"></trkpt>
      <trkpt lat="24.552560" lon="120.804700"></trkpt>
      <trkpt lat="24.552680" lon="120.804770"></trkpt>
      <trkpt lat="24.552830" lon="120.804890"></trkpt>
      <trkpt lat="24.552890" lon="120.804930"></trkpt>
      <trkpt lat="24.553060" lon="120.805090"></trkpt>
      <trkpt lat="24.553140" lon="120.805210"></trkpt>
      <trkpt lat="24.553210" lon="120.805390"></trkpt>
      <trkpt lat="24.553430" lon="120.806120"></trkpt>
      <trkpt lat="24.553430" lon="120.806150"></trkpt>
      <trkpt lat="24.553490" lon="120.806370"></trkpt>
      <trkpt lat="24.553560" lon="120.806530"></trkpt>
      <trkpt lat="24.553570" lon="120.806540"></trkpt>
      <trkpt lat="24.553600" lon="120.806590"></trkpt>
      <trkpt lat="24.553940" lon="120.806920"></trkpt>
      <trkpt lat="24.554100" lon="120.807100"></trkpt>
      <trkpt lat="24.554180" lon="120.807260"></trkpt>
      <trkpt lat="24.554340" lon="120.807660"></trkpt>
      <trkpt lat="24.554390" lon="120.807830"></trkpt>
      <trkpt lat="24.554400" lon="120.807890"></trkpt>
      <trkpt lat="24.554400" lon="120.808000"></trkpt>
      <trkpt lat="24.554460" lon="120.807990"></trkpt>
      <trkpt lat="24.554610" lon="120.807950"></trkpt>
      <trkpt lat="24.554700" lon="120.807980"></trkpt>
      <trkpt lat="24.554950" lon="120.808100"></trkpt>
      <trkpt lat="24.555050" lon="120.808200"></trkpt>
      <trkpt lat="24.555100" lon="120.808270"></trkpt>
      <trkpt lat="24.555130" lon="120.808340"></trkpt>
      <trkpt lat="24.555170" lon="120.808480"></trkpt>
      <trkpt lat="24.555170" lon="120.808610"></trkpt>
      <trkpt lat="24.555150" lon="120.808780"></trkpt>
      <trkpt lat="24.555130" lon="120.808850"></trkpt>
      <trkpt lat="24.555110" lon="120.808890"></trkpt>
      <trkpt lat="24.555040" lon="120.809220"></trkpt>
      <trkpt lat="24.555040" lon="120.809320"></trkpt>
      <trkpt lat="24.555060" lon="120.809390"></trkpt>
      <trkpt lat="24.555320" lon="120.810020"></trkpt>
      <trkpt lat="24.555430" lon="120.810250"></trkpt>
      <trkpt lat="24.555450" lon="120.810620"></trkpt>
      <trkpt lat="24.555710" lon="120.812320"></trkpt>
      <trkpt lat="24.555900" lon="120.813280"></trkpt>
      <trkpt lat="24.555950" lon="120.813460"></trkpt>
      <trkpt lat="24.555990" lon="120.813550"></trkpt>
      <trkpt lat="24.556060" lon="120.813760"></trkpt>
      <trkpt lat="24.556240" lon="120.814180"></trkpt>
      <trkpt lat="24.557140" lon="120.815720"></trkpt>
      <trkpt lat="24.557730" lon="120.816800"></trkpt>
      <trkpt lat="24.558360" lon="120.816160"></trkpt>
      <trkpt lat="24.558380" lon="120.816150"></trkpt>
      <trkpt lat="24.558470" lon="120.816150"></trkpt>
      <trkpt lat="24.558510" lon="120.816160"></trkpt>
      <trkpt lat="24.558590" lon="120.816220"></trkpt>
      <trkpt lat="24.558790" lon="120.816460"></trkpt>
    </trkseg>
  </trk>
</gpx>
