<?xml version="1.0" encoding="UTF-8"?>
<gpx version="1.1" creator="2026-routes" xmlns="http://www.topografix.com/GPX/1/1">
  <metadata>
    <name>玉里到新生國中</name>
    <desc>玉里→台9→富里→池上→關山→鹿野→卑南→台9→新生國中</desc>
  </metadata>
  <trk>
    <name>Day 8 玉里到新生國中</name>
    <trkseg>
      <trkpt lat="23.331896" lon="121.315651"></trkpt>
      <trkpt lat="23.331917" lon="121.315597"></trkpt>
      <trkpt lat="23.331920" lon="121.315538"></trkpt>
      <trkpt lat="23.331911" lon="121.315500"></trkpt>
      <trkpt lat="23.331906" lon="121.315481"></trkpt>
      <trkpt lat="23.331875" lon="121.315431"></trkpt>
      <trkpt lat="23.331831" lon="121.315394"></trkpt>
      <trkpt lat="23.331777" lon="121.315375"></trkpt>
      <trkpt lat="23.331722" lon="121.315377"></trkpt>
      <trkpt lat="23.331697" lon="121.315379"></trkpt>
      <trkpt lat="23.331669" lon="121.315399"></trkpt>
      <trkpt lat="23.331627" lon="121.315438"></trkpt>
      <trkpt lat="23.331598" lon="121.315490"></trkpt>
      <trkpt lat="23.331587" lon="121.315550"></trkpt>
      <trkpt lat="23.331595" lon="121.315610"></trkpt>
      <trkpt lat="23.331600" lon="121.315621"></trkpt>
      <trkpt lat="23.330484" lon="121.316028"></trkpt>
      <trkpt lat="23.330411" lon="121.316058"></trkpt>
      <trkpt lat="23.330021" lon="121.316201"></trkpt>
      <trkpt lat="23.329774" lon="121.316291"></trkpt>
      <trkpt lat="23.329580" lon="121.316365"></trkpt>
      <trkpt lat="23.329077" lon="121.316545"></trkpt>
      <trkpt lat="23.328714" lon="121.316691"></trkpt>
      <trkpt lat="23.328663" lon="121.316712"></trkpt>
      <trkpt lat="23.328583" lon="121.316741"></trkpt>
      <trkpt lat="23.327912" lon="121.316987"></trkpt>
      <trkpt lat="23.327310" lon="121.317209"></trkpt>
      <trkpt lat="23.326961" lon="121.317337"></trkpt>
      <trkpt lat="23.326901" lon="121.317359"></trkpt>
      <trkpt lat="23.326839" lon="121.317383"></trkpt>
      <trkpt lat="23.326365" lon="121.317562"></trkpt>
      <trkpt lat="23.325985" lon="121.317696"></trkpt>
      <trkpt lat="23.325857" lon="121.317748"></trkpt>
      <trkpt lat="23.325365" lon="121.317935"></trkpt>
      <trkpt lat="23.325283" lon="121.317966"></trkpt>
      <trkpt lat="23.325185" lon="121.318000"></trkpt>
      <trkpt lat="23.323998" lon="121.318413"></trkpt>
      <trkpt lat="23.323856" lon="121.318458"></trkpt>
      <trkpt lat="23.323793" lon="121.318480"></trkpt>
      <trkpt lat="23.323739" lon="121.318493"></trkpt>
      <trkpt lat="23.322577" lon="121.323645"></trkpt>
      <trkpt lat="23.321973" lon="121.326878"></trkpt>
      <trkpt lat="23.320795" lon="121.332021"></trkpt>
      <trkpt lat="23.320608" lon="121.332789"></trkpt>
      <trkpt lat="23.320465" lon="121.333273"></trkpt>
      <trkpt lat="23.320278" lon="121.333725"></trkpt>
      <trkpt lat="23.320068" lon="121.334058"></trkpt>
      <trkpt lat="23.319804" lon="121.334449"></trkpt>
      <trkpt lat="23.319469" lon="121.334806"></trkpt>
      <trkpt lat="23.319215" lon="121.335010"></trkpt>
      <trkpt lat="23.319142" lon="121.335068"></trkpt>
      <trkpt lat="23.318879" lon="121.335250"></trkpt>
      <trkpt lat="23.318692" lon="121.335357"></trkpt>
      <trkpt lat="23.318360" lon="121.335511"></trkpt>
      <trkpt lat="23.318043" lon="121.335608"></trkpt>
      <trkpt lat="23.317696" lon="121.335691"></trkpt>
      <trkpt lat="23.317368" lon="121.335741"></trkpt>
      <trkpt lat="23.316411" lon="121.335825"></trkpt>
      <trkpt lat="23.316440" lon="121.335944"></trkpt>
      <trkpt lat="23.316784" lon="121.336910"></trkpt>
      <trkpt lat="23.316748" lon="121.337138"></trkpt>
      <trkpt lat="23.316057" lon="121.337136"></trkpt>
      <trkpt lat="23.315847" lon="121.337124"></trkpt>
      <trkpt lat="23.315818" lon="121.337121"></trkpt>
      <trkpt lat="23.315738" lon="121.337111"></trkpt>
      <trkpt lat="23.315692" lon="121.337106"></trkpt>
      <trkpt lat="23.315370" lon="121.337042"></trkpt>
      <trkpt lat="23.314490" lon="121.336720"></trkpt>
      <trkpt lat="23.314297" lon="121.336677"></trkpt>
      <trkpt lat="23.313993" lon="121.336658"></trkpt>
      <trkpt lat="23.311293" lon="121.336527"></trkpt>
      <trkpt lat="23.310928" lon="121.336484"></trkpt>
      <trkpt lat="23.310564" lon="121.336398"></trkpt>
      <trkpt lat="23.308632" lon="121.335776"></trkpt>
      <trkpt lat="23.307315" lon="121.335363"></trkpt>
      <trkpt lat="23.306526" lon="121.335076"></trkpt>
      <trkpt lat="23.306208" lon="121.334939"></trkpt>
      <trkpt lat="23.305564" lon="121.334596"></trkpt>
      <trkpt lat="23.304548" lon="121.334239"></trkpt>
      <trkpt lat="23.304341" lon="121.334166"></trkpt>
      <trkpt lat="23.304019" lon="121.334081"></trkpt>
      <trkpt lat="23.303397" lon="121.334038"></trkpt>
      <trkpt lat="23.302989" lon="121.333952"></trkpt>
      <trkpt lat="23.302774" lon="121.333888"></trkpt>
      <trkpt lat="23.302388" lon="121.333737"></trkpt>
      <trkpt lat="23.302159" lon="121.333633"></trkpt>
      <trkpt lat="23.300404" lon="121.332831"></trkpt>
      <trkpt lat="23.300275" lon="121.332788"></trkpt>
      <trkpt lat="23.300018" lon="121.332788"></trkpt>
      <trkpt lat="23.299633" lon="121.332863"></trkpt>
      <trkpt lat="23.299498" lon="121.332889"></trkpt>
      <trkpt lat="23.299169" lon="121.332965"></trkpt>
      <trkpt lat="23.297838" lon="121.333308"></trkpt>
      <trkpt lat="23.297723" lon="121.333317"></trkpt>
      <trkpt lat="23.297675" lon="121.333321"></trkpt>
      <trkpt lat="23.297469" lon="121.333338"></trkpt>
      <trkpt lat="23.297415" lon="121.332866"></trkpt>
      <trkpt lat="23.297304" lon="121.332745"></trkpt>
      <trkpt lat="23.297296" lon="121.332496"></trkpt>
      <trkpt lat="23.297585" lon="121.332431"></trkpt>
      <trkpt lat="23.297886" lon="121.332385"></trkpt>
      <trkpt lat="23.298134" lon="121.332434"></trkpt>
      <trkpt lat="23.298164" lon="121.332394"></trkpt>
      <trkpt lat="23.298332" lon="121.331782"></trkpt>
      <trkpt lat="23.298568" lon="121.330878"></trkpt>
      <trkpt lat="23.298568" lon="121.330798"></trkpt>
      <trkpt lat="23.298302" lon="121.330747"></trkpt>
      <trkpt lat="23.296033" lon="121.330250"></trkpt>
      <trkpt lat="23.295526" lon="121.330087"></trkpt>
      <trkpt lat="23.294790" lon="121.329780"></trkpt>
      <trkpt lat="23.293733" lon="121.329292"></trkpt>
      <trkpt lat="23.293018" lon="121.328977"></trkpt>
      <trkpt lat="23.292302" lon="121.328671"></trkpt>
      <trkpt lat="23.291302" lon="121.328169"></trkpt>
      <trkpt lat="23.290518" lon="121.327712"></trkpt>
      <trkpt lat="23.289849" lon="121.327248"></trkpt>
      <trkpt lat="23.289300" lon="121.326809"></trkpt>
      <trkpt lat="23.288221" lon="121.325942"></trkpt>
      <trkpt lat="23.287513" lon="121.325390"></trkpt>
      <trkpt lat="23.286995" lon="121.324951"></trkpt>
      <trkpt lat="23.286478" lon="121.324560"></trkpt>
      <trkpt lat="23.285915" lon="121.324096"></trkpt>
      <trkpt lat="23.285326" lon="121.323632"></trkpt>
      <trkpt lat="23.284929" lon="121.323293"></trkpt>
      <trkpt lat="23.284533" lon="121.322987"></trkpt>
      <trkpt lat="23.284280" lon="121.322785"></trkpt>
      <trkpt lat="23.283897" lon="121.322557"></trkpt>
      <trkpt lat="23.283365" lon="121.322260"></trkpt>
      <trkpt lat="23.283222" lon="121.322284"></trkpt>
      <trkpt lat="23.282766" lon="121.322502"></trkpt>
      <trkpt lat="23.282227" lon="121.322673"></trkpt>
      <trkpt lat="23.281884" lon="121.322853"></trkpt>
      <trkpt lat="23.281798" lon="121.322909"></trkpt>
      <trkpt lat="23.281655" lon="121.322890"></trkpt>
      <trkpt lat="23.281033" lon="121.322498"></trkpt>
      <trkpt lat="23.280925" lon="121.322410"></trkpt>
      <trkpt lat="23.280869" lon="121.322362"></trkpt>
      <trkpt lat="23.280878" lon="121.322268"></trkpt>
      <trkpt lat="23.280943" lon="121.322204"></trkpt>
      <trkpt lat="23.281616" lon="121.321823"></trkpt>
      <trkpt lat="23.281835" lon="121.321725"></trkpt>
      <trkpt lat="23.281835" lon="121.321684"></trkpt>
      <trkpt lat="23.281804" lon="121.321598"></trkpt>
      <trkpt lat="23.281711" lon="121.321460"></trkpt>
      <trkpt lat="23.281558" lon="121.321291"></trkpt>
      <trkpt lat="23.281519" lon="121.321379"></trkpt>
      <trkpt lat="23.281523" lon="121.321494"></trkpt>
      <trkpt lat="23.280598" lon="121.322035"></trkpt>
      <trkpt lat="23.280522" lon="121.322014"></trkpt>
      <trkpt lat="23.280410" lon="121.321988"></trkpt>
      <trkpt lat="23.280312" lon="121.322012"></trkpt>
      <trkpt lat="23.280287" lon="121.322086"></trkpt>
      <trkpt lat="23.279851" lon="121.321794"></trkpt>
      <trkpt lat="23.279151" lon="121.321122"></trkpt>
      <trkpt lat="23.279143" lon="121.321112"></trkpt>
      <trkpt lat="23.279091" lon="121.321053"></trkpt>
      <trkpt lat="23.278624" lon="121.320470"></trkpt>
      <trkpt lat="23.277576" lon="121.318891"></trkpt>
      <trkpt lat="23.277264" lon="121.318417"></trkpt>
      <trkpt lat="23.276521" lon="121.317288"></trkpt>
      <trkpt lat="23.273687" lon="121.313214"></trkpt>
      <trkpt lat="23.273593" lon="121.313077"></trkpt>
      <trkpt lat="23.273099" lon="121.312372"></trkpt>
      <trkpt lat="23.273005" lon="121.312224"></trkpt>
      <trkpt lat="23.272697" lon="121.311737"></trkpt>
      <trkpt lat="23.272309" lon="121.311053"></trkpt>
      <trkpt lat="23.272178" lon="121.310767"></trkpt>
      <trkpt lat="23.271768" lon="121.310138"></trkpt>
      <trkpt lat="23.271562" lon="121.309698"></trkpt>
      <trkpt lat="23.271383" lon="121.309216"></trkpt>
      <trkpt lat="23.271096" lon="121.308436"></trkpt>
      <trkpt lat="23.270725" lon="121.307427"></trkpt>
      <trkpt lat="23.270495" lon="121.307519"></trkpt>
      <trkpt lat="23.270437" lon="121.307376"></trkpt>
      <trkpt lat="23.270163" lon="121.307548"></trkpt>
      <trkpt lat="23.269581" lon="121.306626"></trkpt>
      <trkpt lat="23.269262" lon="121.306146"></trkpt>
      <trkpt lat="23.269138" lon="121.305921"></trkpt>
      <trkpt lat="23.268688" lon="121.305207"></trkpt>
      <trkpt lat="23.268531" lon="121.304908"></trkpt>
      <trkpt lat="23.268420" lon="121.304619"></trkpt>
      <trkpt lat="23.268395" lon="121.304537"></trkpt>
      <trkpt lat="23.268256" lon="121.304125"></trkpt>
      <trkpt lat="23.268014" lon="121.303588"></trkpt>
      <trkpt lat="23.267995" lon="121.303553"></trkpt>
      <trkpt lat="23.267943" lon="121.303455"></trkpt>
      <trkpt lat="23.267781" lon="121.303141"></trkpt>
      <trkpt lat="23.267677" lon="121.302985"></trkpt>
      <trkpt lat="23.267537" lon="121.302813"></trkpt>
      <trkpt lat="23.267280" lon="121.302599"></trkpt>
      <trkpt lat="23.266865" lon="121.302269"></trkpt>
      <trkpt lat="23.266540" lon="121.302027"></trkpt>
      <trkpt lat="23.266447" lon="121.301886"></trkpt>
      <trkpt lat="23.265726" lon="121.301432"></trkpt>
      <trkpt lat="23.265291" lon="121.301124"></trkpt>
      <trkpt lat="23.265126" lon="121.301007"></trkpt>
      <trkpt lat="23.264968" lon="121.300903"></trkpt>
      <trkpt lat="23.264898" lon="121.300833"></trkpt>
      <trkpt lat="23.264839" lon="121.300747"></trkpt>
      <trkpt lat="23.264819" lon="121.300642"></trkpt>
      <trkpt lat="23.264816" lon="121.300523"></trkpt>
      <trkpt lat="23.264901" lon="121.300178"></trkpt>
      <trkpt lat="23.264693" lon="121.300384"></trkpt>
      <trkpt lat="23.264617" lon="121.300447"></trkpt>
      <trkpt lat="23.264515" lon="121.300485"></trkpt>
      <trkpt lat="23.264399" lon="121.300484"></trkpt>
      <trkpt lat="23.264296" lon="121.300450"></trkpt>
      <trkpt lat="23.263930" lon="121.300276"></trkpt>
      <trkpt lat="23.263303" lon="121.299981"></trkpt>
      <trkpt lat="23.263030" lon="121.299926"></trkpt>
      <trkpt lat="23.262802" lon="121.299881"></trkpt>
      <trkpt lat="23.262626" lon="121.299828"></trkpt>
      <trkpt lat="23.262385" lon="121.299827"></trkpt>
      <trkpt lat="23.262271" lon="121.299806"></trkpt>
      <trkpt lat="23.261725" lon="121.299654"></trkpt>
      <trkpt lat="23.261392" lon="121.299511"></trkpt>
      <trkpt lat="23.260941" lon="121.299326"></trkpt>
      <trkpt lat="23.260855" lon="121.299263"></trkpt>
      <trkpt lat="23.260659" lon="121.299154"></trkpt>
      <trkpt lat="23.260462" lon="121.299033"></trkpt>
      <trkpt lat="23.260242" lon="121.298895"></trkpt>
      <trkpt lat="23.259812" lon="121.298613"></trkpt>
      <trkpt lat="23.259573" lon="121.298491"></trkpt>
      <trkpt lat="23.259384" lon="121.298428"></trkpt>
      <trkpt lat="23.259190" lon="121.298376"></trkpt>
      <trkpt lat="23.259080" lon="121.298353"></trkpt>
      <trkpt lat="23.258048" lon="121.298142"></trkpt>
      <trkpt lat="23.258014" lon="121.298136"></trkpt>
      <trkpt lat="23.257324" lon="121.297990"></trkpt>
      <trkpt lat="23.256591" lon="121.297739"></trkpt>
      <trkpt lat="23.255710" lon="121.297430"></trkpt>
      <trkpt lat="23.255459" lon="121.297343"></trkpt>
      <trkpt lat="23.255512" lon="121.297162"></trkpt>
      <trkpt lat="23.255522" lon="121.296904"></trkpt>
      <trkpt lat="23.255446" lon="121.296680"></trkpt>
      <trkpt lat="23.255149" lon="121.296312"></trkpt>
      <trkpt lat="23.254771" lon="121.295980"></trkpt>
      <trkpt lat="23.254445" lon="121.295906"></trkpt>
      <trkpt lat="23.252741" lon="121.295197"></trkpt>
      <trkpt lat="23.252309" lon="121.295144"></trkpt>
      <trkpt lat="23.252050" lon="121.295043"></trkpt>
      <trkpt lat="23.251940" lon="121.294999"></trkpt>
      <trkpt lat="23.251727" lon="121.294666"></trkpt>
      <trkpt lat="23.251284" lon="121.294461"></trkpt>
      <trkpt lat="23.251183" lon="121.294392"></trkpt>
      <trkpt lat="23.251071" lon="121.294305"></trkpt>
      <trkpt lat="23.250997" lon="121.294226"></trkpt>
      <trkpt lat="23.250800" lon="121.294127"></trkpt>
      <trkpt lat="23.250344" lon="121.293792"></trkpt>
      <trkpt lat="23.250485" lon="121.293590"></trkpt>
      <trkpt lat="23.250361" lon="121.293464"></trkpt>
      <trkpt lat="23.250159" lon="121.293338"></trkpt>
      <trkpt lat="23.249477" lon="121.293005"></trkpt>
      <trkpt lat="23.248849" lon="121.292637"></trkpt>
      <trkpt lat="23.248784" lon="121.292679"></trkpt>
      <trkpt lat="23.248673" lon="121.292765"></trkpt>
      <trkpt lat="23.248474" lon="121.292680"></trkpt>
      <trkpt lat="23.248259" lon="121.292664"></trkpt>
      <trkpt lat="23.247973" lon="121.292702"></trkpt>
      <trkpt lat="23.247362" lon="121.292656"></trkpt>
      <trkpt lat="23.246901" lon="121.292632"></trkpt>
      <trkpt lat="23.246514" lon="121.292680"></trkpt>
      <trkpt lat="23.246162" lon="121.292809"></trkpt>
      <trkpt lat="23.246123" lon="121.292771"></trkpt>
      <trkpt lat="23.245977" lon="121.292412"></trkpt>
      <trkpt lat="23.245738" lon="121.291962"></trkpt>
      <trkpt lat="23.245644" lon="121.291701"></trkpt>
      <trkpt lat="23.245514" lon="121.291326"></trkpt>
      <trkpt lat="23.245186" lon="121.290851"></trkpt>
      <trkpt lat="23.245060" lon="121.290502"></trkpt>
      <trkpt lat="23.244967" lon="121.290172"></trkpt>
      <trkpt lat="23.244969" lon="121.290081"></trkpt>
      <trkpt lat="23.245036" lon="121.289969"></trkpt>
      <trkpt lat="23.245050" lon="121.289883"></trkpt>
      <trkpt lat="23.244872" lon="121.289777"></trkpt>
      <trkpt lat="23.244776" lon="121.289705"></trkpt>
      <trkpt lat="23.244396" lon="121.289524"></trkpt>
      <trkpt lat="23.243854" lon="121.289028"></trkpt>
      <trkpt lat="23.243489" lon="121.288127"></trkpt>
      <trkpt lat="23.243234" lon="121.287403"></trkpt>
      <trkpt lat="23.243196" lon="121.287239"></trkpt>
      <trkpt lat="23.243110" lon="121.286475"></trkpt>
      <trkpt lat="23.243037" lon="121.286001"></trkpt>
      <trkpt lat="23.242958" lon="121.285563"></trkpt>
      <trkpt lat="23.242889" lon="121.285387"></trkpt>
      <trkpt lat="23.242798" lon="121.285158"></trkpt>
      <trkpt lat="23.242335" lon="121.284508"></trkpt>
      <trkpt lat="23.241514" lon="121.283447"></trkpt>
      <trkpt lat="23.241401" lon="121.283302"></trkpt>
      <trkpt lat="23.241206" lon="121.283160"></trkpt>
      <trkpt lat="23.240695" lon="121.282891"></trkpt>
      <trkpt lat="23.240443" lon="121.282764"></trkpt>
      <trkpt lat="23.239783" lon="121.282284"></trkpt>
      <trkpt lat="23.239726" lon="121.282307"></trkpt>
      <trkpt lat="23.239630" lon="121.282421"></trkpt>
      <trkpt lat="23.238325" lon="121.281409"></trkpt>
      <trkpt lat="23.237775" lon="121.281270"></trkpt>
      <trkpt lat="23.236275" lon="121.280970"></trkpt>
      <trkpt lat="23.235321" lon="121.280779"></trkpt>
      <trkpt lat="23.234697" lon="121.280662"></trkpt>
      <trkpt lat="23.234700" lon="121.280630"></trkpt>
      <trkpt lat="23.234708" lon="121.280567"></trkpt>
      <trkpt lat="23.234716" lon="121.280487"></trkpt>
      <trkpt lat="23.234422" lon="121.280393"></trkpt>
      <trkpt lat="23.234244" lon="121.280276"></trkpt>
      <trkpt lat="23.234061" lon="121.280228"></trkpt>
      <trkpt lat="23.233482" lon="121.280185"></trkpt>
      <trkpt lat="23.233275" lon="121.280188"></trkpt>
      <trkpt lat="23.232906" lon="121.280107"></trkpt>
      <trkpt lat="23.232334" lon="121.279995"></trkpt>
      <trkpt lat="23.232196" lon="121.279963"></trkpt>
      <trkpt lat="23.232011" lon="121.279843"></trkpt>
      <trkpt lat="23.231789" lon="121.279670"></trkpt>
      <trkpt lat="23.231695" lon="121.279482"></trkpt>
      <trkpt lat="23.231598" lon="121.279339"></trkpt>
      <trkpt lat="23.231551" lon="121.279304"></trkpt>
      <trkpt lat="23.230770" lon="121.279077"></trkpt>
      <trkpt lat="23.230475" lon="121.279002"></trkpt>
      <trkpt lat="23.230316" lon="121.279014"></trkpt>
      <trkpt lat="23.230130" lon="121.279048"></trkpt>
      <trkpt lat="23.229844" lon="121.279153"></trkpt>
      <trkpt lat="23.229685" lon="121.279266"></trkpt>
      <trkpt lat="23.229595" lon="121.279255"></trkpt>
      <trkpt lat="23.229429" lon="121.279159"></trkpt>
      <trkpt lat="23.229333" lon="121.279156"></trkpt>
      <trkpt lat="23.229046" lon="121.279328"></trkpt>
      <trkpt lat="23.228909" lon="121.279325"></trkpt>
      <trkpt lat="23.228781" lon="121.279287"></trkpt>
      <trkpt lat="23.228654" lon="121.279245"></trkpt>
      <trkpt lat="23.228511" lon="121.279170"></trkpt>
      <trkpt lat="23.228398" lon="121.279477"></trkpt>
      <trkpt lat="23.228368" lon="121.279686"></trkpt>
      <trkpt lat="23.226666" lon="121.281540"></trkpt>
      <trkpt lat="23.226595" lon="121.281589"></trkpt>
      <trkpt lat="23.226437" lon="121.281640"></trkpt>
      <trkpt lat="23.226163" lon="121.281657"></trkpt>
      <trkpt lat="23.225972" lon="121.281682"></trkpt>
      <trkpt lat="23.225322" lon="121.281748"></trkpt>
      <trkpt lat="23.224052" lon="121.281851"></trkpt>
      <trkpt lat="23.223262" lon="121.281920"></trkpt>
      <trkpt lat="23.223010" lon="121.281937"></trkpt>
      <trkpt lat="23.222528" lon="121.281968"></trkpt>
      <trkpt lat="23.222446" lon="121.282037"></trkpt>
      <trkpt lat="23.222208" lon="121.282031"></trkpt>
      <trkpt lat="23.221997" lon="121.282047"></trkpt>
      <trkpt lat="23.221924" lon="121.282052"></trkpt>
      <trkpt lat="23.220579" lon="121.282153"></trkpt>
      <trkpt lat="23.220045" lon="121.282192"></trkpt>
      <trkpt lat="23.219818" lon="121.282209"></trkpt>
      <trkpt lat="23.219587" lon="121.282226"></trkpt>
      <trkpt lat="23.219519" lon="121.282231"></trkpt>
      <trkpt lat="23.219009" lon="121.282258"></trkpt>
      <trkpt lat="23.218750" lon="121.282253"></trkpt>
      <trkpt lat="23.218448" lon="121.282164"></trkpt>
      <trkpt lat="23.218185" lon="121.282039"></trkpt>
      <trkpt lat="23.217948" lon="121.281856"></trkpt>
      <trkpt lat="23.217305" lon="121.281344"></trkpt>
      <trkpt lat="23.217162" lon="121.281230"></trkpt>
      <trkpt lat="23.216989" lon="121.281096"></trkpt>
      <trkpt lat="23.215892" lon="121.280156"></trkpt>
      <trkpt lat="23.215543" lon="121.279863"></trkpt>
      <trkpt lat="23.215008" lon="121.279439"></trkpt>
      <trkpt lat="23.214551" lon="121.279049"></trkpt>
      <trkpt lat="23.213641" lon="121.278272"></trkpt>
      <trkpt lat="23.213573" lon="121.278215"></trkpt>
      <trkpt lat="23.212828" lon="121.277609"></trkpt>
      <trkpt lat="23.211186" lon="121.276226"></trkpt>
      <trkpt lat="23.211116" lon="121.276167"></trkpt>
      <trkpt lat="23.210510" lon="121.275664"></trkpt>
      <trkpt lat="23.210069" lon="121.275300"></trkpt>
      <trkpt lat="23.210059" lon="121.275244"></trkpt>
      <trkpt lat="23.209236" lon="121.274567"></trkpt>
      <trkpt lat="23.208821" lon="121.274223"></trkpt>
      <trkpt lat="23.208019" lon="121.273543"></trkpt>
      <trkpt lat="23.207728" lon="121.273295"></trkpt>
      <trkpt lat="23.207635" lon="121.273229"></trkpt>
      <trkpt lat="23.207553" lon="121.273201"></trkpt>
      <trkpt lat="23.206837" lon="121.272624"></trkpt>
      <trkpt lat="23.206748" lon="121.272552"></trkpt>
      <trkpt lat="23.206522" lon="121.272373"></trkpt>
      <trkpt lat="23.206302" lon="121.272224"></trkpt>
      <trkpt lat="23.206058" lon="121.272063"></trkpt>
      <trkpt lat="23.205869" lon="121.271970"></trkpt>
      <trkpt lat="23.205755" lon="121.271939"></trkpt>
      <trkpt lat="23.205615" lon="121.271880"></trkpt>
      <trkpt lat="23.205197" lon="121.271696"></trkpt>
      <trkpt lat="23.204592" lon="121.271442"></trkpt>
      <trkpt lat="23.202516" lon="121.270572"></trkpt>
      <trkpt lat="23.202549" lon="121.270482"></trkpt>
      <trkpt lat="23.202390" lon="121.270407"></trkpt>
      <trkpt lat="23.202310" lon="121.270261"></trkpt>
      <trkpt lat="23.202276" lon="121.270248"></trkpt>
      <trkpt lat="23.202321" lon="121.270086"></trkpt>
      <trkpt lat="23.202385" lon="121.269531"></trkpt>
      <trkpt lat="23.202092" lon="121.269444"></trkpt>
      <trkpt lat="23.201795" lon="121.269357"></trkpt>
      <trkpt lat="23.201207" lon="121.269149"></trkpt>
      <trkpt lat="23.200860" lon="121.268986"></trkpt>
      <trkpt lat="23.200168" lon="121.268625"></trkpt>
      <trkpt lat="23.199924" lon="121.268484"></trkpt>
      <trkpt lat="23.199345" lon="121.268077"></trkpt>
      <trkpt lat="23.198988" lon="121.267827"></trkpt>
      <trkpt lat="23.197994" lon="121.267136"></trkpt>
      <trkpt lat="23.197344" lon="121.266667"></trkpt>
      <trkpt lat="23.197116" lon="121.266502"></trkpt>
      <trkpt lat="23.196534" lon="121.265932"></trkpt>
      <trkpt lat="23.196417" lon="121.265826"></trkpt>
      <trkpt lat="23.196146" lon="121.265550"></trkpt>
      <trkpt lat="23.195023" lon="121.264499"></trkpt>
      <trkpt lat="23.194897" lon="121.264393"></trkpt>
      <trkpt lat="23.194721" lon="121.264363"></trkpt>
      <trkpt lat="23.194571" lon="121.264386"></trkpt>
      <trkpt lat="23.194416" lon="121.264182"></trkpt>
      <trkpt lat="23.194202" lon="121.263856"></trkpt>
      <trkpt lat="23.194186" lon="121.263802"></trkpt>
      <trkpt lat="23.194232" lon="121.263681"></trkpt>
      <trkpt lat="23.194271" lon="121.263619"></trkpt>
      <trkpt lat="23.194285" lon="121.263593"></trkpt>
      <trkpt lat="23.195114" lon="121.262268"></trkpt>
      <trkpt lat="23.195195" lon="121.262152"></trkpt>
      <trkpt lat="23.193634" lon="121.260486"></trkpt>
      <trkpt lat="23.192993" lon="121.259714"></trkpt>
      <trkpt lat="23.191454" lon="121.257693"></trkpt>
      <trkpt lat="23.189515" lon="121.254791"></trkpt>
      <trkpt lat="23.186816" lon="121.250731"></trkpt>
      <trkpt lat="23.186625" lon="121.250301"></trkpt>
      <trkpt lat="23.186514" lon="121.250213"></trkpt>
      <trkpt lat="23.186413" lon="121.250281"></trkpt>
      <trkpt lat="23.186325" lon="121.250392"></trkpt>
      <trkpt lat="23.185978" lon="121.251028"></trkpt>
      <trkpt lat="23.185628" lon="121.251685"></trkpt>
      <trkpt lat="23.185386" lon="121.252156"></trkpt>
      <trkpt lat="23.185300" lon="121.252295"></trkpt>
      <trkpt lat="23.185231" lon="121.252339"></trkpt>
      <trkpt lat="23.185090" lon="121.252335"></trkpt>
      <trkpt lat="23.184917" lon="121.252289"></trkpt>
      <trkpt lat="23.184715" lon="121.252241"></trkpt>
      <trkpt lat="23.184636" lon="121.252222"></trkpt>
      <trkpt lat="23.184490" lon="121.252187"></trkpt>
      <trkpt lat="23.184430" lon="121.252132"></trkpt>
      <trkpt lat="23.184347" lon="121.252068"></trkpt>
      <trkpt lat="23.183769" lon="121.251726"></trkpt>
      <trkpt lat="23.183429" lon="121.251466"></trkpt>
      <trkpt lat="23.183266" lon="121.251299"></trkpt>
      <trkpt lat="23.183128" lon="121.251114"></trkpt>
      <trkpt lat="23.183026" lon="121.250900"></trkpt>
      <trkpt lat="23.182950" lon="121.250757"></trkpt>
      <trkpt lat="23.182820" lon="121.250658"></trkpt>
      <trkpt lat="23.181987" lon="121.250190"></trkpt>
      <trkpt lat="23.181386" lon="121.249863"></trkpt>
      <trkpt lat="23.181015" lon="121.249661"></trkpt>
      <trkpt lat="23.180696" lon="121.249458"></trkpt>
      <trkpt lat="23.180605" lon="121.249432"></trkpt>
      <trkpt lat="23.180474" lon="121.249394"></trkpt>
      <trkpt lat="23.180174" lon="121.249343"></trkpt>
      <trkpt lat="23.179270" lon="121.248773"></trkpt>
      <trkpt lat="23.179163" lon="121.248790"></trkpt>
      <trkpt lat="23.179069" lon="121.248735"></trkpt>
      <trkpt lat="23.178746" lon="121.248545"></trkpt>
      <trkpt lat="23.178583" lon="121.248456"></trkpt>
      <trkpt lat="23.178280" lon="121.248291"></trkpt>
      <trkpt lat="23.178112" lon="121.248197"></trkpt>
      <trkpt lat="23.178084" lon="121.248180"></trkpt>
      <trkpt lat="23.177720" lon="121.248101"></trkpt>
      <trkpt lat="23.177382" lon="121.248052"></trkpt>
      <trkpt lat="23.177160" lon="121.248007"></trkpt>
      <trkpt lat="23.176845" lon="121.247962"></trkpt>
      <trkpt lat="23.176439" lon="121.247814"></trkpt>
      <trkpt lat="23.176059" lon="121.247680"></trkpt>
      <trkpt lat="23.175926" lon="121.247640"></trkpt>
      <trkpt lat="23.175691" lon="121.247545"></trkpt>
      <trkpt lat="23.175588" lon="121.247498"></trkpt>
      <trkpt lat="23.174890" lon="121.247219"></trkpt>
      <trkpt lat="23.174184" lon="121.246970"></trkpt>
      <trkpt lat="23.174115" lon="121.246949"></trkpt>
      <trkpt lat="23.173727" lon="121.246809"></trkpt>
      <trkpt lat="23.173353" lon="121.246701"></trkpt>
      <trkpt lat="23.172720" lon="121.246687"></trkpt>
      <trkpt lat="23.172152" lon="121.246696"></trkpt>
      <trkpt lat="23.171774" lon="121.246702"></trkpt>
      <trkpt lat="23.170863" lon="121.246709"></trkpt>
      <trkpt lat="23.170593" lon="121.246452"></trkpt>
      <trkpt lat="23.170531" lon="121.246377"></trkpt>
      <trkpt lat="23.170501" lon="121.246319"></trkpt>
      <trkpt lat="23.170381" lon="121.246085"></trkpt>
      <trkpt lat="23.170149" lon="121.245621"></trkpt>
      <trkpt lat="23.169906" lon="121.245135"></trkpt>
      <trkpt lat="23.169528" lon="121.244424"></trkpt>
      <trkpt lat="23.169489" lon="121.244355"></trkpt>
      <trkpt lat="23.169459" lon="121.244304"></trkpt>
      <trkpt lat="23.169317" lon="121.244088"></trkpt>
      <trkpt lat="23.169186" lon="121.243926"></trkpt>
      <trkpt lat="23.169033" lon="121.243800"></trkpt>
      <trkpt lat="23.168373" lon="121.243441"></trkpt>
      <trkpt lat="23.168320" lon="121.243412"></trkpt>
      <trkpt lat="23.167029" lon="121.242677"></trkpt>
      <trkpt lat="23.166757" lon="121.242537"></trkpt>
      <trkpt lat="23.166715" lon="121.242520"></trkpt>
      <trkpt lat="23.166666" lon="121.242500"></trkpt>
      <trkpt lat="23.166531" lon="121.242450"></trkpt>
      <trkpt lat="23.166412" lon="121.242424"></trkpt>
      <trkpt lat="23.166190" lon="121.242339"></trkpt>
      <trkpt lat="23.166141" lon="121.242306"></trkpt>
      <trkpt lat="23.166076" lon="121.242239"></trkpt>
      <trkpt lat="23.166012" lon="121.242139"></trkpt>
      <trkpt lat="23.166007" lon="121.242028"></trkpt>
      <trkpt lat="23.165888" lon="121.242038"></trkpt>
      <trkpt lat="23.165379" lon="121.242085"></trkpt>
      <trkpt lat="23.165121" lon="121.242100"></trkpt>
      <trkpt lat="23.165064" lon="121.242104"></trkpt>
      <trkpt lat="23.164735" lon="121.242094"></trkpt>
      <trkpt lat="23.164044" lon="121.242048"></trkpt>
      <trkpt lat="23.163564" lon="121.242004"></trkpt>
      <trkpt lat="23.163524" lon="121.242006"></trkpt>
      <trkpt lat="23.163115" lon="121.242023"></trkpt>
      <trkpt lat="23.163043" lon="121.242034"></trkpt>
      <trkpt lat="23.163004" lon="121.241947"></trkpt>
      <trkpt lat="23.162765" lon="121.241835"></trkpt>
      <trkpt lat="23.162096" lon="121.241457"></trkpt>
      <trkpt lat="23.161655" lon="121.241219"></trkpt>
      <trkpt lat="23.161190" lon="121.240961"></trkpt>
      <trkpt lat="23.161033" lon="121.240875"></trkpt>
      <trkpt lat="23.160718" lon="121.240733"></trkpt>
      <trkpt lat="23.160618" lon="121.240679"></trkpt>
      <trkpt lat="23.160440" lon="121.240536"></trkpt>
      <trkpt lat="23.160277" lon="121.240390"></trkpt>
      <trkpt lat="23.160198" lon="121.240319"></trkpt>
      <trkpt lat="23.159787" lon="121.239915"></trkpt>
      <trkpt lat="23.159577" lon="121.239652"></trkpt>
      <trkpt lat="23.159496" lon="121.239543"></trkpt>
      <trkpt lat="23.159331" lon="121.239319"></trkpt>
      <trkpt lat="23.159210" lon="121.239204"></trkpt>
      <trkpt lat="23.159038" lon="121.239131"></trkpt>
      <trkpt lat="23.158834" lon="121.239067"></trkpt>
      <trkpt lat="23.158509" lon="121.238988"></trkpt>
      <trkpt lat="23.158258" lon="121.238873"></trkpt>
      <trkpt lat="23.157956" lon="121.238683"></trkpt>
      <trkpt lat="23.157804" lon="121.238552"></trkpt>
      <trkpt lat="23.157630" lon="121.238455"></trkpt>
      <trkpt lat="23.157376" lon="121.238363"></trkpt>
      <trkpt lat="23.157082" lon="121.238194"></trkpt>
      <trkpt lat="23.157019" lon="121.238131"></trkpt>
      <trkpt lat="23.156964" lon="121.238058"></trkpt>
      <trkpt lat="23.156431" lon="121.236972"></trkpt>
      <trkpt lat="23.156396" lon="121.236913"></trkpt>
      <trkpt lat="23.156117" lon="121.236353"></trkpt>
      <trkpt lat="23.156045" lon="121.236210"></trkpt>
      <trkpt lat="23.156020" lon="121.236161"></trkpt>
      <trkpt lat="23.155928" lon="121.235980"></trkpt>
      <trkpt lat="23.155833" lon="121.235791"></trkpt>
      <trkpt lat="23.155780" lon="121.235657"></trkpt>
      <trkpt lat="23.155735" lon="121.235600"></trkpt>
      <trkpt lat="23.155665" lon="121.235511"></trkpt>
      <trkpt lat="23.155343" lon="121.235190"></trkpt>
      <trkpt lat="23.155282" lon="121.235132"></trkpt>
      <trkpt lat="23.155127" lon="121.234984"></trkpt>
      <trkpt lat="23.154473" lon="121.234308"></trkpt>
      <trkpt lat="23.154266" lon="121.234095"></trkpt>
      <trkpt lat="23.153725" lon="121.233541"></trkpt>
      <trkpt lat="23.153244" lon="121.233050"></trkpt>
      <trkpt lat="23.153024" lon="121.232774"></trkpt>
      <trkpt lat="23.152024" lon="121.231756"></trkpt>
      <trkpt lat="23.151037" lon="121.230662"></trkpt>
      <trkpt lat="23.150864" lon="121.230476"></trkpt>
      <trkpt lat="23.150696" lon="121.230306"></trkpt>
      <trkpt lat="23.150256" lon="121.229855"></trkpt>
      <trkpt lat="23.149704" lon="121.229274"></trkpt>
      <trkpt lat="23.149289" lon="121.228852"></trkpt>
      <trkpt lat="23.149265" lon="121.228828"></trkpt>
      <trkpt lat="23.148782" lon="121.228369"></trkpt>
      <trkpt lat="23.148645" lon="121.228236"></trkpt>
      <trkpt lat="23.148516" lon="121.228111"></trkpt>
      <trkpt lat="23.148416" lon="121.228005"></trkpt>
      <trkpt lat="23.148352" lon="121.227955"></trkpt>
      <trkpt lat="23.148147" lon="121.227876"></trkpt>
      <trkpt lat="23.147946" lon="121.227819"></trkpt>
      <trkpt lat="23.147761" lon="121.227816"></trkpt>
      <trkpt lat="23.147680" lon="121.227822"></trkpt>
      <trkpt lat="23.147506" lon="121.227828"></trkpt>
      <trkpt lat="23.147258" lon="121.227876"></trkpt>
      <trkpt lat="23.147166" lon="121.227916"></trkpt>
      <trkpt lat="23.147051" lon="121.227965"></trkpt>
      <trkpt lat="23.146792" lon="121.228061"></trkpt>
      <trkpt lat="23.146669" lon="121.228071"></trkpt>
      <trkpt lat="23.145790" lon="121.228016"></trkpt>
      <trkpt lat="23.145723" lon="121.228014"></trkpt>
      <trkpt lat="23.145623" lon="121.227985"></trkpt>
      <trkpt lat="23.145378" lon="121.227844"></trkpt>
      <trkpt lat="23.144868" lon="121.227528"></trkpt>
      <trkpt lat="23.144443" lon="121.227244"></trkpt>
      <trkpt lat="23.143392" lon="121.226470"></trkpt>
      <trkpt lat="23.143286" lon="121.226404"></trkpt>
      <trkpt lat="23.143085" lon="121.226280"></trkpt>
      <trkpt lat="23.142587" lon="121.225997"></trkpt>
      <trkpt lat="23.142029" lon="121.225707"></trkpt>
      <trkpt lat="23.141690" lon="121.225453"></trkpt>
      <trkpt lat="23.141544" lon="121.225345"></trkpt>
      <trkpt lat="23.141290" lon="121.225144"></trkpt>
      <trkpt lat="23.140921" lon="121.224724"></trkpt>
      <trkpt lat="23.140547" lon="121.224264"></trkpt>
      <trkpt lat="23.140429" lon="121.224139"></trkpt>
      <trkpt lat="23.140315" lon="121.224044"></trkpt>
      <trkpt lat="23.140226" lon="121.223989"></trkpt>
      <trkpt lat="23.139644" lon="121.223655"></trkpt>
      <trkpt lat="23.139584" lon="121.223615"></trkpt>
      <trkpt lat="23.139381" lon="121.223480"></trkpt>
      <trkpt lat="23.139173" lon="121.223361"></trkpt>
      <trkpt lat="23.138498" lon="121.222974"></trkpt>
      <trkpt lat="23.137941" lon="121.222612"></trkpt>
      <trkpt lat="23.136763" lon="121.221940"></trkpt>
      <trkpt lat="23.136029" lon="121.221576"></trkpt>
      <trkpt lat="23.135719" lon="121.221429"></trkpt>
      <trkpt lat="23.134675" lon="121.220906"></trkpt>
      <trkpt lat="23.134162" lon="121.220648"></trkpt>
      <trkpt lat="23.133353" lon="121.220263"></trkpt>
      <trkpt lat="23.133071" lon="121.220104"></trkpt>
      <trkpt lat="23.132913" lon="121.219950"></trkpt>
      <trkpt lat="23.132861" lon="121.219808"></trkpt>
      <trkpt lat="23.132836" lon="121.219653"></trkpt>
      <trkpt lat="23.132830" lon="121.219468"></trkpt>
      <trkpt lat="23.132802" lon="121.219369"></trkpt>
      <trkpt lat="23.132736" lon="121.219318"></trkpt>
      <trkpt lat="23.132553" lon="121.219196"></trkpt>
      <trkpt lat="23.132303" lon="121.219044"></trkpt>
      <trkpt lat="23.132062" lon="121.218955"></trkpt>
      <trkpt lat="23.131849" lon="121.218877"></trkpt>
      <trkpt lat="23.131091" lon="121.218584"></trkpt>
      <trkpt lat="23.130772" lon="121.218527"></trkpt>
      <trkpt lat="23.129600" lon="121.218370"></trkpt>
      <trkpt lat="23.129377" lon="121.218300"></trkpt>
      <trkpt lat="23.129270" lon="121.218251"></trkpt>
      <trkpt lat="23.129198" lon="121.218217"></trkpt>
      <trkpt lat="23.129122" lon="121.218183"></trkpt>
      <trkpt lat="23.128537" lon="121.217880"></trkpt>
      <trkpt lat="23.128157" lon="121.217689"></trkpt>
      <trkpt lat="23.128097" lon="121.217619"></trkpt>
      <trkpt lat="23.127898" lon="121.217496"></trkpt>
      <trkpt lat="23.127816" lon="121.217419"></trkpt>
      <trkpt lat="23.127774" lon="121.217360"></trkpt>
      <trkpt lat="23.127540" lon="121.217039"></trkpt>
      <trkpt lat="23.127185" lon="121.217340"></trkpt>
      <trkpt lat="23.126772" lon="121.216791"></trkpt>
      <trkpt lat="23.126592" lon="121.216538"></trkpt>
      <trkpt lat="23.125953" lon="121.215649"></trkpt>
      <trkpt lat="23.125239" lon="121.216249"></trkpt>
      <trkpt lat="23.124566" lon="121.216817"></trkpt>
      <trkpt lat="23.124539" lon="121.216848"></trkpt>
      <trkpt lat="23.124407" lon="121.216961"></trkpt>
      <trkpt lat="23.124353" lon="121.217008"></trkpt>
      <trkpt lat="23.123826" lon="121.217517"></trkpt>
      <trkpt lat="23.123676" lon="121.217659"></trkpt>
      <trkpt lat="23.123384" lon="121.217931"></trkpt>
      <trkpt lat="23.122985" lon="121.218308"></trkpt>
      <trkpt lat="23.122701" lon="121.217920"></trkpt>
      <trkpt lat="23.122518" lon="121.217662"></trkpt>
      <trkpt lat="23.122017" lon="121.216987"></trkpt>
      <trkpt lat="23.121486" lon="121.216214"></trkpt>
      <trkpt lat="23.121362" lon="121.215989"></trkpt>
      <trkpt lat="23.121282" lon="121.215892"></trkpt>
      <trkpt lat="23.120848" lon="121.215455"></trkpt>
      <trkpt lat="23.120570" lon="121.215248"></trkpt>
      <trkpt lat="23.120445" lon="121.215172"></trkpt>
      <trkpt lat="23.120325" lon="121.215073"></trkpt>
      <trkpt lat="23.119915" lon="121.214729"></trkpt>
      <trkpt lat="23.119492" lon="121.214391"></trkpt>
      <trkpt lat="23.119154" lon="121.214121"></trkpt>
      <trkpt lat="23.118341" lon="121.213444"></trkpt>
      <trkpt lat="23.117642" lon="121.212878"></trkpt>
      <trkpt lat="23.117450" lon="121.212733"></trkpt>
      <trkpt lat="23.117312" lon="121.212645"></trkpt>
      <trkpt lat="23.116988" lon="121.212464"></trkpt>
      <trkpt lat="23.116008" lon="121.211954"></trkpt>
      <trkpt lat="23.115778" lon="121.211839"></trkpt>
      <trkpt lat="23.115049" lon="121.211473"></trkpt>
      <trkpt lat="23.114926" lon="121.211409"></trkpt>
      <trkpt lat="23.114425" lon="121.211144"></trkpt>
      <trkpt lat="23.114163" lon="121.211005"></trkpt>
      <trkpt lat="23.113649" lon="121.210733"></trkpt>
      <trkpt lat="23.113194" lon="121.210499"></trkpt>
      <trkpt lat="23.112404" lon="121.210086"></trkpt>
      <trkpt lat="23.111563" lon="121.209668"></trkpt>
      <trkpt lat="23.110795" lon="121.209286"></trkpt>
      <trkpt lat="23.110468" lon="121.209113"></trkpt>
      <trkpt lat="23.110268" lon="121.209007"></trkpt>
      <trkpt lat="23.109110" lon="121.208438"></trkpt>
      <trkpt lat="23.108605" lon="121.208147"></trkpt>
      <trkpt lat="23.108227" lon="121.207953"></trkpt>
      <trkpt lat="23.106897" lon="121.207276"></trkpt>
      <trkpt lat="23.105765" lon="121.206686"></trkpt>
      <trkpt lat="23.105604" lon="121.206601"></trkpt>
      <trkpt lat="23.105587" lon="121.206530"></trkpt>
      <trkpt lat="23.105578" lon="121.206433"></trkpt>
      <trkpt lat="23.105566" lon="121.206355"></trkpt>
      <trkpt lat="23.105554" lon="121.206304"></trkpt>
      <trkpt lat="23.105525" lon="121.206213"></trkpt>
      <trkpt lat="23.105478" lon="121.206081"></trkpt>
      <trkpt lat="23.104583" lon="121.202058"></trkpt>
      <trkpt lat="23.104903" lon="121.201637"></trkpt>
      <trkpt lat="23.104957" lon="121.201568"></trkpt>
      <trkpt lat="23.105372" lon="121.200997"></trkpt>
      <trkpt lat="23.104583" lon="121.200457"></trkpt>
      <trkpt lat="23.103745" lon="121.199815"></trkpt>
      <trkpt lat="23.103376" lon="121.199483"></trkpt>
      <trkpt lat="23.103059" lon="121.199209"></trkpt>
      <trkpt lat="23.103025" lon="121.199120"></trkpt>
      <trkpt lat="23.102720" lon="121.198739"></trkpt>
      <trkpt lat="23.102508" lon="121.198401"></trkpt>
      <trkpt lat="23.101985" lon="121.197518"></trkpt>
      <trkpt lat="23.101119" lon="121.196041"></trkpt>
      <trkpt lat="23.098530" lon="121.191704"></trkpt>
      <trkpt lat="23.096824" lon="121.188869"></trkpt>
      <trkpt lat="23.096101" lon="121.187667"></trkpt>
      <trkpt lat="23.095652" lon="121.186893"></trkpt>
      <trkpt lat="23.094939" lon="121.185742"></trkpt>
      <trkpt lat="23.094314" lon="121.184676"></trkpt>
      <trkpt lat="23.093851" lon="121.183873"></trkpt>
      <trkpt lat="23.093658" lon="121.183544"></trkpt>
      <trkpt lat="23.093561" lon="121.183587"></trkpt>
      <trkpt lat="23.092769" lon="121.183732"></trkpt>
      <trkpt lat="23.090447" lon="121.184180"></trkpt>
      <trkpt lat="23.090246" lon="121.184220"></trkpt>
      <trkpt lat="23.089326" lon="121.184404"></trkpt>
      <trkpt lat="23.088230" lon="121.184614"></trkpt>
      <trkpt lat="23.085823" lon="121.185090"></trkpt>
      <trkpt lat="23.083561" lon="121.185533"></trkpt>
      <trkpt lat="23.082442" lon="121.185744"></trkpt>
      <trkpt lat="23.081649" lon="121.185848"></trkpt>
      <trkpt lat="23.080994" lon="121.185860"></trkpt>
      <trkpt lat="23.080971" lon="121.184969"></trkpt>
      <trkpt lat="23.080999" lon="121.184483"></trkpt>
      <trkpt lat="23.080916" lon="121.183062"></trkpt>
      <trkpt lat="23.080877" lon="121.181608"></trkpt>
      <trkpt lat="23.080877" lon="121.180628"></trkpt>
      <trkpt lat="23.080799" lon="121.180437"></trkpt>
      <trkpt lat="23.080646" lon="121.180236"></trkpt>
      <trkpt lat="23.080413" lon="121.180138"></trkpt>
      <trkpt lat="23.079729" lon="121.179930"></trkpt>
      <trkpt lat="23.079605" lon="121.179892"></trkpt>
      <trkpt lat="23.079556" lon="121.179879"></trkpt>
      <trkpt lat="23.079512" lon="121.179846"></trkpt>
      <trkpt lat="23.079373" lon="121.179728"></trkpt>
      <trkpt lat="23.079324" lon="121.179692"></trkpt>
      <trkpt lat="23.079266" lon="121.179672"></trkpt>
      <trkpt lat="23.079040" lon="121.179594"></trkpt>
      <trkpt lat="23.078949" lon="121.179576"></trkpt>
      <trkpt lat="23.078893" lon="121.179576"></trkpt>
      <trkpt lat="23.078854" lon="121.179589"></trkpt>
      <trkpt lat="23.078677" lon="121.179708"></trkpt>
      <trkpt lat="23.078634" lon="121.179719"></trkpt>
      <trkpt lat="23.078595" lon="121.179712"></trkpt>
      <trkpt lat="23.078381" lon="121.179648"></trkpt>
      <trkpt lat="23.078322" lon="121.179652"></trkpt>
      <trkpt lat="23.078279" lon="121.179672"></trkpt>
      <trkpt lat="23.078236" lon="121.179738"></trkpt>
      <trkpt lat="23.078145" lon="121.179956"></trkpt>
      <trkpt lat="23.078091" lon="121.180046"></trkpt>
      <trkpt lat="23.078033" lon="121.180073"></trkpt>
      <trkpt lat="23.077980" lon="121.180070"></trkpt>
      <trkpt lat="23.077504" lon="121.179860"></trkpt>
      <trkpt lat="23.077420" lon="121.179828"></trkpt>
      <trkpt lat="23.077279" lon="121.179753"></trkpt>
      <trkpt lat="23.076816" lon="121.179462"></trkpt>
      <trkpt lat="23.076161" lon="121.179051"></trkpt>
      <trkpt lat="23.075821" lon="121.178914"></trkpt>
      <trkpt lat="23.075285" lon="121.178699"></trkpt>
      <trkpt lat="23.074194" lon="121.178245"></trkpt>
      <trkpt lat="23.074181" lon="121.178292"></trkpt>
      <trkpt lat="23.074165" lon="121.178353"></trkpt>
      <trkpt lat="23.074125" lon="121.178497"></trkpt>
      <trkpt lat="23.073627" lon="121.178365"></trkpt>
      <trkpt lat="23.073040" lon="121.178093"></trkpt>
      <trkpt lat="23.072472" lon="121.177780"></trkpt>
      <trkpt lat="23.072018" lon="121.177684"></trkpt>
      <trkpt lat="23.071648" lon="121.177568"></trkpt>
      <trkpt lat="23.071460" lon="121.177434"></trkpt>
      <trkpt lat="23.071339" lon="121.177416"></trkpt>
      <trkpt lat="23.071370" lon="121.177262"></trkpt>
      <trkpt lat="23.071181" lon="121.177251"></trkpt>
      <trkpt lat="23.070774" lon="121.177163"></trkpt>
      <trkpt lat="23.070240" lon="121.176894"></trkpt>
      <trkpt lat="23.068046" lon="121.176127"></trkpt>
      <trkpt lat="23.067854" lon="121.176761"></trkpt>
      <trkpt lat="23.066938" lon="121.176921"></trkpt>
      <trkpt lat="23.066213" lon="121.177002"></trkpt>
      <trkpt lat="23.066013" lon="121.176996"></trkpt>
      <trkpt lat="23.065883" lon="121.176991"></trkpt>
      <trkpt lat="23.065725" lon="121.176961"></trkpt>
      <trkpt lat="23.065562" lon="121.176921"></trkpt>
      <trkpt lat="23.065473" lon="121.176953"></trkpt>
      <trkpt lat="23.065372" lon="121.177007"></trkpt>
      <trkpt lat="23.065285" lon="121.177042"></trkpt>
      <trkpt lat="23.064244" lon="121.176849"></trkpt>
      <trkpt lat="23.064071" lon="121.176790"></trkpt>
      <trkpt lat="23.063494" lon="121.176546"></trkpt>
      <trkpt lat="23.063365" lon="121.176535"></trkpt>
      <trkpt lat="23.063074" lon="121.176559"></trkpt>
      <trkpt lat="23.062238" lon="121.176178"></trkpt>
      <trkpt lat="23.062166" lon="121.176066"></trkpt>
      <trkpt lat="23.062065" lon="121.175926"></trkpt>
      <trkpt lat="23.061181" lon="121.175534"></trkpt>
      <trkpt lat="23.061016" lon="121.175497"></trkpt>
      <trkpt lat="23.060870" lon="121.175435"></trkpt>
      <trkpt lat="23.060564" lon="121.175221"></trkpt>
      <trkpt lat="23.060399" lon="121.175073"></trkpt>
      <trkpt lat="23.060226" lon="121.174807"></trkpt>
      <trkpt lat="23.060177" lon="121.174759"></trkpt>
      <trkpt lat="23.059958" lon="121.174708"></trkpt>
      <trkpt lat="23.059925" lon="121.174675"></trkpt>
      <trkpt lat="23.059906" lon="121.174628"></trkpt>
      <trkpt lat="23.060141" lon="121.173933"></trkpt>
      <trkpt lat="23.060242" lon="121.173654"></trkpt>
      <trkpt lat="23.059494" lon="121.173157"></trkpt>
      <trkpt lat="23.059265" lon="121.173020"></trkpt>
      <trkpt lat="23.058633" lon="121.172743"></trkpt>
      <trkpt lat="23.057480" lon="121.172258"></trkpt>
      <trkpt lat="23.057340" lon="121.172194"></trkpt>
      <trkpt lat="23.056906" lon="121.172014"></trkpt>
      <trkpt lat="23.055895" lon="121.171605"></trkpt>
      <trkpt lat="23.055199" lon="121.171336"></trkpt>
      <trkpt lat="23.054681" lon="121.171145"></trkpt>
      <trkpt lat="23.055082" lon="121.170894"></trkpt>
      <trkpt lat="23.055186" lon="121.170530"></trkpt>
      <trkpt lat="23.055488" lon="121.169481"></trkpt>
      <trkpt lat="23.055487" lon="121.169179"></trkpt>
      <trkpt lat="23.055337" lon="121.169176"></trkpt>
      <trkpt lat="23.055291" lon="121.169174"></trkpt>
      <trkpt lat="23.055250" lon="121.169159"></trkpt>
      <trkpt lat="23.055171" lon="121.169113"></trkpt>
      <trkpt lat="23.055023" lon="121.169022"></trkpt>
      <trkpt lat="23.055009" lon="121.169015"></trkpt>
      <trkpt lat="23.054209" lon="121.168605"></trkpt>
      <trkpt lat="23.054096" lon="121.168564"></trkpt>
      <trkpt lat="23.053925" lon="121.168511"></trkpt>
      <trkpt lat="23.053788" lon="121.168487"></trkpt>
      <trkpt lat="23.053682" lon="121.168476"></trkpt>
      <trkpt lat="23.053587" lon="121.168458"></trkpt>
      <trkpt lat="23.053368" lon="121.168393"></trkpt>
      <trkpt lat="23.050852" lon="121.167544"></trkpt>
      <trkpt lat="23.048806" lon="121.166868"></trkpt>
      <trkpt lat="23.048070" lon="121.166618"></trkpt>
      <trkpt lat="23.047731" lon="121.166529"></trkpt>
      <trkpt lat="23.048021" lon="121.165771"></trkpt>
      <trkpt lat="23.046383" lon="121.165265"></trkpt>
      <trkpt lat="23.044513" lon="121.164665"></trkpt>
      <trkpt lat="23.044592" lon="121.164417"></trkpt>
      <trkpt lat="23.044452" lon="121.164360"></trkpt>
      <trkpt lat="23.044401" lon="121.164493"></trkpt>
      <trkpt lat="23.044121" lon="121.164409"></trkpt>
      <trkpt lat="23.041431" lon="121.163539"></trkpt>
      <trkpt lat="23.041376" lon="121.163519"></trkpt>
      <trkpt lat="23.041354" lon="121.163500"></trkpt>
      <trkpt lat="23.041322" lon="121.163458"></trkpt>
      <trkpt lat="23.041307" lon="121.163421"></trkpt>
      <trkpt lat="23.041275" lon="121.163376"></trkpt>
      <trkpt lat="23.041251" lon="121.163341"></trkpt>
      <trkpt lat="23.041206" lon="121.163311"></trkpt>
      <trkpt lat="23.041140" lon="121.163271"></trkpt>
      <trkpt lat="23.040933" lon="121.163194"></trkpt>
      <trkpt lat="23.040626" lon="121.163091"></trkpt>
      <trkpt lat="23.040280" lon="121.163010"></trkpt>
      <trkpt lat="23.040035" lon="121.162961"></trkpt>
      <trkpt lat="23.039702" lon="121.162925"></trkpt>
      <trkpt lat="23.039187" lon="121.162956"></trkpt>
      <trkpt lat="23.038671" lon="121.162984"></trkpt>
      <trkpt lat="23.038477" lon="121.163003"></trkpt>
      <trkpt lat="23.038309" lon="121.163039"></trkpt>
      <trkpt lat="23.038247" lon="121.162759"></trkpt>
      <trkpt lat="23.038147" lon="121.162784"></trkpt>
      <trkpt lat="23.037239" lon="121.163019"></trkpt>
      <trkpt lat="23.036958" lon="121.163196"></trkpt>
      <trkpt lat="23.035963" lon="121.163300"></trkpt>
      <trkpt lat="23.035871" lon="121.163293"></trkpt>
      <trkpt lat="23.035077" lon="121.163231"></trkpt>
      <trkpt lat="23.034300" lon="121.163054"></trkpt>
      <trkpt lat="23.034123" lon="121.163013"></trkpt>
      <trkpt lat="23.032111" lon="121.162554"></trkpt>
      <trkpt lat="23.031485" lon="121.162408"></trkpt>
      <trkpt lat="23.031008" lon="121.162247"></trkpt>
      <trkpt lat="23.030480" lon="121.161975"></trkpt>
      <trkpt lat="23.030175" lon="121.161761"></trkpt>
      <trkpt lat="23.029683" lon="121.161305"></trkpt>
      <trkpt lat="23.028649" lon="121.159911"></trkpt>
      <trkpt lat="23.027598" lon="121.158458"></trkpt>
      <trkpt lat="23.026485" lon="121.156945"></trkpt>
      <trkpt lat="23.025327" lon="121.155327"></trkpt>
      <trkpt lat="23.025282" lon="121.155265"></trkpt>
      <trkpt lat="23.024057" lon="121.153555"></trkpt>
      <trkpt lat="23.023164" lon="121.152914"></trkpt>
      <trkpt lat="23.022403" lon="121.152592"></trkpt>
      <trkpt lat="23.021635" lon="121.152371"></trkpt>
      <trkpt lat="23.018866" lon="121.152110"></trkpt>
      <trkpt lat="23.016616" lon="121.151326"></trkpt>
      <trkpt lat="23.014451" lon="121.150562"></trkpt>
      <trkpt lat="23.012843" lon="121.150207"></trkpt>
      <trkpt lat="23.012231" lon="121.150207"></trkpt>
      <trkpt lat="23.011359" lon="121.150300"></trkpt>
      <trkpt lat="23.009067" lon="121.150577"></trkpt>
      <trkpt lat="23.008940" lon="121.150592"></trkpt>
      <trkpt lat="23.007197" lon="121.150802"></trkpt>
      <trkpt lat="23.007086" lon="121.150595"></trkpt>
      <trkpt lat="23.007060" lon="121.150391"></trkpt>
      <trkpt lat="23.006684" lon="121.148358"></trkpt>
      <trkpt lat="23.005636" lon="121.147957"></trkpt>
      <trkpt lat="23.005089" lon="121.147747"></trkpt>
      <trkpt lat="23.003616" lon="121.147124"></trkpt>
      <trkpt lat="23.003494" lon="121.147087"></trkpt>
      <trkpt lat="23.002463" lon="121.146705"></trkpt>
      <trkpt lat="23.001883" lon="121.146472"></trkpt>
      <trkpt lat="23.000047" lon="121.145756"></trkpt>
      <trkpt lat="22.999952" lon="121.145720"></trkpt>
      <trkpt lat="22.999631" lon="121.145607"></trkpt>
      <trkpt lat="22.999412" lon="121.145515"></trkpt>
      <trkpt lat="22.999141" lon="121.145414"></trkpt>
      <trkpt lat="22.998664" lon="121.145230"></trkpt>
      <trkpt lat="22.998197" lon="121.145050"></trkpt>
      <trkpt lat="22.998157" lon="121.145003"></trkpt>
      <trkpt lat="22.997974" lon="121.144937"></trkpt>
      <trkpt lat="22.997827" lon="121.144885"></trkpt>
      <trkpt lat="22.994884" lon="121.143751"></trkpt>
      <trkpt lat="22.994299" lon="121.143535"></trkpt>
      <trkpt lat="22.993002" lon="121.143062"></trkpt>
      <trkpt lat="22.992548" lon="121.142895"></trkpt>
      <trkpt lat="22.992422" lon="121.142847"></trkpt>
      <trkpt lat="22.991338" lon="121.142423"></trkpt>
      <trkpt lat="22.990250" lon="121.142009"></trkpt>
      <trkpt lat="22.990165" lon="121.141970"></trkpt>
      <trkpt lat="22.989624" lon="121.141776"></trkpt>
      <trkpt lat="22.989266" lon="121.141637"></trkpt>
      <trkpt lat="22.988803" lon="121.141459"></trkpt>
      <trkpt lat="22.988427" lon="121.141326"></trkpt>
      <trkpt lat="22.987993" lon="121.141165"></trkpt>
      <trkpt lat="22.987634" lon="121.141023"></trkpt>
      <trkpt lat="22.986996" lon="121.140767"></trkpt>
      <trkpt lat="22.986206" lon="121.140463"></trkpt>
      <trkpt lat="22.984798" lon="121.139909"></trkpt>
      <trkpt lat="22.983989" lon="121.139604"></trkpt>
      <trkpt lat="22.983278" lon="121.139328"></trkpt>
      <trkpt lat="22.982447" lon="121.139016"></trkpt>
      <trkpt lat="22.981044" lon="121.138507"></trkpt>
      <trkpt lat="22.980087" lon="121.138121"></trkpt>
      <trkpt lat="22.980046" lon="121.138104"></trkpt>
      <trkpt lat="22.979858" lon="121.138034"></trkpt>
      <trkpt lat="22.978247" lon="121.137424"></trkpt>
      <trkpt lat="22.977395" lon="121.137056"></trkpt>
      <trkpt lat="22.976103" lon="121.136598"></trkpt>
      <trkpt lat="22.975994" lon="121.136556"></trkpt>
      <trkpt lat="22.975483" lon="121.136359"></trkpt>
      <trkpt lat="22.975192" lon="121.136249"></trkpt>
      <trkpt lat="22.973406" lon="121.135572"></trkpt>
      <trkpt lat="22.968676" lon="121.133780"></trkpt>
      <trkpt lat="22.967062" lon="121.133168"></trkpt>
      <trkpt lat="22.963747" lon="121.131905"></trkpt>
      <trkpt lat="22.962455" lon="121.131362"></trkpt>
      <trkpt lat="22.961163" lon="121.130895"></trkpt>
      <trkpt lat="22.960815" lon="121.130736"></trkpt>
      <trkpt lat="22.958494" lon="121.129840"></trkpt>
      <trkpt lat="22.957843" lon="121.129608"></trkpt>
      <trkpt lat="22.957129" lon="121.129344"></trkpt>
      <trkpt lat="22.956318" lon="121.129019"></trkpt>
      <trkpt lat="22.955963" lon="121.128893"></trkpt>
      <trkpt lat="22.955501" lon="121.128739"></trkpt>
      <trkpt lat="22.954837" lon="121.128481"></trkpt>
      <trkpt lat="22.954509" lon="121.128409"></trkpt>
      <trkpt lat="22.954286" lon="121.128381"></trkpt>
      <trkpt lat="22.953863" lon="121.128408"></trkpt>
      <trkpt lat="22.953218" lon="121.128465"></trkpt>
      <trkpt lat="22.951972" lon="121.128581"></trkpt>
      <trkpt lat="22.951505" lon="121.128668"></trkpt>
      <trkpt lat="22.951380" lon="121.128709"></trkpt>
      <trkpt lat="22.951167" lon="121.128753"></trkpt>
      <trkpt lat="22.951022" lon="121.128813"></trkpt>
      <trkpt lat="22.950762" lon="121.128736"></trkpt>
      <trkpt lat="22.950604" lon="121.128672"></trkpt>
      <trkpt lat="22.950210" lon="121.128523"></trkpt>
      <trkpt lat="22.949863" lon="121.128392"></trkpt>
      <trkpt lat="22.949674" lon="121.128314"></trkpt>
      <trkpt lat="22.945674" lon="121.126692"></trkpt>
      <trkpt lat="22.944829" lon="121.126353"></trkpt>
      <trkpt lat="22.943811" lon="121.125854"></trkpt>
      <trkpt lat="22.942219" lon="121.125025"></trkpt>
      <trkpt lat="22.941568" lon="121.124666"></trkpt>
      <trkpt lat="22.940941" lon="121.124250"></trkpt>
      <trkpt lat="22.940467" lon="121.123856"></trkpt>
      <trkpt lat="22.940012" lon="121.123349"></trkpt>
      <trkpt lat="22.939387" lon="121.122422"></trkpt>
      <trkpt lat="22.938482" lon="121.121024"></trkpt>
      <trkpt lat="22.938417" lon="121.120924"></trkpt>
      <trkpt lat="22.938134" lon="121.120493"></trkpt>
      <trkpt lat="22.938073" lon="121.120379"></trkpt>
      <trkpt lat="22.937934" lon="121.120250"></trkpt>
      <trkpt lat="22.937758" lon="121.120126"></trkpt>
      <trkpt lat="22.937635" lon="121.120038"></trkpt>
      <trkpt lat="22.937484" lon="121.119978"></trkpt>
      <trkpt lat="22.937049" lon="121.119883"></trkpt>
      <trkpt lat="22.936888" lon="121.119852"></trkpt>
      <trkpt lat="22.936319" lon="121.119745"></trkpt>
      <trkpt lat="22.935311" lon="121.119542"></trkpt>
      <trkpt lat="22.934422" lon="121.119377"></trkpt>
      <trkpt lat="22.933145" lon="121.119138"></trkpt>
      <trkpt lat="22.932980" lon="121.119108"></trkpt>
      <trkpt lat="22.932377" lon="121.119002"></trkpt>
      <trkpt lat="22.931533" lon="121.118855"></trkpt>
      <trkpt lat="22.930768" lon="121.118703"></trkpt>
      <trkpt lat="22.930076" lon="121.118565"></trkpt>
      <trkpt lat="22.929084" lon="121.118372"></trkpt>
      <trkpt lat="22.927237" lon="121.117985"></trkpt>
      <trkpt lat="22.926817" lon="121.117911"></trkpt>
      <trkpt lat="22.926188" lon="121.117804"></trkpt>
      <trkpt lat="22.925782" lon="121.117709"></trkpt>
      <trkpt lat="22.925386" lon="121.117639"></trkpt>
      <trkpt lat="22.925152" lon="121.117585"></trkpt>
      <trkpt lat="22.924988" lon="121.117553"></trkpt>
      <trkpt lat="22.924892" lon="121.117560"></trkpt>
      <trkpt lat="22.924792" lon="121.117700"></trkpt>
      <trkpt lat="22.924691" lon="121.117872"></trkpt>
      <trkpt lat="22.924650" lon="121.117939"></trkpt>
      <trkpt lat="22.924618" lon="121.117989"></trkpt>
      <trkpt lat="22.924549" lon="121.118136"></trkpt>
      <trkpt lat="22.924496" lon="121.118302"></trkpt>
      <trkpt lat="22.924478" lon="121.118475"></trkpt>
      <trkpt lat="22.924474" lon="121.118599"></trkpt>
      <trkpt lat="22.924457" lon="121.118944"></trkpt>
      <trkpt lat="22.924474" lon="121.119311"></trkpt>
      <trkpt lat="22.924531" lon="121.119696"></trkpt>
      <trkpt lat="22.924552" lon="121.119839"></trkpt>
      <trkpt lat="22.924582" lon="121.120058"></trkpt>
      <trkpt lat="22.924605" lon="121.120318"></trkpt>
      <trkpt lat="22.924557" lon="121.120504"></trkpt>
      <trkpt lat="22.924450" lon="121.120795"></trkpt>
      <trkpt lat="22.924322" lon="121.120973"></trkpt>
      <trkpt lat="22.924216" lon="121.121052"></trkpt>
      <trkpt lat="22.924103" lon="121.121125"></trkpt>
      <trkpt lat="22.923992" lon="121.121160"></trkpt>
      <trkpt lat="22.923807" lon="121.121150"></trkpt>
      <trkpt lat="22.923623" lon="121.121081"></trkpt>
      <trkpt lat="22.923108" lon="121.120768"></trkpt>
      <trkpt lat="22.922703" lon="121.120543"></trkpt>
      <trkpt lat="22.922209" lon="121.120273"></trkpt>
      <trkpt lat="22.921911" lon="121.120099"></trkpt>
      <trkpt lat="22.921826" lon="121.120076"></trkpt>
      <trkpt lat="22.921619" lon="121.119980"></trkpt>
      <trkpt lat="22.921353" lon="121.119821"></trkpt>
      <trkpt lat="22.921194" lon="121.119678"></trkpt>
      <trkpt lat="22.921084" lon="121.119530"></trkpt>
      <trkpt lat="22.921001" lon="121.119272"></trkpt>
      <trkpt lat="22.921006" lon="121.119239"></trkpt>
      <trkpt lat="22.920997" lon="121.118974"></trkpt>
      <trkpt lat="22.920995" lon="121.118821"></trkpt>
      <trkpt lat="22.920953" lon="121.118730"></trkpt>
      <trkpt lat="22.920710" lon="121.118554"></trkpt>
      <trkpt lat="22.919967" lon="121.118030"></trkpt>
      <trkpt lat="22.919650" lon="121.117714"></trkpt>
      <trkpt lat="22.919400" lon="121.117471"></trkpt>
      <trkpt lat="22.918977" lon="121.117075"></trkpt>
      <trkpt lat="22.918708" lon="121.116859"></trkpt>
      <trkpt lat="22.918343" lon="121.116706"></trkpt>
      <trkpt lat="22.918159" lon="121.116601"></trkpt>
      <trkpt lat="22.917965" lon="121.116463"></trkpt>
      <trkpt lat="22.917773" lon="121.116296"></trkpt>
      <trkpt lat="22.917612" lon="121.116124"></trkpt>
      <trkpt lat="22.917315" lon="121.115827"></trkpt>
      <trkpt lat="22.916854" lon="121.115360"></trkpt>
      <trkpt lat="22.916488" lon="121.115093"></trkpt>
      <trkpt lat="22.916283" lon="121.115016"></trkpt>
      <trkpt lat="22.916012" lon="121.114915"></trkpt>
      <trkpt lat="22.915466" lon="121.114775"></trkpt>
      <trkpt lat="22.915086" lon="121.114693"></trkpt>
      <trkpt lat="22.913867" lon="121.114586"></trkpt>
      <trkpt lat="22.913643" lon="121.114530"></trkpt>
      <trkpt lat="22.913465" lon="121.114433"></trkpt>
      <trkpt lat="22.913101" lon="121.114158"></trkpt>
      <trkpt lat="22.912983" lon="121.114074"></trkpt>
      <trkpt lat="22.912927" lon="121.114033"></trkpt>
      <trkpt lat="22.912735" lon="121.113985"></trkpt>
      <trkpt lat="22.912575" lon="121.113985"></trkpt>
      <trkpt lat="22.912393" lon="121.114005"></trkpt>
      <trkpt lat="22.912246" lon="121.114082"></trkpt>
      <trkpt lat="22.912111" lon="121.114207"></trkpt>
      <trkpt lat="22.911996" lon="121.114325"></trkpt>
      <trkpt lat="22.911715" lon="121.114752"></trkpt>
      <trkpt lat="22.911557" lon="121.114956"></trkpt>
      <trkpt lat="22.911487" lon="121.115001"></trkpt>
      <trkpt lat="22.911397" lon="121.115032"></trkpt>
      <trkpt lat="22.911075" lon="121.115030"></trkpt>
      <trkpt lat="22.910443" lon="121.114979"></trkpt>
      <trkpt lat="22.909933" lon="121.114979"></trkpt>
      <trkpt lat="22.908860" lon="121.114934"></trkpt>
      <trkpt lat="22.907294" lon="121.114866"></trkpt>
      <trkpt lat="22.907344" lon="121.113211"></trkpt>
      <trkpt lat="22.907364" lon="121.111881"></trkpt>
      <trkpt lat="22.905787" lon="121.111833"></trkpt>
      <trkpt lat="22.904744" lon="121.111805"></trkpt>
      <trkpt lat="22.904219" lon="121.111784"></trkpt>
      <trkpt lat="22.902639" lon="121.111724"></trkpt>
      <trkpt lat="22.902737" lon="121.108318"></trkpt>
      <trkpt lat="22.902832" lon="121.105581"></trkpt>
      <trkpt lat="22.902857" lon="121.104900"></trkpt>
      <trkpt lat="22.902822" lon="121.104768"></trkpt>
      <trkpt lat="22.902753" lon="121.104655"></trkpt>
      <trkpt lat="22.901317" lon="121.103452"></trkpt>
      <trkpt lat="22.900977" lon="121.103068"></trkpt>
      <trkpt lat="22.900763" lon="121.102733"></trkpt>
      <trkpt lat="22.900681" lon="121.102528"></trkpt>
      <trkpt lat="22.900629" lon="121.102336"></trkpt>
      <trkpt lat="22.900620" lon="121.102291"></trkpt>
      <trkpt lat="22.900611" lon="121.102242"></trkpt>
      <trkpt lat="22.900619" lon="121.102134"></trkpt>
      <trkpt lat="22.900648" lon="121.102032"></trkpt>
      <trkpt lat="22.900684" lon="121.101940"></trkpt>
      <trkpt lat="22.900773" lon="121.101758"></trkpt>
      <trkpt lat="22.900799" lon="121.101690"></trkpt>
      <trkpt lat="22.900820" lon="121.101618"></trkpt>
      <trkpt lat="22.900832" lon="121.101540"></trkpt>
      <trkpt lat="22.900831" lon="121.101450"></trkpt>
      <trkpt lat="22.900777" lon="121.101124"></trkpt>
      <trkpt lat="22.900769" lon="121.101012"></trkpt>
      <trkpt lat="22.900791" lon="121.100900"></trkpt>
      <trkpt lat="22.900849" lon="121.100802"></trkpt>
      <trkpt lat="22.901466" lon="121.100016"></trkpt>
      <trkpt lat="22.901532" lon="121.099912"></trkpt>
      <trkpt lat="22.901595" lon="121.099794"></trkpt>
      <trkpt lat="22.901627" lon="121.099662"></trkpt>
      <trkpt lat="22.901631" lon="121.099553"></trkpt>
      <trkpt lat="22.901634" lon="121.099490"></trkpt>
      <trkpt lat="22.901624" lon="121.099323"></trkpt>
      <trkpt lat="22.901637" lon="121.099239"></trkpt>
      <trkpt lat="22.901792" lon="121.098754"></trkpt>
      <trkpt lat="22.901810" lon="121.098661"></trkpt>
      <trkpt lat="22.901804" lon="121.098572"></trkpt>
      <trkpt lat="22.901766" lon="121.098502"></trkpt>
      <trkpt lat="22.901699" lon="121.098454"></trkpt>
      <trkpt lat="22.901567" lon="121.098454"></trkpt>
      <trkpt lat="22.901286" lon="121.098586"></trkpt>
      <trkpt lat="22.901071" lon="121.098743"></trkpt>
      <trkpt lat="22.899921" lon="121.099710"></trkpt>
      <trkpt lat="22.899843" lon="121.099731"></trkpt>
      <trkpt lat="22.899781" lon="121.099733"></trkpt>
      <trkpt lat="22.899723" lon="121.099717"></trkpt>
      <trkpt lat="22.899630" lon="121.099656"></trkpt>
      <trkpt lat="22.899474" lon="121.099512"></trkpt>
      <trkpt lat="22.899467" lon="121.099460"></trkpt>
      <trkpt lat="22.898775" lon="121.097823"></trkpt>
      <trkpt lat="22.898025" lon="121.096171"></trkpt>
      <trkpt lat="22.897714" lon="121.095655"></trkpt>
      <trkpt lat="22.897583" lon="121.095497"></trkpt>
      <trkpt lat="22.897481" lon="121.095432"></trkpt>
      <trkpt lat="22.897254" lon="121.095383"></trkpt>
      <trkpt lat="22.896959" lon="121.095355"></trkpt>
      <trkpt lat="22.896178" lon="121.095266"></trkpt>
      <trkpt lat="22.895273" lon="121.095198"></trkpt>
      <trkpt lat="22.894716" lon="121.095156"></trkpt>
      <trkpt lat="22.894016" lon="121.095058"></trkpt>
      <trkpt lat="22.893845" lon="121.095037"></trkpt>
      <trkpt lat="22.893682" lon="121.094992"></trkpt>
      <trkpt lat="22.893365" lon="121.094900"></trkpt>
      <trkpt lat="22.889770" lon="121.093875"></trkpt>
      <trkpt lat="22.889624" lon="121.093829"></trkpt>
      <trkpt lat="22.889443" lon="121.093779"></trkpt>
      <trkpt lat="22.889169" lon="121.093712"></trkpt>
      <trkpt lat="22.888961" lon="121.093692"></trkpt>
      <trkpt lat="22.888813" lon="121.093572"></trkpt>
      <trkpt lat="22.888743" lon="121.093548"></trkpt>
      <trkpt lat="22.888699" lon="121.093515"></trkpt>
      <trkpt lat="22.888686" lon="121.093462"></trkpt>
      <trkpt lat="22.888702" lon="121.093409"></trkpt>
      <trkpt lat="22.888467" lon="121.093533"></trkpt>
      <trkpt lat="22.888182" lon="121.093733"></trkpt>
      <trkpt lat="22.888000" lon="121.093887"></trkpt>
      <trkpt lat="22.887682" lon="121.094342"></trkpt>
      <trkpt lat="22.887349" lon="121.094787"></trkpt>
      <trkpt lat="22.886980" lon="121.095204"></trkpt>
      <trkpt lat="22.885998" lon="121.096472"></trkpt>
      <trkpt lat="22.885829" lon="121.096728"></trkpt>
      <trkpt lat="22.885529" lon="121.097188"></trkpt>
      <trkpt lat="22.885308" lon="121.097497"></trkpt>
      <trkpt lat="22.885197" lon="121.097662"></trkpt>
      <trkpt lat="22.884903" lon="121.098164"></trkpt>
      <trkpt lat="22.884777" lon="121.098548"></trkpt>
      <trkpt lat="22.884621" lon="121.098925"></trkpt>
      <trkpt lat="22.884556" lon="121.099139"></trkpt>
      <trkpt lat="22.884558" lon="121.099344"></trkpt>
      <trkpt lat="22.884584" lon="121.099539"></trkpt>
      <trkpt lat="22.884631" lon="121.099699"></trkpt>
      <trkpt lat="22.884774" lon="121.099947"></trkpt>
      <trkpt lat="22.884839" lon="121.100290"></trkpt>
      <trkpt lat="22.884848" lon="121.100475"></trkpt>
      <trkpt lat="22.884931" lon="121.101637"></trkpt>
      <trkpt lat="22.884933" lon="121.101932"></trkpt>
      <trkpt lat="22.884964" lon="121.102315"></trkpt>
      <trkpt lat="22.885014" lon="121.102652"></trkpt>
      <trkpt lat="22.885118" lon="121.103011"></trkpt>
      <trkpt lat="22.885204" lon="121.103269"></trkpt>
      <trkpt lat="22.885225" lon="121.103420"></trkpt>
      <trkpt lat="22.885251" lon="121.103575"></trkpt>
      <trkpt lat="22.885238" lon="121.103735"></trkpt>
      <trkpt lat="22.885226" lon="121.103801"></trkpt>
      <trkpt lat="22.885157" lon="121.103974"></trkpt>
      <trkpt lat="22.885000" lon="121.104198"></trkpt>
      <trkpt lat="22.884566" lon="121.104740"></trkpt>
      <trkpt lat="22.884361" lon="121.104987"></trkpt>
      <trkpt lat="22.884071" lon="121.105338"></trkpt>
      <trkpt lat="22.883867" lon="121.105570"></trkpt>
      <trkpt lat="22.883727" lon="121.105761"></trkpt>
      <trkpt lat="22.883583" lon="121.105919"></trkpt>
      <trkpt lat="22.883483" lon="121.106018"></trkpt>
      <trkpt lat="22.883359" lon="121.106112"></trkpt>
      <trkpt lat="22.883222" lon="121.106174"></trkpt>
      <trkpt lat="22.883106" lon="121.106208"></trkpt>
      <trkpt lat="22.883002" lon="121.106214"></trkpt>
      <trkpt lat="22.882904" lon="121.106217"></trkpt>
      <trkpt lat="22.882798" lon="121.106192"></trkpt>
      <trkpt lat="22.882751" lon="121.106175"></trkpt>
      <trkpt lat="22.882646" lon="121.106119"></trkpt>
      <trkpt lat="22.882548" lon="121.106059"></trkpt>
      <trkpt lat="22.882409" lon="121.105856"></trkpt>
      <trkpt lat="22.882219" lon="121.105543"></trkpt>
      <trkpt lat="22.881965" lon="121.105173"></trkpt>
      <trkpt lat="22.881756" lon="121.104892"></trkpt>
      <trkpt lat="22.881639" lon="121.104795"></trkpt>
      <trkpt lat="22.881428" lon="121.104714"></trkpt>
      <trkpt lat="22.881148" lon="121.104628"></trkpt>
      <trkpt lat="22.881003" lon="121.104554"></trkpt>
      <trkpt lat="22.880855" lon="121.104415"></trkpt>
      <trkpt lat="22.880739" lon="121.104325"></trkpt>
      <trkpt lat="22.880383" lon="121.103847"></trkpt>
      <trkpt lat="22.880211" lon="121.103567"></trkpt>
      <trkpt lat="22.880143" lon="121.103407"></trkpt>
      <trkpt lat="22.879999" lon="121.103183"></trkpt>
      <trkpt lat="22.879832" lon="121.103060"></trkpt>
      <trkpt lat="22.879212" lon="121.102653"></trkpt>
      <trkpt lat="22.879128" lon="121.102573"></trkpt>
      <trkpt lat="22.879081" lon="121.102476"></trkpt>
      <trkpt lat="22.879034" lon="121.102306"></trkpt>
      <trkpt lat="22.879014" lon="121.102188"></trkpt>
      <trkpt lat="22.878987" lon="121.102020"></trkpt>
      <trkpt lat="22.878928" lon="121.101857"></trkpt>
      <trkpt lat="22.878861" lon="121.101761"></trkpt>
      <trkpt lat="22.878755" lon="121.101688"></trkpt>
      <trkpt lat="22.878429" lon="121.101536"></trkpt>
      <trkpt lat="22.878048" lon="121.101347"></trkpt>
      <trkpt lat="22.877840" lon="121.101203"></trkpt>
      <trkpt lat="22.877575" lon="121.100991"></trkpt>
      <trkpt lat="22.877382" lon="121.100817"></trkpt>
      <trkpt lat="22.877078" lon="121.100534"></trkpt>
      <trkpt lat="22.876711" lon="121.100188"></trkpt>
      <trkpt lat="22.876531" lon="121.100029"></trkpt>
      <trkpt lat="22.876208" lon="121.099785"></trkpt>
      <trkpt lat="22.875973" lon="121.099646"></trkpt>
      <trkpt lat="22.875740" lon="121.099556"></trkpt>
      <trkpt lat="22.875476" lon="121.099523"></trkpt>
      <trkpt lat="22.874943" lon="121.099546"></trkpt>
      <trkpt lat="22.874790" lon="121.099540"></trkpt>
      <trkpt lat="22.874517" lon="121.099549"></trkpt>
      <trkpt lat="22.874248" lon="121.099542"></trkpt>
      <trkpt lat="22.873948" lon="121.099472"></trkpt>
      <trkpt lat="22.873573" lon="121.099353"></trkpt>
      <trkpt lat="22.873059" lon="121.099138"></trkpt>
      <trkpt lat="22.872882" lon="121.099036"></trkpt>
      <trkpt lat="22.872685" lon="121.098909"></trkpt>
      <trkpt lat="22.872390" lon="121.098750"></trkpt>
      <trkpt lat="22.872204" lon="121.098661"></trkpt>
      <trkpt lat="22.872036" lon="121.098599"></trkpt>
      <trkpt lat="22.871873" lon="121.098546"></trkpt>
      <trkpt lat="22.871579" lon="121.098485"></trkpt>
      <trkpt lat="22.871374" lon="121.098434"></trkpt>
      <trkpt lat="22.870882" lon="121.098353"></trkpt>
      <trkpt lat="22.870505" lon="121.098290"></trkpt>
      <trkpt lat="22.870156" lon="121.098236"></trkpt>
      <trkpt lat="22.869638" lon="121.098133"></trkpt>
      <trkpt lat="22.869447" lon="121.098110"></trkpt>
      <trkpt lat="22.869301" lon="121.098080"></trkpt>
      <trkpt lat="22.869143" lon="121.098092"></trkpt>
      <trkpt lat="22.868822" lon="121.098208"></trkpt>
      <trkpt lat="22.868522" lon="121.098315"></trkpt>
      <trkpt lat="22.868220" lon="121.098428"></trkpt>
      <trkpt lat="22.867913" lon="121.098541"></trkpt>
      <trkpt lat="22.867596" lon="121.098660"></trkpt>
      <trkpt lat="22.867101" lon="121.098850"></trkpt>
      <trkpt lat="22.866803" lon="121.098982"></trkpt>
      <trkpt lat="22.866612" lon="121.099033"></trkpt>
      <trkpt lat="22.866455" lon="121.099061"></trkpt>
      <trkpt lat="22.866320" lon="121.099075"></trkpt>
      <trkpt lat="22.866185" lon="121.099048"></trkpt>
      <trkpt lat="22.865882" lon="121.098961"></trkpt>
      <trkpt lat="22.865735" lon="121.098914"></trkpt>
      <trkpt lat="22.865609" lon="121.098858"></trkpt>
      <trkpt lat="22.865456" lon="121.098782"></trkpt>
      <trkpt lat="22.865329" lon="121.098636"></trkpt>
      <trkpt lat="22.865216" lon="121.098508"></trkpt>
      <trkpt lat="22.865031" lon="121.098233"></trkpt>
      <trkpt lat="22.864947" lon="121.098113"></trkpt>
      <trkpt lat="22.864831" lon="121.097961"></trkpt>
      <trkpt lat="22.864742" lon="121.097819"></trkpt>
      <trkpt lat="22.864671" lon="121.097651"></trkpt>
      <trkpt lat="22.864644" lon="121.097538"></trkpt>
      <trkpt lat="22.864622" lon="121.097462"></trkpt>
      <trkpt lat="22.864615" lon="121.097361"></trkpt>
      <trkpt lat="22.864604" lon="121.097291"></trkpt>
      <trkpt lat="22.864596" lon="121.097250"></trkpt>
      <trkpt lat="22.864579" lon="121.097092"></trkpt>
      <trkpt lat="22.864554" lon="121.096823"></trkpt>
      <trkpt lat="22.864542" lon="121.096607"></trkpt>
      <trkpt lat="22.864524" lon="121.096390"></trkpt>
      <trkpt lat="22.864502" lon="121.096208"></trkpt>
      <trkpt lat="22.864462" lon="121.096026"></trkpt>
      <trkpt lat="22.864611" lon="121.095878"></trkpt>
      <trkpt lat="22.864636" lon="121.095807"></trkpt>
      <trkpt lat="22.864644" lon="121.095730"></trkpt>
      <trkpt lat="22.864621" lon="121.095574"></trkpt>
      <trkpt lat="22.864557" lon="121.095559"></trkpt>
      <trkpt lat="22.864452" lon="121.095193"></trkpt>
      <trkpt lat="22.864392" lon="121.095020"></trkpt>
      <trkpt lat="22.864334" lon="121.094876"></trkpt>
      <trkpt lat="22.864078" lon="121.094368"></trkpt>
      <trkpt lat="22.864010" lon="121.094233"></trkpt>
      <trkpt lat="22.863925" lon="121.094091"></trkpt>
      <trkpt lat="22.863763" lon="121.093854"></trkpt>
      <trkpt lat="22.863592" lon="121.093668"></trkpt>
      <trkpt lat="22.863465" lon="121.093576"></trkpt>
      <trkpt lat="22.862238" lon="121.092765"></trkpt>
      <trkpt lat="22.862044" lon="121.092661"></trkpt>
      <trkpt lat="22.861888" lon="121.092576"></trkpt>
      <trkpt lat="22.861764" lon="121.092523"></trkpt>
      <trkpt lat="22.861622" lon="121.092483"></trkpt>
      <trkpt lat="22.861432" lon="121.092456"></trkpt>
      <trkpt lat="22.861246" lon="121.092414"></trkpt>
      <trkpt lat="22.860720" lon="121.092363"></trkpt>
      <trkpt lat="22.859966" lon="121.092296"></trkpt>
      <trkpt lat="22.859352" lon="121.092261"></trkpt>
      <trkpt lat="22.859009" lon="121.092335"></trkpt>
      <trkpt lat="22.858810" lon="121.092310"></trkpt>
      <trkpt lat="22.858734" lon="121.092307"></trkpt>
      <trkpt lat="22.857854" lon="121.092278"></trkpt>
      <trkpt lat="22.857259" lon="121.092258"></trkpt>
      <trkpt lat="22.857013" lon="121.092270"></trkpt>
      <trkpt lat="22.856760" lon="121.092275"></trkpt>
      <trkpt lat="22.856071" lon="121.092324"></trkpt>
      <trkpt lat="22.855735" lon="121.092300"></trkpt>
      <trkpt lat="22.854388" lon="121.092255"></trkpt>
      <trkpt lat="22.854080" lon="121.092233"></trkpt>
      <trkpt lat="22.853738" lon="121.092223"></trkpt>
      <trkpt lat="22.853384" lon="121.092201"></trkpt>
      <trkpt lat="22.852862" lon="121.092193"></trkpt>
      <trkpt lat="22.852107" lon="121.092155"></trkpt>
      <trkpt lat="22.851303" lon="121.092139"></trkpt>
      <trkpt lat="22.851141" lon="121.092134"></trkpt>
      <trkpt lat="22.849742" lon="121.092089"></trkpt>
      <trkpt lat="22.848543" lon="121.092046"></trkpt>
      <trkpt lat="22.848464" lon="121.092040"></trkpt>
      <trkpt lat="22.848352" lon="121.092038"></trkpt>
      <trkpt lat="22.848302" lon="121.092041"></trkpt>
      <trkpt lat="22.848034" lon="121.092048"></trkpt>
      <trkpt lat="22.847826" lon="121.092056"></trkpt>
      <trkpt lat="22.847605" lon="121.092092"></trkpt>
      <trkpt lat="22.847409" lon="121.092139"></trkpt>
      <trkpt lat="22.847128" lon="121.092225"></trkpt>
      <trkpt lat="22.846920" lon="121.092279"></trkpt>
      <trkpt lat="22.846245" lon="121.092555"></trkpt>
      <trkpt lat="22.845112" lon="121.093010"></trkpt>
      <trkpt lat="22.844258" lon="121.093387"></trkpt>
      <trkpt lat="22.843929" lon="121.093491"></trkpt>
      <trkpt lat="22.843603" lon="121.093526"></trkpt>
      <trkpt lat="22.843382" lon="121.093534"></trkpt>
      <trkpt lat="22.843123" lon="121.093549"></trkpt>
      <trkpt lat="22.842709" lon="121.093651"></trkpt>
      <trkpt lat="22.841655" lon="121.093594"></trkpt>
      <trkpt lat="22.841364" lon="121.093601"></trkpt>
      <trkpt lat="22.841146" lon="121.093610"></trkpt>
      <trkpt lat="22.840925" lon="121.093612"></trkpt>
      <trkpt lat="22.839132" lon="121.093567"></trkpt>
      <trkpt lat="22.838500" lon="121.093592"></trkpt>
      <trkpt lat="22.837618" lon="121.093626"></trkpt>
      <trkpt lat="22.837033" lon="121.093629"></trkpt>
      <trkpt lat="22.836746" lon="121.093630"></trkpt>
      <trkpt lat="22.836309" lon="121.093632"></trkpt>
      <trkpt lat="22.835730" lon="121.093644"></trkpt>
      <trkpt lat="22.835240" lon="121.093649"></trkpt>
      <trkpt lat="22.835131" lon="121.093649"></trkpt>
      <trkpt lat="22.835013" lon="121.093655"></trkpt>
      <trkpt lat="22.834632" lon="121.093657"></trkpt>
      <trkpt lat="22.831103" lon="121.093710"></trkpt>
      <trkpt lat="22.830120" lon="121.093689"></trkpt>
      <trkpt lat="22.829781" lon="121.093702"></trkpt>
      <trkpt lat="22.829555" lon="121.093697"></trkpt>
      <trkpt lat="22.829401" lon="121.093685"></trkpt>
      <trkpt lat="22.829221" lon="121.093661"></trkpt>
      <trkpt lat="22.828897" lon="121.093562"></trkpt>
      <trkpt lat="22.828197" lon="121.093221"></trkpt>
      <trkpt lat="22.827962" lon="121.093113"></trkpt>
      <trkpt lat="22.827820" lon="121.093057"></trkpt>
      <trkpt lat="22.826837" lon="121.092666"></trkpt>
      <trkpt lat="22.825618" lon="121.092247"></trkpt>
      <trkpt lat="22.825062" lon="121.092054"></trkpt>
      <trkpt lat="22.823230" lon="121.091393"></trkpt>
      <trkpt lat="22.822841" lon="121.091267"></trkpt>
      <trkpt lat="22.821908" lon="121.090890"></trkpt>
      <trkpt lat="22.821637" lon="121.090789"></trkpt>
      <trkpt lat="22.821380" lon="121.090695"></trkpt>
      <trkpt lat="22.820400" lon="121.090362"></trkpt>
      <trkpt lat="22.819620" lon="121.090167"></trkpt>
      <trkpt lat="22.816533" lon="121.089406"></trkpt>
      <trkpt lat="22.816121" lon="121.089319"></trkpt>
      <trkpt lat="22.815686" lon="121.089260"></trkpt>
      <trkpt lat="22.815249" lon="121.089219"></trkpt>
      <trkpt lat="22.814855" lon="121.089210"></trkpt>
      <trkpt lat="22.814058" lon="121.089224"></trkpt>
      <trkpt lat="22.813223" lon="121.089252"></trkpt>
      <trkpt lat="22.811854" lon="121.089297"></trkpt>
      <trkpt lat="22.811578" lon="121.089343"></trkpt>
      <trkpt lat="22.811374" lon="121.089409"></trkpt>
      <trkpt lat="22.811212" lon="121.089527"></trkpt>
      <trkpt lat="22.811074" lon="121.089655"></trkpt>
      <trkpt lat="22.810979" lon="121.089781"></trkpt>
      <trkpt lat="22.810898" lon="121.089894"></trkpt>
      <trkpt lat="22.810430" lon="121.090612"></trkpt>
      <trkpt lat="22.810391" lon="121.090666"></trkpt>
      <trkpt lat="22.809783" lon="121.091603"></trkpt>
      <trkpt lat="22.809625" lon="121.091778"></trkpt>
      <trkpt lat="22.809505" lon="121.091893"></trkpt>
      <trkpt lat="22.809301" lon="121.091989"></trkpt>
      <trkpt lat="22.808830" lon="121.092127"></trkpt>
      <trkpt lat="22.807895" lon="121.092354"></trkpt>
      <trkpt lat="22.807797" lon="121.092385"></trkpt>
      <trkpt lat="22.807178" lon="121.092548"></trkpt>
      <trkpt lat="22.806093" lon="121.092833"></trkpt>
      <trkpt lat="22.804921" lon="121.093141"></trkpt>
      <trkpt lat="22.803583" lon="121.093495"></trkpt>
      <trkpt lat="22.802741" lon="121.093711"></trkpt>
      <trkpt lat="22.802344" lon="121.093824"></trkpt>
      <trkpt lat="22.801954" lon="121.093954"></trkpt>
      <trkpt lat="22.801735" lon="121.094068"></trkpt>
      <trkpt lat="22.801363" lon="121.094329"></trkpt>
      <trkpt lat="22.800883" lon="121.094697"></trkpt>
      <trkpt lat="22.800679" lon="121.094967"></trkpt>
      <trkpt lat="22.800615" lon="121.094974"></trkpt>
      <trkpt lat="22.800518" lon="121.095011"></trkpt>
      <trkpt lat="22.800302" lon="121.095136"></trkpt>
      <trkpt lat="22.799989" lon="121.095417"></trkpt>
      <trkpt lat="22.799622" lon="121.095787"></trkpt>
      <trkpt lat="22.795208" lon="121.099589"></trkpt>
      <trkpt lat="22.793311" lon="121.101196"></trkpt>
      <trkpt lat="22.792018" lon="121.102325"></trkpt>
      <trkpt lat="22.790533" lon="121.103583"></trkpt>
      <trkpt lat="22.789380" lon="121.102449"></trkpt>
      <trkpt lat="22.788431" lon="121.103155"></trkpt>
      <trkpt lat="22.786460" lon="121.104693"></trkpt>
      <trkpt lat="22.784057" lon="121.106604"></trkpt>
      <trkpt lat="22.783071" lon="121.107456"></trkpt>
      <trkpt lat="22.781026" lon="121.109121"></trkpt>
      <trkpt lat="22.780850" lon="121.109140"></trkpt>
      <trkpt lat="22.780460" lon="121.109428"></trkpt>
      <trkpt lat="22.780356" lon="121.109504"></trkpt>
      <trkpt lat="22.780162" lon="121.109622"></trkpt>
      <trkpt lat="22.780004" lon="121.109766"></trkpt>
      <trkpt lat="22.779917" lon="121.109843"></trkpt>
      <trkpt lat="22.779845" lon="121.109906"></trkpt>
      <trkpt lat="22.779132" lon="121.110518"></trkpt>
      <trkpt lat="22.778622" lon="121.110890"></trkpt>
      <trkpt lat="22.778113" lon="121.111309"></trkpt>
      <trkpt lat="22.777463" lon="121.111873"></trkpt>
      <trkpt lat="22.777309" lon="121.112128"></trkpt>
      <trkpt lat="22.777243" lon="121.112325"></trkpt>
      <trkpt lat="22.777207" lon="121.112656"></trkpt>
      <trkpt lat="22.777155" lon="121.113383"></trkpt>
      <trkpt lat="22.777101" lon="121.114628"></trkpt>
      <trkpt lat="22.777077" lon="121.114951"></trkpt>
      <trkpt lat="22.777004" lon="121.115790"></trkpt>
      <trkpt lat="22.776933" lon="121.117107"></trkpt>
      <trkpt lat="22.776926" lon="121.117318"></trkpt>
      <trkpt lat="22.776871" lon="121.117712"></trkpt>
      <trkpt lat="22.776755" lon="121.118096"></trkpt>
      <trkpt lat="22.776212" lon="121.119352"></trkpt>
      <trkpt lat="22.775924" lon="121.120002"></trkpt>
      <trkpt lat="22.775664" lon="121.120639"></trkpt>
      <trkpt lat="22.774909" lon="121.122311"></trkpt>
      <trkpt lat="22.774167" lon="121.123838"></trkpt>
      <trkpt lat="22.774000" lon="121.124214"></trkpt>
      <trkpt lat="22.774030" lon="121.124236"></trkpt>
      <trkpt lat="22.774008" lon="121.124279"></trkpt>
      <trkpt lat="22.773915" lon="121.124474"></trkpt>
      <trkpt lat="22.773882" lon="121.124537"></trkpt>
      <trkpt lat="22.773204" lon="121.126028"></trkpt>
      <trkpt lat="22.772889" lon="121.126629"></trkpt>
      <trkpt lat="22.772647" lon="121.127058"></trkpt>
      <trkpt lat="22.771895" lon="121.128176"></trkpt>
      <trkpt lat="22.771571" lon="121.128635"></trkpt>
      <trkpt lat="22.771190" lon="121.129142"></trkpt>
      <trkpt lat="22.770511" lon="121.130102"></trkpt>
      <trkpt lat="22.770003" lon="121.130775"></trkpt>
      <trkpt lat="22.769431" lon="121.131349"></trkpt>
      <trkpt lat="22.768694" lon="121.131968"></trkpt>
      <trkpt lat="22.768228" lon="121.132296"></trkpt>
      <trkpt lat="22.767853" lon="121.132584"></trkpt>
      <trkpt lat="22.767308" lon="121.132946"></trkpt>
      <trkpt lat="22.767180" lon="121.133021"></trkpt>
      <trkpt lat="22.767080" lon="121.133080"></trkpt>
      <trkpt lat="22.766822" lon="121.133163"></trkpt>
      <trkpt lat="22.766320" lon="121.133333"></trkpt>
      <trkpt lat="22.766121" lon="121.133430"></trkpt>
      <trkpt lat="22.764745" lon="121.134768"></trkpt>
      <trkpt lat="22.764371" lon="121.135132"></trkpt>
      <trkpt lat="22.763893" lon="121.135614"></trkpt>
      <trkpt lat="22.763477" lon="121.135137"></trkpt>
      <trkpt lat="22.763336" lon="121.134976"></trkpt>
      <trkpt lat="22.763297" lon="121.135015"></trkpt>
    </trkseg>
  </trk>
</gpx>
