<?xml version="1.0" encoding="UTF-8"?>
<gpx version="1.1" creator="2026-routes" xmlns="http://www.topografix.com/GPX/1/1">
  <metadata>
    <name>埔里到國立臺灣體育運動大學</name>
    <desc>埔里→台14→國姓→草屯→台3→霧峰→大里→國立臺灣體育運動大學</desc>
  </metadata>
  <trk>
    <name>Day 14 埔里到國立臺灣體育運動大學</name>
    <trkseg>
      <trkpt lat="23.947640" lon="120.955680"></trkpt>
      <trkpt lat="23.947640" lon="120.955740"></trkpt>
      <trkpt lat="23.947620" lon="120.955920"></trkpt>
      <trkpt lat="23.947610" lon="120.956220"></trkpt>
      <trkpt lat="23.947650" lon="120.956720"></trkpt>
      <trkpt lat="23.948140" lon="120.956750"></trkpt>
      <trkpt lat="23.948370" lon="120.956690"></trkpt>
      <trkpt lat="23.948650" lon="120.956570"></trkpt>
      <trkpt lat="23.949060" lon="120.956440"></trkpt>
      <trkpt lat="23.949350" lon="120.956370"></trkpt>
      <trkpt lat="23.949410" lon="120.956350"></trkpt>
      <trkpt lat="23.949500" lon="120.956300"></trkpt>
      <trkpt lat="23.949670" lon="120.956150"></trkpt>
      <trkpt lat="23.949700" lon="120.956110"></trkpt>
      <trkpt lat="23.949710" lon="120.956090"></trkpt>
      <trkpt lat="23.949720" lon="120.956050"></trkpt>
      <trkpt lat="23.949810" lon="120.955890"></trkpt>
      <trkpt lat="23.950000" lon="120.955910"></trkpt>
      <trkpt lat="23.950150" lon="120.956000"></trkpt>
      <trkpt lat="23.950300" lon="120.956110"></trkpt>
      <trkpt lat="23.950320" lon="120.956120"></trkpt>
      <trkpt lat="23.950410" lon="120.956210"></trkpt>
      <trkpt lat="23.950440" lon="120.956230"></trkpt>
      <trkpt lat="23.950500" lon="120.956290"></trkpt>
      <trkpt lat="23.950670" lon="120.956390"></trkpt>
      <trkpt lat="23.950810" lon="120.956460"></trkpt>
      <trkpt lat="23.951320" lon="120.956590"></trkpt>
      <trkpt lat="23.951470" lon="120.956610"></trkpt>
      <trkpt lat="23.951750" lon="120.956630"></trkpt>
      <trkpt lat="23.951800" lon="120.956620"></trkpt>
      <trkpt lat="23.951820" lon="120.956620"></trkpt>
      <trkpt lat="23.952000" lon="120.956580"></trkpt>
      <trkpt lat="23.952110" lon="120.956540"></trkpt>
      <trkpt lat="23.952220" lon="120.956490"></trkpt>
      <trkpt lat="23.952400" lon="120.956700"></trkpt>
      <trkpt lat="23.952670" lon="120.957110"></trkpt>
      <trkpt lat="23.952860" lon="120.957360"></trkpt>
      <trkpt lat="23.953550" lon="120.958130"></trkpt>
      <trkpt lat="23.953570" lon="120.958140"></trkpt>
      <trkpt lat="23.953590" lon="120.958170"></trkpt>
      <trkpt lat="23.953660" lon="120.958250"></trkpt>
      <trkpt lat="23.954570" lon="120.959150"></trkpt>
      <trkpt lat="23.954630" lon="120.959220"></trkpt>
      <trkpt lat="23.955880" lon="120.957920"></trkpt>
      <trkpt lat="23.955930" lon="120.957840"></trkpt>
      <trkpt lat="23.957540" lon="120.956110"></trkpt>
      <trkpt lat="23.957910" lon="120.955790"></trkpt>
      <trkpt lat="23.958350" lon="120.955530"></trkpt>
      <trkpt lat="23.960850" lon="120.954550"></trkpt>
      <trkpt lat="23.961050" lon="120.954460"></trkpt>
      <trkpt lat="23.961500" lon="120.954200"></trkpt>
      <trkpt lat="23.964540" lon="120.951880"></trkpt>
      <trkpt lat="23.964970" lon="120.951620"></trkpt>
      <trkpt lat="23.965650" lon="120.951280"></trkpt>
      <trkpt lat="23.965650" lon="120.951100"></trkpt>
      <trkpt lat="23.965680" lon="120.950940"></trkpt>
      <trkpt lat="23.967370" lon="120.946560"></trkpt>
      <trkpt lat="23.966580" lon="120.946220"></trkpt>
      <trkpt lat="23.966500" lon="120.946110"></trkpt>
      <trkpt lat="23.966420" lon="120.945960"></trkpt>
      <trkpt lat="23.966380" lon="120.945790"></trkpt>
      <trkpt lat="23.966370" lon="120.945660"></trkpt>
      <trkpt lat="23.966450" lon="120.944750"></trkpt>
      <trkpt lat="23.966460" lon="120.944460"></trkpt>
      <trkpt lat="23.966430" lon="120.944070"></trkpt>
      <trkpt lat="23.966300" lon="120.943500"></trkpt>
      <trkpt lat="23.966170" lon="120.943140"></trkpt>
      <trkpt lat="23.965880" lon="120.942470"></trkpt>
      <trkpt lat="23.965550" lon="120.941900"></trkpt>
      <trkpt lat="23.965300" lon="120.941280"></trkpt>
      <trkpt lat="23.965260" lon="120.941110"></trkpt>
      <trkpt lat="23.965240" lon="120.940960"></trkpt>
      <trkpt lat="23.965230" lon="120.940770"></trkpt>
      <trkpt lat="23.965300" lon="120.938470"></trkpt>
      <trkpt lat="23.965410" lon="120.936580"></trkpt>
      <trkpt lat="23.965450" lon="120.936260"></trkpt>
      <trkpt lat="23.965570" lon="120.935550"></trkpt>
      <trkpt lat="23.965730" lon="120.935040"></trkpt>
      <trkpt lat="23.965970" lon="120.934450"></trkpt>
      <trkpt lat="23.966230" lon="120.933950"></trkpt>
      <trkpt lat="23.966620" lon="120.933310"></trkpt>
      <trkpt lat="23.966860" lon="120.933010"></trkpt>
      <trkpt lat="23.966890" lon="120.932990"></trkpt>
      <trkpt lat="23.967200" lon="120.932680"></trkpt>
      <trkpt lat="23.967500" lon="120.932410"></trkpt>
      <trkpt lat="23.968360" lon="120.931780"></trkpt>
      <trkpt lat="23.968500" lon="120.931660"></trkpt>
      <trkpt lat="23.968860" lon="120.931280"></trkpt>
      <trkpt lat="23.968960" lon="120.931140"></trkpt>
      <trkpt lat="23.971100" lon="120.928430"></trkpt>
      <trkpt lat="23.973000" lon="120.926360"></trkpt>
      <trkpt lat="23.973050" lon="120.926200"></trkpt>
      <trkpt lat="23.974900" lon="120.924100"></trkpt>
      <trkpt lat="23.975380" lon="120.923510"></trkpt>
      <trkpt lat="23.975540" lon="120.923220"></trkpt>
      <trkpt lat="23.976340" lon="120.922020"></trkpt>
      <trkpt lat="23.977110" lon="120.920570"></trkpt>
      <trkpt lat="23.977350" lon="120.920050"></trkpt>
      <trkpt lat="23.978960" lon="120.916790"></trkpt>
      <trkpt lat="23.978970" lon="120.916760"></trkpt>
      <trkpt lat="23.979510" lon="120.915600"></trkpt>
      <trkpt lat="23.979520" lon="120.915590"></trkpt>
      <trkpt lat="23.979640" lon="120.915350"></trkpt>
      <trkpt lat="23.979720" lon="120.915220"></trkpt>
      <trkpt lat="23.979790" lon="120.915130"></trkpt>
      <trkpt lat="23.979790" lon="120.915120"></trkpt>
      <trkpt lat="23.979960" lon="120.914920"></trkpt>
      <trkpt lat="23.980230" lon="120.914660"></trkpt>
      <trkpt lat="23.980610" lon="120.914390"></trkpt>
      <trkpt lat="23.980620" lon="120.914380"></trkpt>
      <trkpt lat="23.981080" lon="120.914080"></trkpt>
      <trkpt lat="23.981480" lon="120.913720"></trkpt>
      <trkpt lat="23.981860" lon="120.913310"></trkpt>
      <trkpt lat="23.982400" lon="120.912620"></trkpt>
      <trkpt lat="23.982400" lon="120.912600"></trkpt>
      <trkpt lat="23.982410" lon="120.912600"></trkpt>
      <trkpt lat="23.982500" lon="120.912440"></trkpt>
      <trkpt lat="23.982520" lon="120.912420"></trkpt>
      <trkpt lat="23.982700" lon="120.912080"></trkpt>
      <trkpt lat="23.983140" lon="120.911120"></trkpt>
      <trkpt lat="23.983290" lon="120.910740"></trkpt>
      <trkpt lat="23.984360" lon="120.904850"></trkpt>
      <trkpt lat="23.984450" lon="120.904140"></trkpt>
      <trkpt lat="23.984450" lon="120.904030"></trkpt>
      <trkpt lat="23.984400" lon="120.903640"></trkpt>
      <trkpt lat="23.984240" lon="120.902890"></trkpt>
      <trkpt lat="23.984100" lon="120.902530"></trkpt>
      <trkpt lat="23.984010" lon="120.902340"></trkpt>
      <trkpt lat="23.983790" lon="120.901950"></trkpt>
      <trkpt lat="23.983560" lon="120.901610"></trkpt>
      <trkpt lat="23.983310" lon="120.901300"></trkpt>
      <trkpt lat="23.982270" lon="120.900180"></trkpt>
      <trkpt lat="23.982140" lon="120.900000"></trkpt>
      <trkpt lat="23.981890" lon="120.899560"></trkpt>
      <trkpt lat="23.981750" lon="120.899240"></trkpt>
      <trkpt lat="23.981700" lon="120.899080"></trkpt>
      <trkpt lat="23.981620" lon="120.898720"></trkpt>
      <trkpt lat="23.981570" lon="120.898420"></trkpt>
      <trkpt lat="23.981530" lon="120.897830"></trkpt>
      <trkpt lat="23.981540" lon="120.897560"></trkpt>
      <trkpt lat="23.981590" lon="120.897070"></trkpt>
      <trkpt lat="23.981700" lon="120.896330"></trkpt>
      <trkpt lat="23.981790" lon="120.895870"></trkpt>
      <trkpt lat="23.981850" lon="120.895480"></trkpt>
      <trkpt lat="23.981890" lon="120.895290"></trkpt>
      <trkpt lat="23.981910" lon="120.895230"></trkpt>
      <trkpt lat="23.981940" lon="120.895100"></trkpt>
      <trkpt lat="23.981950" lon="120.895080"></trkpt>
      <trkpt lat="23.982040" lon="120.894740"></trkpt>
      <trkpt lat="23.982200" lon="120.894280"></trkpt>
      <trkpt lat="23.982430" lon="120.893750"></trkpt>
      <trkpt lat="23.982680" lon="120.893270"></trkpt>
      <trkpt lat="23.983040" lon="120.892720"></trkpt>
      <trkpt lat="23.983900" lon="120.891530"></trkpt>
      <trkpt lat="23.983940" lon="120.891380"></trkpt>
      <trkpt lat="23.984840" lon="120.890210"></trkpt>
      <trkpt lat="23.984940" lon="120.890140"></trkpt>
      <trkpt lat="23.984950" lon="120.890140"></trkpt>
      <trkpt lat="23.984950" lon="120.890130"></trkpt>
      <trkpt lat="23.985170" lon="120.889770"></trkpt>
      <trkpt lat="23.985370" lon="120.889350"></trkpt>
      <trkpt lat="23.985430" lon="120.889190"></trkpt>
      <trkpt lat="23.985470" lon="120.889040"></trkpt>
      <trkpt lat="23.985510" lon="120.888930"></trkpt>
      <trkpt lat="23.985620" lon="120.888450"></trkpt>
      <trkpt lat="23.985650" lon="120.888060"></trkpt>
      <trkpt lat="23.985650" lon="120.887800"></trkpt>
      <trkpt lat="23.985610" lon="120.887390"></trkpt>
      <trkpt lat="23.985480" lon="120.886780"></trkpt>
      <trkpt lat="23.985410" lon="120.886550"></trkpt>
      <trkpt lat="23.985210" lon="120.886130"></trkpt>
      <trkpt lat="23.984780" lon="120.885460"></trkpt>
      <trkpt lat="23.984280" lon="120.884740"></trkpt>
      <trkpt lat="23.983240" lon="120.883150"></trkpt>
      <trkpt lat="23.983120" lon="120.882910"></trkpt>
      <trkpt lat="23.983090" lon="120.882830"></trkpt>
      <trkpt lat="23.982900" lon="120.882430"></trkpt>
      <trkpt lat="23.982820" lon="120.882210"></trkpt>
      <trkpt lat="23.982590" lon="120.881240"></trkpt>
      <trkpt lat="23.982480" lon="120.880500"></trkpt>
      <trkpt lat="23.982430" lon="120.879720"></trkpt>
      <trkpt lat="23.982430" lon="120.879110"></trkpt>
      <trkpt lat="23.982440" lon="120.879070"></trkpt>
      <trkpt lat="23.982450" lon="120.878870"></trkpt>
      <trkpt lat="23.982510" lon="120.878450"></trkpt>
      <trkpt lat="23.982600" lon="120.877990"></trkpt>
      <trkpt lat="23.982910" lon="120.876900"></trkpt>
      <trkpt lat="23.982940" lon="120.876830"></trkpt>
      <trkpt lat="23.982990" lon="120.876660"></trkpt>
      <trkpt lat="23.983080" lon="120.876430"></trkpt>
      <trkpt lat="23.983330" lon="120.875630"></trkpt>
      <trkpt lat="23.983490" lon="120.875010"></trkpt>
      <trkpt lat="23.983600" lon="120.874510"></trkpt>
      <trkpt lat="23.983660" lon="120.874070"></trkpt>
      <trkpt lat="23.983670" lon="120.873170"></trkpt>
      <trkpt lat="23.983630" lon="120.872630"></trkpt>
      <trkpt lat="23.983560" lon="120.872150"></trkpt>
      <trkpt lat="23.983410" lon="120.871350"></trkpt>
      <trkpt lat="23.983410" lon="120.871330"></trkpt>
      <trkpt lat="23.983310" lon="120.870870"></trkpt>
      <trkpt lat="23.983220" lon="120.870240"></trkpt>
      <trkpt lat="23.983270" lon="120.868750"></trkpt>
      <trkpt lat="23.983320" lon="120.868350"></trkpt>
      <trkpt lat="23.983460" lon="120.867490"></trkpt>
      <trkpt lat="23.983600" lon="120.866950"></trkpt>
      <trkpt lat="23.983920" lon="120.865930"></trkpt>
      <trkpt lat="23.984180" lon="120.865180"></trkpt>
      <trkpt lat="23.984420" lon="120.864610"></trkpt>
      <trkpt lat="23.984750" lon="120.863970"></trkpt>
      <trkpt lat="23.985320" lon="120.863090"></trkpt>
      <trkpt lat="23.987830" lon="120.859810"></trkpt>
      <trkpt lat="23.988090" lon="120.859540"></trkpt>
      <trkpt lat="23.988430" lon="120.859250"></trkpt>
      <trkpt lat="23.988610" lon="120.859130"></trkpt>
      <trkpt lat="23.988930" lon="120.858960"></trkpt>
      <trkpt lat="23.989230" lon="120.858860"></trkpt>
      <trkpt lat="23.989590" lon="120.858780"></trkpt>
      <trkpt lat="23.989790" lon="120.858750"></trkpt>
      <trkpt lat="23.989930" lon="120.858750"></trkpt>
      <trkpt lat="23.991000" lon="120.858810"></trkpt>
      <trkpt lat="23.991190" lon="120.858790"></trkpt>
      <trkpt lat="23.991360" lon="120.858760"></trkpt>
      <trkpt lat="23.991600" lon="120.858700"></trkpt>
      <trkpt lat="23.991770" lon="120.858630"></trkpt>
      <trkpt lat="23.991870" lon="120.858580"></trkpt>
      <trkpt lat="23.992090" lon="120.858440"></trkpt>
      <trkpt lat="23.992390" lon="120.858200"></trkpt>
      <trkpt lat="23.992530" lon="120.858060"></trkpt>
      <trkpt lat="23.992660" lon="120.857910"></trkpt>
      <trkpt lat="23.993500" lon="120.856660"></trkpt>
      <trkpt lat="23.993600" lon="120.856540"></trkpt>
      <trkpt lat="23.994110" lon="120.855990"></trkpt>
      <trkpt lat="23.994360" lon="120.855750"></trkpt>
      <trkpt lat="23.994710" lon="120.855450"></trkpt>
      <trkpt lat="23.994740" lon="120.855430"></trkpt>
      <trkpt lat="23.996130" lon="120.854280"></trkpt>
      <trkpt lat="23.996260" lon="120.854150"></trkpt>
      <trkpt lat="23.996520" lon="120.853940"></trkpt>
      <trkpt lat="23.996720" lon="120.853760"></trkpt>
      <trkpt lat="23.996810" lon="120.853660"></trkpt>
      <trkpt lat="23.996980" lon="120.853440"></trkpt>
      <trkpt lat="23.997040" lon="120.853330"></trkpt>
      <trkpt lat="23.997170" lon="120.853040"></trkpt>
      <trkpt lat="23.997750" lon="120.851430"></trkpt>
      <trkpt lat="23.998270" lon="120.850350"></trkpt>
      <trkpt lat="23.998600" lon="120.849790"></trkpt>
      <trkpt lat="23.999500" lon="120.848660"></trkpt>
      <trkpt lat="23.999950" lon="120.848200"></trkpt>
      <trkpt lat="24.002380" lon="120.845970"></trkpt>
      <trkpt lat="24.002820" lon="120.845620"></trkpt>
      <trkpt lat="24.002980" lon="120.845520"></trkpt>
      <trkpt lat="24.003240" lon="120.845390"></trkpt>
      <trkpt lat="24.003370" lon="120.845350"></trkpt>
      <trkpt lat="24.003660" lon="120.845300"></trkpt>
      <trkpt lat="24.003930" lon="120.845300"></trkpt>
      <trkpt lat="24.004020" lon="120.845310"></trkpt>
      <trkpt lat="24.004220" lon="120.845360"></trkpt>
      <trkpt lat="24.004470" lon="120.845440"></trkpt>
      <trkpt lat="24.004810" lon="120.845630"></trkpt>
      <trkpt lat="24.004850" lon="120.845670"></trkpt>
      <trkpt lat="24.005080" lon="120.845830"></trkpt>
      <trkpt lat="24.005360" lon="120.846050"></trkpt>
      <trkpt lat="24.006450" lon="120.846800"></trkpt>
      <trkpt lat="24.006890" lon="120.847080"></trkpt>
      <trkpt lat="24.007650" lon="120.847520"></trkpt>
      <trkpt lat="24.008660" lon="120.848050"></trkpt>
      <trkpt lat="24.009470" lon="120.848390"></trkpt>
      <trkpt lat="24.009630" lon="120.848440"></trkpt>
      <trkpt lat="24.010380" lon="120.848520"></trkpt>
      <trkpt lat="24.010820" lon="120.848550"></trkpt>
      <trkpt lat="24.011240" lon="120.848560"></trkpt>
      <trkpt lat="24.012940" lon="120.848480"></trkpt>
      <trkpt lat="24.014110" lon="120.848460"></trkpt>
      <trkpt lat="24.014340" lon="120.848440"></trkpt>
      <trkpt lat="24.014730" lon="120.848350"></trkpt>
      <trkpt lat="24.015070" lon="120.848250"></trkpt>
      <trkpt lat="24.015350" lon="120.848140"></trkpt>
      <trkpt lat="24.015640" lon="120.848000"></trkpt>
      <trkpt lat="24.016260" lon="120.847650"></trkpt>
      <trkpt lat="24.016350" lon="120.847590"></trkpt>
      <trkpt lat="24.016480" lon="120.847530"></trkpt>
      <trkpt lat="24.017800" lon="120.846820"></trkpt>
      <trkpt lat="24.018250" lon="120.846640"></trkpt>
      <trkpt lat="24.018460" lon="120.846590"></trkpt>
      <trkpt lat="24.018470" lon="120.846590"></trkpt>
      <trkpt lat="24.018560" lon="120.846570"></trkpt>
      <trkpt lat="24.018640" lon="120.846560"></trkpt>
      <trkpt lat="24.018830" lon="120.846560"></trkpt>
      <trkpt lat="24.018920" lon="120.846500"></trkpt>
      <trkpt lat="24.019180" lon="120.846480"></trkpt>
      <trkpt lat="24.019570" lon="120.846410"></trkpt>
      <trkpt lat="24.020340" lon="120.846440"></trkpt>
      <trkpt lat="24.021540" lon="120.846400"></trkpt>
      <trkpt lat="24.021730" lon="120.846410"></trkpt>
      <trkpt lat="24.022430" lon="120.846210"></trkpt>
      <trkpt lat="24.022750" lon="120.846100"></trkpt>
      <trkpt lat="24.023440" lon="120.845790"></trkpt>
      <trkpt lat="24.023900" lon="120.845550"></trkpt>
      <trkpt lat="24.025730" lon="120.844520"></trkpt>
      <trkpt lat="24.026360" lon="120.844100"></trkpt>
      <trkpt lat="24.026670" lon="120.843840"></trkpt>
      <trkpt lat="24.026810" lon="120.843700"></trkpt>
      <trkpt lat="24.026920" lon="120.843560"></trkpt>
      <trkpt lat="24.027100" lon="120.843280"></trkpt>
      <trkpt lat="24.027280" lon="120.842940"></trkpt>
      <trkpt lat="24.027420" lon="120.842620"></trkpt>
      <trkpt lat="24.027480" lon="120.842430"></trkpt>
      <trkpt lat="24.027520" lon="120.842270"></trkpt>
      <trkpt lat="24.027580" lon="120.841760"></trkpt>
      <trkpt lat="24.027590" lon="120.841450"></trkpt>
      <trkpt lat="24.027550" lon="120.840920"></trkpt>
      <trkpt lat="24.027510" lon="120.840640"></trkpt>
      <trkpt lat="24.026850" lon="120.837390"></trkpt>
      <trkpt lat="24.026740" lon="120.836560"></trkpt>
      <trkpt lat="24.026460" lon="120.834940"></trkpt>
      <trkpt lat="24.026330" lon="120.833830"></trkpt>
      <trkpt lat="24.026300" lon="120.833100"></trkpt>
      <trkpt lat="24.026270" lon="120.832790"></trkpt>
      <trkpt lat="24.026210" lon="120.832410"></trkpt>
      <trkpt lat="24.025980" lon="120.831310"></trkpt>
      <trkpt lat="24.025820" lon="120.830850"></trkpt>
      <trkpt lat="24.025670" lon="120.830540"></trkpt>
      <trkpt lat="24.025390" lon="120.830020"></trkpt>
      <trkpt lat="24.025120" lon="120.829560"></trkpt>
      <trkpt lat="24.024980" lon="120.829380"></trkpt>
      <trkpt lat="24.024320" lon="120.827750"></trkpt>
      <trkpt lat="24.024090" lon="120.827240"></trkpt>
      <trkpt lat="24.023590" lon="120.826390"></trkpt>
      <trkpt lat="24.023370" lon="120.826050"></trkpt>
      <trkpt lat="24.023340" lon="120.826020"></trkpt>
      <trkpt lat="24.023270" lon="120.825920"></trkpt>
      <trkpt lat="24.023220" lon="120.825790"></trkpt>
      <trkpt lat="24.023140" lon="120.825690"></trkpt>
      <trkpt lat="24.022910" lon="120.825440"></trkpt>
      <trkpt lat="24.022690" lon="120.825230"></trkpt>
      <trkpt lat="24.022470" lon="120.825040"></trkpt>
      <trkpt lat="24.021210" lon="120.824050"></trkpt>
      <trkpt lat="24.019860" lon="120.823090"></trkpt>
      <trkpt lat="24.018760" lon="120.822430"></trkpt>
      <trkpt lat="24.018250" lon="120.822080"></trkpt>
      <trkpt lat="24.017810" lon="120.821740"></trkpt>
      <trkpt lat="24.016510" lon="120.820630"></trkpt>
      <trkpt lat="24.016010" lon="120.820270"></trkpt>
      <trkpt lat="24.015880" lon="120.820190"></trkpt>
      <trkpt lat="24.015630" lon="120.820060"></trkpt>
      <trkpt lat="24.015120" lon="120.819840"></trkpt>
      <trkpt lat="24.014920" lon="120.819770"></trkpt>
      <trkpt lat="24.014710" lon="120.819680"></trkpt>
      <trkpt lat="24.014110" lon="120.819480"></trkpt>
      <trkpt lat="24.013760" lon="120.819380"></trkpt>
      <trkpt lat="24.013620" lon="120.819320"></trkpt>
      <trkpt lat="24.013470" lon="120.819280"></trkpt>
      <trkpt lat="24.013350" lon="120.819270"></trkpt>
      <trkpt lat="24.012940" lon="120.819180"></trkpt>
      <trkpt lat="24.010690" lon="120.818770"></trkpt>
      <trkpt lat="24.009290" lon="120.818420"></trkpt>
      <trkpt lat="24.009270" lon="120.818420"></trkpt>
      <trkpt lat="24.009180" lon="120.818390"></trkpt>
      <trkpt lat="24.008810" lon="120.818300"></trkpt>
      <trkpt lat="24.008430" lon="120.818190"></trkpt>
      <trkpt lat="24.008260" lon="120.818120"></trkpt>
      <trkpt lat="24.006880" lon="120.817690"></trkpt>
      <trkpt lat="24.006310" lon="120.817530"></trkpt>
      <trkpt lat="24.006000" lon="120.817420"></trkpt>
      <trkpt lat="24.005650" lon="120.817320"></trkpt>
      <trkpt lat="24.004780" lon="120.816990"></trkpt>
      <trkpt lat="24.004560" lon="120.816880"></trkpt>
      <trkpt lat="24.004530" lon="120.816870"></trkpt>
      <trkpt lat="24.003590" lon="120.816350"></trkpt>
      <trkpt lat="24.003170" lon="120.816100"></trkpt>
      <trkpt lat="24.002350" lon="120.815500"></trkpt>
      <trkpt lat="24.002100" lon="120.815250"></trkpt>
      <trkpt lat="24.001930" lon="120.815060"></trkpt>
      <trkpt lat="24.001670" lon="120.814720"></trkpt>
      <trkpt lat="24.001320" lon="120.814160"></trkpt>
      <trkpt lat="24.001190" lon="120.813930"></trkpt>
      <trkpt lat="24.000910" lon="120.813540"></trkpt>
      <trkpt lat="24.000520" lon="120.813110"></trkpt>
      <trkpt lat="24.000400" lon="120.813010"></trkpt>
      <trkpt lat="24.000390" lon="120.812990"></trkpt>
      <trkpt lat="24.000380" lon="120.812990"></trkpt>
      <trkpt lat="24.000190" lon="120.812850"></trkpt>
      <trkpt lat="23.999860" lon="120.812670"></trkpt>
      <trkpt lat="23.999420" lon="120.812540"></trkpt>
      <trkpt lat="23.999160" lon="120.812490"></trkpt>
      <trkpt lat="23.998360" lon="120.812270"></trkpt>
      <trkpt lat="23.998060" lon="120.812170"></trkpt>
      <trkpt lat="23.997970" lon="120.812130"></trkpt>
      <trkpt lat="23.997760" lon="120.812060"></trkpt>
      <trkpt lat="23.997690" lon="120.812020"></trkpt>
      <trkpt lat="23.997640" lon="120.811980"></trkpt>
      <trkpt lat="23.997190" lon="120.811710"></trkpt>
      <trkpt lat="23.996660" lon="120.811350"></trkpt>
      <trkpt lat="23.995920" lon="120.810890"></trkpt>
      <trkpt lat="23.995300" lon="120.810660"></trkpt>
      <trkpt lat="23.993690" lon="120.810320"></trkpt>
      <trkpt lat="23.993260" lon="120.810160"></trkpt>
      <trkpt lat="23.992970" lon="120.810020"></trkpt>
      <trkpt lat="23.992620" lon="120.809810"></trkpt>
      <trkpt lat="23.992210" lon="120.809510"></trkpt>
      <trkpt lat="23.991490" lon="120.808930"></trkpt>
      <trkpt lat="23.991420" lon="120.808890"></trkpt>
      <trkpt lat="23.989470" lon="120.807290"></trkpt>
      <trkpt lat="23.989440" lon="120.807190"></trkpt>
      <trkpt lat="23.989190" lon="120.806930"></trkpt>
      <trkpt lat="23.988820" lon="120.806490"></trkpt>
      <trkpt lat="23.988540" lon="120.806050"></trkpt>
      <trkpt lat="23.988460" lon="120.805890"></trkpt>
      <trkpt lat="23.988150" lon="120.805170"></trkpt>
      <trkpt lat="23.988080" lon="120.804950"></trkpt>
      <trkpt lat="23.988040" lon="120.804790"></trkpt>
      <trkpt lat="23.988040" lon="120.804760"></trkpt>
      <trkpt lat="23.988000" lon="120.804590"></trkpt>
      <trkpt lat="23.987990" lon="120.804570"></trkpt>
      <trkpt lat="23.987880" lon="120.803720"></trkpt>
      <trkpt lat="23.987790" lon="120.801670"></trkpt>
      <trkpt lat="23.987770" lon="120.800600"></trkpt>
      <trkpt lat="23.987720" lon="120.799810"></trkpt>
      <trkpt lat="23.987690" lon="120.799520"></trkpt>
      <trkpt lat="23.987570" lon="120.798810"></trkpt>
      <trkpt lat="23.987480" lon="120.798470"></trkpt>
      <trkpt lat="23.987380" lon="120.798240"></trkpt>
      <trkpt lat="23.987380" lon="120.798230"></trkpt>
      <trkpt lat="23.987220" lon="120.797900"></trkpt>
      <trkpt lat="23.987190" lon="120.797820"></trkpt>
      <trkpt lat="23.986400" lon="120.796410"></trkpt>
      <trkpt lat="23.986350" lon="120.796340"></trkpt>
      <trkpt lat="23.986250" lon="120.796240"></trkpt>
      <trkpt lat="23.985960" lon="120.795760"></trkpt>
      <trkpt lat="23.984890" lon="120.794190"></trkpt>
      <trkpt lat="23.984860" lon="120.794160"></trkpt>
      <trkpt lat="23.984830" lon="120.794100"></trkpt>
      <trkpt lat="23.984240" lon="120.793260"></trkpt>
      <trkpt lat="23.983690" lon="120.792370"></trkpt>
      <trkpt lat="23.983650" lon="120.792250"></trkpt>
      <trkpt lat="23.983580" lon="120.792100"></trkpt>
      <trkpt lat="23.983500" lon="120.791890"></trkpt>
      <trkpt lat="23.983420" lon="120.791480"></trkpt>
      <trkpt lat="23.983380" lon="120.791060"></trkpt>
      <trkpt lat="23.983370" lon="120.790420"></trkpt>
      <trkpt lat="23.983330" lon="120.789730"></trkpt>
      <trkpt lat="23.983320" lon="120.789180"></trkpt>
      <trkpt lat="23.983300" lon="120.788910"></trkpt>
      <trkpt lat="23.983290" lon="120.788030"></trkpt>
      <trkpt lat="23.983280" lon="120.787980"></trkpt>
      <trkpt lat="23.983280" lon="120.787750"></trkpt>
      <trkpt lat="23.983300" lon="120.787700"></trkpt>
      <trkpt lat="23.983310" lon="120.787660"></trkpt>
      <trkpt lat="23.983280" lon="120.786880"></trkpt>
      <trkpt lat="23.983170" lon="120.786270"></trkpt>
      <trkpt lat="23.983030" lon="120.785770"></trkpt>
      <trkpt lat="23.982930" lon="120.785470"></trkpt>
      <trkpt lat="23.982530" lon="120.784530"></trkpt>
      <trkpt lat="23.982440" lon="120.784370"></trkpt>
      <trkpt lat="23.982370" lon="120.784190"></trkpt>
      <trkpt lat="23.982310" lon="120.783920"></trkpt>
      <trkpt lat="23.982280" lon="120.783590"></trkpt>
      <trkpt lat="23.982280" lon="120.783240"></trkpt>
      <trkpt lat="23.982290" lon="120.783050"></trkpt>
      <trkpt lat="23.982330" lon="120.782770"></trkpt>
      <trkpt lat="23.982520" lon="120.782180"></trkpt>
      <trkpt lat="23.982680" lon="120.781790"></trkpt>
      <trkpt lat="23.983080" lon="120.780940"></trkpt>
      <trkpt lat="23.983900" lon="120.779040"></trkpt>
      <trkpt lat="23.984120" lon="120.778340"></trkpt>
      <trkpt lat="23.984210" lon="120.777940"></trkpt>
      <trkpt lat="23.984210" lon="120.777870"></trkpt>
      <trkpt lat="23.984270" lon="120.777480"></trkpt>
      <trkpt lat="23.984280" lon="120.777350"></trkpt>
      <trkpt lat="23.984280" lon="120.777150"></trkpt>
      <trkpt lat="23.984290" lon="120.776990"></trkpt>
      <trkpt lat="23.984270" lon="120.776430"></trkpt>
      <trkpt lat="23.984220" lon="120.775930"></trkpt>
      <trkpt lat="23.984100" lon="120.775270"></trkpt>
      <trkpt lat="23.984080" lon="120.775200"></trkpt>
      <trkpt lat="23.984000" lon="120.774690"></trkpt>
      <trkpt lat="23.983900" lon="120.774320"></trkpt>
      <trkpt lat="23.983610" lon="120.772830"></trkpt>
      <trkpt lat="23.983570" lon="120.772370"></trkpt>
      <trkpt lat="23.983530" lon="120.771490"></trkpt>
      <trkpt lat="23.983550" lon="120.770960"></trkpt>
      <trkpt lat="23.983650" lon="120.770010"></trkpt>
      <trkpt lat="23.983820" lon="120.768930"></trkpt>
      <trkpt lat="23.983850" lon="120.768650"></trkpt>
      <trkpt lat="23.983930" lon="120.768120"></trkpt>
      <trkpt lat="23.984160" lon="120.767220"></trkpt>
      <trkpt lat="23.984200" lon="120.767150"></trkpt>
      <trkpt lat="23.984370" lon="120.766680"></trkpt>
      <trkpt lat="23.984940" lon="120.765510"></trkpt>
      <trkpt lat="23.985370" lon="120.764790"></trkpt>
      <trkpt lat="23.985400" lon="120.764720"></trkpt>
      <trkpt lat="23.986130" lon="120.763420"></trkpt>
      <trkpt lat="23.986400" lon="120.762650"></trkpt>
      <trkpt lat="23.986500" lon="120.762260"></trkpt>
      <trkpt lat="23.986570" lon="120.761620"></trkpt>
      <trkpt lat="23.986580" lon="120.761200"></trkpt>
      <trkpt lat="23.986570" lon="120.761140"></trkpt>
      <trkpt lat="23.986570" lon="120.760950"></trkpt>
      <trkpt lat="23.986560" lon="120.760940"></trkpt>
      <trkpt lat="23.986520" lon="120.760710"></trkpt>
      <trkpt lat="23.986480" lon="120.760590"></trkpt>
      <trkpt lat="23.986470" lon="120.760500"></trkpt>
      <trkpt lat="23.986410" lon="120.760240"></trkpt>
      <trkpt lat="23.986320" lon="120.759960"></trkpt>
      <trkpt lat="23.986150" lon="120.759560"></trkpt>
      <trkpt lat="23.986120" lon="120.759510"></trkpt>
      <trkpt lat="23.986060" lon="120.759380"></trkpt>
      <trkpt lat="23.985880" lon="120.759090"></trkpt>
      <trkpt lat="23.985860" lon="120.759040"></trkpt>
      <trkpt lat="23.985450" lon="120.758400"></trkpt>
      <trkpt lat="23.985390" lon="120.758320"></trkpt>
      <trkpt lat="23.985130" lon="120.757920"></trkpt>
      <trkpt lat="23.985120" lon="120.757920"></trkpt>
      <trkpt lat="23.983730" lon="120.755870"></trkpt>
      <trkpt lat="23.983720" lon="120.755860"></trkpt>
      <trkpt lat="23.982870" lon="120.754610"></trkpt>
      <trkpt lat="23.982830" lon="120.754540"></trkpt>
      <trkpt lat="23.982570" lon="120.754160"></trkpt>
      <trkpt lat="23.982560" lon="120.754150"></trkpt>
      <trkpt lat="23.982420" lon="120.753940"></trkpt>
      <trkpt lat="23.982260" lon="120.753620"></trkpt>
      <trkpt lat="23.982210" lon="120.753490"></trkpt>
      <trkpt lat="23.982140" lon="120.753220"></trkpt>
      <trkpt lat="23.982120" lon="120.752910"></trkpt>
      <trkpt lat="23.982130" lon="120.752560"></trkpt>
      <trkpt lat="23.982170" lon="120.752310"></trkpt>
      <trkpt lat="23.982190" lon="120.752230"></trkpt>
      <trkpt lat="23.982240" lon="120.752100"></trkpt>
      <trkpt lat="23.982370" lon="120.751840"></trkpt>
      <trkpt lat="23.982530" lon="120.751600"></trkpt>
      <trkpt lat="23.982650" lon="120.751440"></trkpt>
      <trkpt lat="23.983230" lon="120.750850"></trkpt>
      <trkpt lat="23.983670" lon="120.750450"></trkpt>
      <trkpt lat="23.983870" lon="120.750210"></trkpt>
      <trkpt lat="23.984120" lon="120.749810"></trkpt>
      <trkpt lat="23.984320" lon="120.749380"></trkpt>
      <trkpt lat="23.984410" lon="120.749150"></trkpt>
      <trkpt lat="23.984510" lon="120.748780"></trkpt>
      <trkpt lat="23.984580" lon="120.748270"></trkpt>
      <trkpt lat="23.984750" lon="120.746670"></trkpt>
      <trkpt lat="23.984720" lon="120.746560"></trkpt>
      <trkpt lat="23.984720" lon="120.746400"></trkpt>
      <trkpt lat="23.984740" lon="120.746090"></trkpt>
      <trkpt lat="23.984760" lon="120.745950"></trkpt>
      <trkpt lat="23.984760" lon="120.745860"></trkpt>
      <trkpt lat="23.984930" lon="120.743820"></trkpt>
      <trkpt lat="23.984950" lon="120.743020"></trkpt>
      <trkpt lat="23.984930" lon="120.742510"></trkpt>
      <trkpt lat="23.984900" lon="120.742320"></trkpt>
      <trkpt lat="23.984880" lon="120.742050"></trkpt>
      <trkpt lat="23.984840" lon="120.741810"></trkpt>
      <trkpt lat="23.984840" lon="120.741620"></trkpt>
      <trkpt lat="23.984480" lon="120.740270"></trkpt>
      <trkpt lat="23.984110" lon="120.739010"></trkpt>
      <trkpt lat="23.983590" lon="120.736920"></trkpt>
      <trkpt lat="23.981200" lon="120.728070"></trkpt>
      <trkpt lat="23.981130" lon="120.727770"></trkpt>
      <trkpt lat="23.980990" lon="120.727310"></trkpt>
      <trkpt lat="23.980640" lon="120.725940"></trkpt>
      <trkpt lat="23.980560" lon="120.725770"></trkpt>
      <trkpt lat="23.980240" lon="120.724720"></trkpt>
      <trkpt lat="23.980090" lon="120.724330"></trkpt>
      <trkpt lat="23.980090" lon="120.724310"></trkpt>
      <trkpt lat="23.980010" lon="120.724090"></trkpt>
      <trkpt lat="23.979710" lon="120.722990"></trkpt>
      <trkpt lat="23.979630" lon="120.722750"></trkpt>
      <trkpt lat="23.979510" lon="120.722270"></trkpt>
      <trkpt lat="23.979320" lon="120.721280"></trkpt>
      <trkpt lat="23.979260" lon="120.721050"></trkpt>
      <trkpt lat="23.979190" lon="120.720700"></trkpt>
      <trkpt lat="23.978940" lon="120.719110"></trkpt>
      <trkpt lat="23.978690" lon="120.717730"></trkpt>
      <trkpt lat="23.978340" lon="120.716340"></trkpt>
      <trkpt lat="23.978240" lon="120.716040"></trkpt>
      <trkpt lat="23.978020" lon="120.715550"></trkpt>
      <trkpt lat="23.978010" lon="120.715460"></trkpt>
      <trkpt lat="23.977910" lon="120.715180"></trkpt>
      <trkpt lat="23.977520" lon="120.714260"></trkpt>
      <trkpt lat="23.977180" lon="120.713580"></trkpt>
      <trkpt lat="23.977180" lon="120.713570"></trkpt>
      <trkpt lat="23.977140" lon="120.713500"></trkpt>
      <trkpt lat="23.977100" lon="120.713410"></trkpt>
      <trkpt lat="23.977100" lon="120.713390"></trkpt>
      <trkpt lat="23.977040" lon="120.713270"></trkpt>
      <trkpt lat="23.977000" lon="120.713150"></trkpt>
      <trkpt lat="23.976980" lon="120.713050"></trkpt>
      <trkpt lat="23.976980" lon="120.713030"></trkpt>
      <trkpt lat="23.976950" lon="120.712830"></trkpt>
      <trkpt lat="23.976950" lon="120.712720"></trkpt>
      <trkpt lat="23.976970" lon="120.712430"></trkpt>
      <trkpt lat="23.977010" lon="120.712120"></trkpt>
      <trkpt lat="23.977020" lon="120.712080"></trkpt>
      <trkpt lat="23.977230" lon="120.708990"></trkpt>
      <trkpt lat="23.977200" lon="120.708790"></trkpt>
      <trkpt lat="23.977190" lon="120.708780"></trkpt>
      <trkpt lat="23.977240" lon="120.707930"></trkpt>
      <trkpt lat="23.977300" lon="120.707470"></trkpt>
      <trkpt lat="23.977340" lon="120.707270"></trkpt>
      <trkpt lat="23.977550" lon="120.706440"></trkpt>
      <trkpt lat="23.977760" lon="120.705490"></trkpt>
      <trkpt lat="23.978150" lon="120.704390"></trkpt>
      <trkpt lat="23.978260" lon="120.703930"></trkpt>
      <trkpt lat="23.978290" lon="120.703740"></trkpt>
      <trkpt lat="23.978360" lon="120.703100"></trkpt>
      <trkpt lat="23.978390" lon="120.702500"></trkpt>
      <trkpt lat="23.978470" lon="120.701770"></trkpt>
      <trkpt lat="23.978500" lon="120.701590"></trkpt>
      <trkpt lat="23.978680" lon="120.699670"></trkpt>
      <trkpt lat="23.978810" lon="120.698600"></trkpt>
      <trkpt lat="23.978900" lon="120.697590"></trkpt>
      <trkpt lat="23.979030" lon="120.696650"></trkpt>
      <trkpt lat="23.979040" lon="120.696630"></trkpt>
      <trkpt lat="23.979630" lon="120.693040"></trkpt>
      <trkpt lat="23.979690" lon="120.692530"></trkpt>
      <trkpt lat="23.980120" lon="120.692630"></trkpt>
      <trkpt lat="23.980440" lon="120.692690"></trkpt>
      <trkpt lat="23.980510" lon="120.692690"></trkpt>
      <trkpt lat="23.980620" lon="120.692700"></trkpt>
      <trkpt lat="23.981520" lon="120.692560"></trkpt>
      <trkpt lat="23.983110" lon="120.692120"></trkpt>
      <trkpt lat="23.983160" lon="120.692100"></trkpt>
      <trkpt lat="23.983760" lon="120.691980"></trkpt>
      <trkpt lat="23.983910" lon="120.691940"></trkpt>
      <trkpt lat="23.984820" lon="120.691780"></trkpt>
      <trkpt lat="23.985210" lon="120.691740"></trkpt>
      <trkpt lat="23.986780" lon="120.691690"></trkpt>
      <trkpt lat="23.986830" lon="120.691680"></trkpt>
      <trkpt lat="23.991940" lon="120.691420"></trkpt>
      <trkpt lat="23.996730" lon="120.691250"></trkpt>
      <trkpt lat="23.996820" lon="120.691230"></trkpt>
      <trkpt lat="23.996890" lon="120.691190"></trkpt>
      <trkpt lat="23.996900" lon="120.691180"></trkpt>
      <trkpt lat="23.996910" lon="120.691180"></trkpt>
      <trkpt lat="23.996940" lon="120.691160"></trkpt>
      <trkpt lat="23.996980" lon="120.691120"></trkpt>
      <trkpt lat="23.997010" lon="120.691070"></trkpt>
      <trkpt lat="23.997030" lon="120.691050"></trkpt>
      <trkpt lat="23.997050" lon="120.691020"></trkpt>
      <trkpt lat="23.997060" lon="120.690980"></trkpt>
      <trkpt lat="23.997080" lon="120.690940"></trkpt>
      <trkpt lat="23.997420" lon="120.689670"></trkpt>
      <trkpt lat="23.997470" lon="120.689540"></trkpt>
      <trkpt lat="23.997590" lon="120.689560"></trkpt>
      <trkpt lat="23.997990" lon="120.689670"></trkpt>
      <trkpt lat="23.998290" lon="120.689780"></trkpt>
      <trkpt lat="23.999410" lon="120.690110"></trkpt>
      <trkpt lat="23.999950" lon="120.690250"></trkpt>
      <trkpt lat="24.000500" lon="120.690440"></trkpt>
      <trkpt lat="24.000750" lon="120.690540"></trkpt>
      <trkpt lat="24.001180" lon="120.690770"></trkpt>
      <trkpt lat="24.001570" lon="120.691020"></trkpt>
      <trkpt lat="24.001640" lon="120.691100"></trkpt>
      <trkpt lat="24.001820" lon="120.691280"></trkpt>
      <trkpt lat="24.001970" lon="120.691460"></trkpt>
      <trkpt lat="24.002190" lon="120.691760"></trkpt>
      <trkpt lat="24.002550" lon="120.692470"></trkpt>
      <trkpt lat="24.002680" lon="120.692810"></trkpt>
      <trkpt lat="24.002980" lon="120.693370"></trkpt>
      <trkpt lat="24.003220" lon="120.693710"></trkpt>
      <trkpt lat="24.003310" lon="120.693810"></trkpt>
      <trkpt lat="24.003690" lon="120.694120"></trkpt>
      <trkpt lat="24.003860" lon="120.694240"></trkpt>
      <trkpt lat="24.004360" lon="120.694520"></trkpt>
      <trkpt lat="24.004770" lon="120.694650"></trkpt>
      <trkpt lat="24.004900" lon="120.694680"></trkpt>
      <trkpt lat="24.004990" lon="120.694690"></trkpt>
      <trkpt lat="24.005200" lon="120.694740"></trkpt>
      <trkpt lat="24.005410" lon="120.694770"></trkpt>
      <trkpt lat="24.009030" lon="120.695480"></trkpt>
      <trkpt lat="24.009060" lon="120.695490"></trkpt>
      <trkpt lat="24.010470" lon="120.695780"></trkpt>
      <trkpt lat="24.010740" lon="120.695810"></trkpt>
      <trkpt lat="24.010830" lon="120.695830"></trkpt>
      <trkpt lat="24.011200" lon="120.695840"></trkpt>
      <trkpt lat="24.011590" lon="120.695880"></trkpt>
      <trkpt lat="24.012590" lon="120.695870"></trkpt>
      <trkpt lat="24.013100" lon="120.695810"></trkpt>
      <trkpt lat="24.014850" lon="120.695850"></trkpt>
      <trkpt lat="24.016700" lon="120.695950"></trkpt>
      <trkpt lat="24.017160" lon="120.696010"></trkpt>
      <trkpt lat="24.017750" lon="120.696040"></trkpt>
      <trkpt lat="24.018850" lon="120.696170"></trkpt>
      <trkpt lat="24.019890" lon="120.696260"></trkpt>
      <trkpt lat="24.020160" lon="120.696300"></trkpt>
      <trkpt lat="24.020660" lon="120.696340"></trkpt>
      <trkpt lat="24.022830" lon="120.696420"></trkpt>
      <trkpt lat="24.023750" lon="120.696520"></trkpt>
      <trkpt lat="24.023990" lon="120.696560"></trkpt>
      <trkpt lat="24.023980" lon="120.696670"></trkpt>
      <trkpt lat="24.023990" lon="120.696560"></trkpt>
      <trkpt lat="24.025130" lon="120.696720"></trkpt>
      <trkpt lat="24.026400" lon="120.696830"></trkpt>
      <trkpt lat="24.028540" lon="120.696920"></trkpt>
      <trkpt lat="24.029440" lon="120.696910"></trkpt>
      <trkpt lat="24.030350" lon="120.696790"></trkpt>
      <trkpt lat="24.030650" lon="120.696700"></trkpt>
      <trkpt lat="24.031110" lon="120.696510"></trkpt>
      <trkpt lat="24.031410" lon="120.696340"></trkpt>
      <trkpt lat="24.031820" lon="120.696010"></trkpt>
      <trkpt lat="24.032080" lon="120.695730"></trkpt>
      <trkpt lat="24.032160" lon="120.695630"></trkpt>
      <trkpt lat="24.033030" lon="120.694680"></trkpt>
      <trkpt lat="24.033040" lon="120.694660"></trkpt>
      <trkpt lat="24.033270" lon="120.694470"></trkpt>
      <trkpt lat="24.033270" lon="120.694460"></trkpt>
      <trkpt lat="24.033640" lon="120.694200"></trkpt>
      <trkpt lat="24.033820" lon="120.694090"></trkpt>
      <trkpt lat="24.034190" lon="120.693960"></trkpt>
      <trkpt lat="24.034420" lon="120.693910"></trkpt>
      <trkpt lat="24.036440" lon="120.693580"></trkpt>
      <trkpt lat="24.038110" lon="120.693240"></trkpt>
      <trkpt lat="24.039190" lon="120.692980"></trkpt>
      <trkpt lat="24.039630" lon="120.692840"></trkpt>
      <trkpt lat="24.040290" lon="120.692530"></trkpt>
      <trkpt lat="24.041040" lon="120.692090"></trkpt>
      <trkpt lat="24.041330" lon="120.691970"></trkpt>
      <trkpt lat="24.041610" lon="120.691890"></trkpt>
      <trkpt lat="24.041830" lon="120.691850"></trkpt>
      <trkpt lat="24.042140" lon="120.691820"></trkpt>
      <trkpt lat="24.042730" lon="120.691880"></trkpt>
      <trkpt lat="24.043190" lon="120.691990"></trkpt>
      <trkpt lat="24.045670" lon="120.692370"></trkpt>
      <trkpt lat="24.046400" lon="120.692500"></trkpt>
      <trkpt lat="24.046590" lon="120.692550"></trkpt>
      <trkpt lat="24.048340" lon="120.693530"></trkpt>
      <trkpt lat="24.048530" lon="120.693620"></trkpt>
      <trkpt lat="24.050470" lon="120.694400"></trkpt>
      <trkpt lat="24.051480" lon="120.694780"></trkpt>
      <trkpt lat="24.051650" lon="120.694870"></trkpt>
      <trkpt lat="24.051700" lon="120.694890"></trkpt>
      <trkpt lat="24.052030" lon="120.695060"></trkpt>
      <trkpt lat="24.052130" lon="120.695150"></trkpt>
      <trkpt lat="24.053870" lon="120.696180"></trkpt>
      <trkpt lat="24.054110" lon="120.696260"></trkpt>
      <trkpt lat="24.054330" lon="120.696300"></trkpt>
      <trkpt lat="24.054770" lon="120.696310"></trkpt>
      <trkpt lat="24.055180" lon="120.696250"></trkpt>
      <trkpt lat="24.059440" lon="120.695230"></trkpt>
      <trkpt lat="24.059610" lon="120.695180"></trkpt>
      <trkpt lat="24.059710" lon="120.695160"></trkpt>
      <trkpt lat="24.059950" lon="120.695130"></trkpt>
      <trkpt lat="24.060070" lon="120.695130"></trkpt>
      <trkpt lat="24.060300" lon="120.695150"></trkpt>
      <trkpt lat="24.062350" lon="120.695500"></trkpt>
      <trkpt lat="24.062900" lon="120.695610"></trkpt>
      <trkpt lat="24.065680" lon="120.696060"></trkpt>
      <trkpt lat="24.065840" lon="120.696070"></trkpt>
      <trkpt lat="24.068130" lon="120.696390"></trkpt>
      <trkpt lat="24.070050" lon="120.696730"></trkpt>
      <trkpt lat="24.070170" lon="120.696780"></trkpt>
      <trkpt lat="24.070810" lon="120.697370"></trkpt>
      <trkpt lat="24.072810" lon="120.699080"></trkpt>
      <trkpt lat="24.072930" lon="120.699200"></trkpt>
      <trkpt lat="24.073310" lon="120.699520"></trkpt>
      <trkpt lat="24.073410" lon="120.699630"></trkpt>
      <trkpt lat="24.073470" lon="120.699660"></trkpt>
      <trkpt lat="24.073660" lon="120.699780"></trkpt>
      <trkpt lat="24.073820" lon="120.699860"></trkpt>
      <trkpt lat="24.073840" lon="120.699860"></trkpt>
      <trkpt lat="24.074070" lon="120.699920"></trkpt>
      <trkpt lat="24.074600" lon="120.700030"></trkpt>
      <trkpt lat="24.074870" lon="120.700030"></trkpt>
      <trkpt lat="24.075410" lon="120.699990"></trkpt>
      <trkpt lat="24.077010" lon="120.699470"></trkpt>
      <trkpt lat="24.077140" lon="120.699420"></trkpt>
      <trkpt lat="24.077940" lon="120.699170"></trkpt>
      <trkpt lat="24.078010" lon="120.699140"></trkpt>
      <trkpt lat="24.079040" lon="120.698840"></trkpt>
      <trkpt lat="24.079530" lon="120.698640"></trkpt>
      <trkpt lat="24.079670" lon="120.698610"></trkpt>
      <trkpt lat="24.080570" lon="120.698300"></trkpt>
      <trkpt lat="24.081230" lon="120.698110"></trkpt>
      <trkpt lat="24.082540" lon="120.697690"></trkpt>
      <trkpt lat="24.082700" lon="120.697630"></trkpt>
      <trkpt lat="24.083480" lon="120.697390"></trkpt>
      <trkpt lat="24.084360" lon="120.697080"></trkpt>
      <trkpt lat="24.085320" lon="120.696790"></trkpt>
      <trkpt lat="24.085390" lon="120.696780"></trkpt>
      <trkpt lat="24.085990" lon="120.696600"></trkpt>
      <trkpt lat="24.086520" lon="120.696420"></trkpt>
      <trkpt lat="24.086770" lon="120.696310"></trkpt>
      <trkpt lat="24.088120" lon="120.695820"></trkpt>
      <trkpt lat="24.088420" lon="120.695630"></trkpt>
      <trkpt lat="24.088650" lon="120.695410"></trkpt>
      <trkpt lat="24.090640" lon="120.692950"></trkpt>
      <trkpt lat="24.091150" lon="120.692280"></trkpt>
      <trkpt lat="24.091350" lon="120.692060"></trkpt>
      <trkpt lat="24.091640" lon="120.691640"></trkpt>
      <trkpt lat="24.092870" lon="120.690100"></trkpt>
      <trkpt lat="24.092910" lon="120.690030"></trkpt>
      <trkpt lat="24.094440" lon="120.688100"></trkpt>
      <trkpt lat="24.094730" lon="120.687700"></trkpt>
      <trkpt lat="24.095430" lon="120.686810"></trkpt>
      <trkpt lat="24.095600" lon="120.686560"></trkpt>
      <trkpt lat="24.097860" lon="120.683600"></trkpt>
      <trkpt lat="24.097980" lon="120.683470"></trkpt>
      <trkpt lat="24.098070" lon="120.683390"></trkpt>
      <trkpt lat="24.098300" lon="120.683240"></trkpt>
      <trkpt lat="24.098410" lon="120.683180"></trkpt>
      <trkpt lat="24.098590" lon="120.683100"></trkpt>
      <trkpt lat="24.098790" lon="120.683070"></trkpt>
      <trkpt lat="24.098970" lon="120.683020"></trkpt>
      <trkpt lat="24.100030" lon="120.682660"></trkpt>
      <trkpt lat="24.103200" lon="120.681680"></trkpt>
      <trkpt lat="24.104320" lon="120.681380"></trkpt>
      <trkpt lat="24.104680" lon="120.681270"></trkpt>
      <trkpt lat="24.104850" lon="120.681270"></trkpt>
      <trkpt lat="24.105840" lon="120.680950"></trkpt>
      <trkpt lat="24.108730" lon="120.680090"></trkpt>
      <trkpt lat="24.111620" lon="120.679180"></trkpt>
      <trkpt lat="24.111960" lon="120.679110"></trkpt>
      <trkpt lat="24.112060" lon="120.679100"></trkpt>
      <trkpt lat="24.112180" lon="120.679120"></trkpt>
      <trkpt lat="24.112340" lon="120.679100"></trkpt>
      <trkpt lat="24.112700" lon="120.679100"></trkpt>
      <trkpt lat="24.114150" lon="120.679240"></trkpt>
      <trkpt lat="24.114200" lon="120.679240"></trkpt>
      <trkpt lat="24.114240" lon="120.679250"></trkpt>
      <trkpt lat="24.115000" lon="120.679340"></trkpt>
      <trkpt lat="24.116600" lon="120.679480"></trkpt>
      <trkpt lat="24.117690" lon="120.679360"></trkpt>
      <trkpt lat="24.118300" lon="120.679340"></trkpt>
      <trkpt lat="24.118710" lon="120.679370"></trkpt>
      <trkpt lat="24.118840" lon="120.679360"></trkpt>
      <trkpt lat="24.119020" lon="120.679370"></trkpt>
      <trkpt lat="24.119690" lon="120.679360"></trkpt>
      <trkpt lat="24.120600" lon="120.679380"></trkpt>
      <trkpt lat="24.120930" lon="120.679360"></trkpt>
      <trkpt lat="24.123820" lon="120.679360"></trkpt>
      <trkpt lat="24.124060" lon="120.679340"></trkpt>
      <trkpt lat="24.125650" lon="120.679380"></trkpt>
      <trkpt lat="24.125860" lon="120.679370"></trkpt>
      <trkpt lat="24.126380" lon="120.679380"></trkpt>
      <trkpt lat="24.128660" lon="120.678260"></trkpt>
      <trkpt lat="24.128770" lon="120.678190"></trkpt>
      <trkpt lat="24.129120" lon="120.678030"></trkpt>
      <trkpt lat="24.131790" lon="120.676690"></trkpt>
      <trkpt lat="24.131870" lon="120.676640"></trkpt>
      <trkpt lat="24.131900" lon="120.676590"></trkpt>
      <trkpt lat="24.132470" lon="120.676310"></trkpt>
      <trkpt lat="24.132900" lon="120.676060"></trkpt>
      <trkpt lat="24.132970" lon="120.676010"></trkpt>
      <trkpt lat="24.133100" lon="120.675940"></trkpt>
      <trkpt lat="24.135630" lon="120.682010"></trkpt>
      <trkpt lat="24.135790" lon="120.682270"></trkpt>
      <trkpt lat="24.135960" lon="120.682500"></trkpt>
      <trkpt lat="24.136290" lon="120.683280"></trkpt>
      <trkpt lat="24.136490" lon="120.683820"></trkpt>
      <trkpt lat="24.136670" lon="120.684180"></trkpt>
      <trkpt lat="24.136880" lon="120.684330"></trkpt>
      <trkpt lat="24.136990" lon="120.684360"></trkpt>
      <trkpt lat="24.137020" lon="120.684380"></trkpt>
      <trkpt lat="24.137050" lon="120.684390"></trkpt>
      <trkpt lat="24.137090" lon="120.684390"></trkpt>
      <trkpt lat="24.137180" lon="120.684420"></trkpt>
      <trkpt lat="24.137280" lon="120.684470"></trkpt>
      <trkpt lat="24.137370" lon="120.684550"></trkpt>
      <trkpt lat="24.137420" lon="120.684630"></trkpt>
      <trkpt lat="24.137460" lon="120.684680"></trkpt>
      <trkpt lat="24.137690" lon="120.685090"></trkpt>
      <trkpt lat="24.137780" lon="120.685180"></trkpt>
      <trkpt lat="24.138370" lon="120.685630"></trkpt>
      <trkpt lat="24.138820" lon="120.686000"></trkpt>
      <trkpt lat="24.138880" lon="120.686040"></trkpt>
      <trkpt lat="24.139010" lon="120.686060"></trkpt>
      <trkpt lat="24.139440" lon="120.686070"></trkpt>
      <trkpt lat="24.139650" lon="120.686060"></trkpt>
      <trkpt lat="24.139830" lon="120.686040"></trkpt>
      <trkpt lat="24.140130" lon="120.685990"></trkpt>
      <trkpt lat="24.141540" lon="120.685950"></trkpt>
      <trkpt lat="24.143140" lon="120.685860"></trkpt>
      <trkpt lat="24.143330" lon="120.685870"></trkpt>
      <trkpt lat="24.143670" lon="120.685920"></trkpt>
      <trkpt lat="24.143860" lon="120.685970"></trkpt>
      <trkpt lat="24.144580" lon="120.686210"></trkpt>
      <trkpt lat="24.145300" lon="120.686480"></trkpt>
      <trkpt lat="24.145610" lon="120.686490"></trkpt>
      <trkpt lat="24.145690" lon="120.686460"></trkpt>
      <trkpt lat="24.145730" lon="120.686450"></trkpt>
      <trkpt lat="24.145830" lon="120.686400"></trkpt>
      <trkpt lat="24.146120" lon="120.686220"></trkpt>
      <trkpt lat="24.146240" lon="120.686160"></trkpt>
      <trkpt lat="24.146390" lon="120.686070"></trkpt>
      <trkpt lat="24.148750" lon="120.687080"></trkpt>
      <trkpt lat="24.149690" lon="120.687540"></trkpt>
      <trkpt lat="24.152100" lon="120.688580"></trkpt>
      <trkpt lat="24.152040" lon="120.688720"></trkpt>
      <trkpt lat="24.151970" lon="120.688920"></trkpt>
    </trkseg>
  </trk>
</gpx>
