<?xml version="1.0" encoding="UTF-8"?>
<gpx version="1.1" creator="2026-routes" xmlns="http://www.topografix.com/GPX/1/1">
  <metadata>
    <name>花蓮到玉里高中</name>
    <desc>花蓮市→台9→吉安→壽豐→鳳林→萬榮→光復→瑞穗→台9→玉里高中</desc>
  </metadata>
  <trk>
    <name>Day 7 花蓮到玉里高中</name>
    <trkseg>
      <trkpt lat="23.992589" lon="121.601765"></trkpt>
      <trkpt lat="23.992141" lon="121.601540"></trkpt>
      <trkpt lat="23.992086" lon="121.601673"></trkpt>
      <trkpt lat="23.992030" lon="121.601806"></trkpt>
      <trkpt lat="23.991974" lon="121.601939"></trkpt>
      <trkpt lat="23.991919" lon="121.602072"></trkpt>
      <trkpt lat="23.991903" lon="121.602109"></trkpt>
      <trkpt lat="23.991852" lon="121.602231"></trkpt>
      <trkpt lat="23.991578" lon="121.602861"></trkpt>
      <trkpt lat="23.991454" lon="121.602761"></trkpt>
      <trkpt lat="23.990820" lon="121.602208"></trkpt>
      <trkpt lat="23.990058" lon="121.601500"></trkpt>
      <trkpt lat="23.989966" lon="121.601422"></trkpt>
      <trkpt lat="23.989931" lon="121.601390"></trkpt>
      <trkpt lat="23.989724" lon="121.601194"></trkpt>
      <trkpt lat="23.989114" lon="121.600633"></trkpt>
      <trkpt lat="23.988761" lon="121.600220"></trkpt>
      <trkpt lat="23.988628" lon="121.600197"></trkpt>
      <trkpt lat="23.988334" lon="121.599859"></trkpt>
      <trkpt lat="23.988100" lon="121.599591"></trkpt>
      <trkpt lat="23.987527" lon="121.598904"></trkpt>
      <trkpt lat="23.987203" lon="121.598774"></trkpt>
      <trkpt lat="23.987420" lon="121.598324"></trkpt>
      <trkpt lat="23.987026" lon="121.598139"></trkpt>
      <trkpt lat="23.986974" lon="121.598112"></trkpt>
      <trkpt lat="23.986997" lon="121.598028"></trkpt>
      <trkpt lat="23.987049" lon="121.597856"></trkpt>
      <trkpt lat="23.986911" lon="121.597788"></trkpt>
      <trkpt lat="23.986705" lon="121.597673"></trkpt>
      <trkpt lat="23.986321" lon="121.597488"></trkpt>
      <trkpt lat="23.985305" lon="121.597004"></trkpt>
      <trkpt lat="23.984932" lon="121.596832"></trkpt>
      <trkpt lat="23.984775" lon="121.596662"></trkpt>
      <trkpt lat="23.985054" lon="121.595224"></trkpt>
      <trkpt lat="23.985174" lon="121.594583"></trkpt>
      <trkpt lat="23.985271" lon="121.594139"></trkpt>
      <trkpt lat="23.985309" lon="121.593929"></trkpt>
      <trkpt lat="23.985484" lon="121.593012"></trkpt>
      <trkpt lat="23.985507" lon="121.592751"></trkpt>
      <trkpt lat="23.985598" lon="121.592355"></trkpt>
      <trkpt lat="23.985673" lon="121.592028"></trkpt>
      <trkpt lat="23.985909" lon="121.591290"></trkpt>
      <trkpt lat="23.985645" lon="121.591048"></trkpt>
      <trkpt lat="23.984926" lon="121.590488"></trkpt>
      <trkpt lat="23.983984" lon="121.589797"></trkpt>
      <trkpt lat="23.983053" lon="121.589175"></trkpt>
      <trkpt lat="23.982288" lon="121.588661"></trkpt>
      <trkpt lat="23.981326" lon="121.588039"></trkpt>
      <trkpt lat="23.980489" lon="121.587469"></trkpt>
      <trkpt lat="23.979629" lon="121.586888"></trkpt>
      <trkpt lat="23.979026" lon="121.586409"></trkpt>
      <trkpt lat="23.978747" lon="121.586159"></trkpt>
      <trkpt lat="23.978461" lon="121.585960"></trkpt>
      <trkpt lat="23.978237" lon="121.585765"></trkpt>
      <trkpt lat="23.978062" lon="121.585610"></trkpt>
      <trkpt lat="23.977984" lon="121.585559"></trkpt>
      <trkpt lat="23.977736" lon="121.585480"></trkpt>
      <trkpt lat="23.977341" lon="121.585347"></trkpt>
      <trkpt lat="23.976589" lon="121.585017"></trkpt>
      <trkpt lat="23.976110" lon="121.584821"></trkpt>
      <trkpt lat="23.975874" lon="121.584700"></trkpt>
      <trkpt lat="23.975788" lon="121.584660"></trkpt>
      <trkpt lat="23.975679" lon="121.584595"></trkpt>
      <trkpt lat="23.975646" lon="121.584571"></trkpt>
      <trkpt lat="23.975448" lon="121.584482"></trkpt>
      <trkpt lat="23.975155" lon="121.584210"></trkpt>
      <trkpt lat="23.974686" lon="121.583776"></trkpt>
      <trkpt lat="23.974330" lon="121.583439"></trkpt>
      <trkpt lat="23.973625" lon="121.582821"></trkpt>
      <trkpt lat="23.973124" lon="121.582392"></trkpt>
      <trkpt lat="23.972867" lon="121.582120"></trkpt>
      <trkpt lat="23.972725" lon="121.582016"></trkpt>
      <trkpt lat="23.972585" lon="121.581884"></trkpt>
      <trkpt lat="23.972396" lon="121.581715"></trkpt>
      <trkpt lat="23.972036" lon="121.581396"></trkpt>
      <trkpt lat="23.971274" lon="121.580740"></trkpt>
      <trkpt lat="23.970995" lon="121.580455"></trkpt>
      <trkpt lat="23.970657" lon="121.580952"></trkpt>
      <trkpt lat="23.970128" lon="121.581722"></trkpt>
      <trkpt lat="23.970271" lon="121.582244"></trkpt>
      <trkpt lat="23.970128" lon="121.581722"></trkpt>
      <trkpt lat="23.970657" lon="121.580952"></trkpt>
      <trkpt lat="23.970995" lon="121.580455"></trkpt>
      <trkpt lat="23.970591" lon="121.580111"></trkpt>
      <trkpt lat="23.970222" lon="121.579790"></trkpt>
      <trkpt lat="23.970112" lon="121.579679"></trkpt>
      <trkpt lat="23.969819" lon="121.579429"></trkpt>
      <trkpt lat="23.969784" lon="121.579359"></trkpt>
      <trkpt lat="23.969433" lon="121.579109"></trkpt>
      <trkpt lat="23.969009" lon="121.578805"></trkpt>
      <trkpt lat="23.968955" lon="121.578778"></trkpt>
      <trkpt lat="23.968703" lon="121.578586"></trkpt>
      <trkpt lat="23.968561" lon="121.578481"></trkpt>
      <trkpt lat="23.967790" lon="121.577881"></trkpt>
      <trkpt lat="23.967673" lon="121.577811"></trkpt>
      <trkpt lat="23.967497" lon="121.577744"></trkpt>
      <trkpt lat="23.967367" lon="121.577705"></trkpt>
      <trkpt lat="23.967162" lon="121.577576"></trkpt>
      <trkpt lat="23.966885" lon="121.577415"></trkpt>
      <trkpt lat="23.966228" lon="121.576777"></trkpt>
      <trkpt lat="23.965865" lon="121.576348"></trkpt>
      <trkpt lat="23.965526" lon="121.575863"></trkpt>
      <trkpt lat="23.965371" lon="121.575724"></trkpt>
      <trkpt lat="23.963947" lon="121.574525"></trkpt>
      <trkpt lat="23.963820" lon="121.574390"></trkpt>
      <trkpt lat="23.963683" lon="121.574242"></trkpt>
      <trkpt lat="23.963537" lon="121.574013"></trkpt>
      <trkpt lat="23.963311" lon="121.573669"></trkpt>
      <trkpt lat="23.963034" lon="121.573262"></trkpt>
      <trkpt lat="23.962936" lon="121.572337"></trkpt>
      <trkpt lat="23.962492" lon="121.572056"></trkpt>
      <trkpt lat="23.962002" lon="121.571736"></trkpt>
      <trkpt lat="23.961262" lon="121.571277"></trkpt>
      <trkpt lat="23.960792" lon="121.570981"></trkpt>
      <trkpt lat="23.960212" lon="121.570593"></trkpt>
      <trkpt lat="23.959239" lon="121.569993"></trkpt>
      <trkpt lat="23.958953" lon="121.569577"></trkpt>
      <trkpt lat="23.958656" lon="121.569179"></trkpt>
      <trkpt lat="23.957358" lon="121.567264"></trkpt>
      <trkpt lat="23.956037" lon="121.565350"></trkpt>
      <trkpt lat="23.954726" lon="121.563484"></trkpt>
      <trkpt lat="23.954714" lon="121.563551"></trkpt>
      <trkpt lat="23.954635" lon="121.563702"></trkpt>
      <trkpt lat="23.953166" lon="121.561570"></trkpt>
      <trkpt lat="23.951994" lon="121.559824"></trkpt>
      <trkpt lat="23.950360" lon="121.557389"></trkpt>
      <trkpt lat="23.949178" lon="121.555659"></trkpt>
      <trkpt lat="23.948322" lon="121.554406"></trkpt>
      <trkpt lat="23.946982" lon="121.552445"></trkpt>
      <trkpt lat="23.946853" lon="121.552263"></trkpt>
      <trkpt lat="23.946268" lon="121.551414"></trkpt>
      <trkpt lat="23.944193" lon="121.548402"></trkpt>
      <trkpt lat="23.943842" lon="121.547944"></trkpt>
      <trkpt lat="23.943736" lon="121.547806"></trkpt>
      <trkpt lat="23.943348" lon="121.547233"></trkpt>
      <trkpt lat="23.942729" lon="121.546492"></trkpt>
      <trkpt lat="23.942102" lon="121.545808"></trkpt>
      <trkpt lat="23.941859" lon="121.545514"></trkpt>
      <trkpt lat="23.941627" lon="121.545289"></trkpt>
      <trkpt lat="23.941320" lon="121.544923"></trkpt>
      <trkpt lat="23.940574" lon="121.544073"></trkpt>
      <trkpt lat="23.939951" lon="121.543371"></trkpt>
      <trkpt lat="23.939149" lon="121.542481"></trkpt>
      <trkpt lat="23.939015" lon="121.542308"></trkpt>
      <trkpt lat="23.938542" lon="121.541794"></trkpt>
      <trkpt lat="23.938408" lon="121.541646"></trkpt>
      <trkpt lat="23.938268" lon="121.541542"></trkpt>
      <trkpt lat="23.938108" lon="121.541456"></trkpt>
      <trkpt lat="23.937539" lon="121.541200"></trkpt>
      <trkpt lat="23.937026" lon="121.540969"></trkpt>
      <trkpt lat="23.936268" lon="121.540634"></trkpt>
      <trkpt lat="23.935488" lon="121.540319"></trkpt>
      <trkpt lat="23.933766" lon="121.539534"></trkpt>
      <trkpt lat="23.933159" lon="121.539275"></trkpt>
      <trkpt lat="23.931847" lon="121.538701"></trkpt>
      <trkpt lat="23.928267" lon="121.537122"></trkpt>
      <trkpt lat="23.926653" lon="121.536426"></trkpt>
      <trkpt lat="23.926272" lon="121.536254"></trkpt>
      <trkpt lat="23.926482" lon="121.535720"></trkpt>
      <trkpt lat="23.926734" lon="121.535160"></trkpt>
      <trkpt lat="23.926770" lon="121.535106"></trkpt>
      <trkpt lat="23.926844" lon="121.535081"></trkpt>
      <trkpt lat="23.926578" lon="121.534917"></trkpt>
      <trkpt lat="23.926179" lon="121.534661"></trkpt>
      <trkpt lat="23.925613" lon="121.534377"></trkpt>
      <trkpt lat="23.924997" lon="121.534098"></trkpt>
      <trkpt lat="23.923934" lon="121.533530"></trkpt>
      <trkpt lat="23.923583" lon="121.533337"></trkpt>
      <trkpt lat="23.923050" lon="121.533167"></trkpt>
      <trkpt lat="23.922109" lon="121.532888"></trkpt>
      <trkpt lat="23.921741" lon="121.532793"></trkpt>
      <trkpt lat="23.921409" lon="121.532737"></trkpt>
      <trkpt lat="23.920985" lon="121.532686"></trkpt>
      <trkpt lat="23.920777" lon="121.532633"></trkpt>
      <trkpt lat="23.919995" lon="121.532344"></trkpt>
      <trkpt lat="23.919664" lon="121.532222"></trkpt>
      <trkpt lat="23.919030" lon="121.532002"></trkpt>
      <trkpt lat="23.918645" lon="121.531817"></trkpt>
      <trkpt lat="23.918423" lon="121.531670"></trkpt>
      <trkpt lat="23.918208" lon="121.531565"></trkpt>
      <trkpt lat="23.917649" lon="121.531367"></trkpt>
      <trkpt lat="23.915832" lon="121.530672"></trkpt>
      <trkpt lat="23.914206" lon="121.530032"></trkpt>
      <trkpt lat="23.914167" lon="121.530016"></trkpt>
      <trkpt lat="23.913122" lon="121.529582"></trkpt>
      <trkpt lat="23.912425" lon="121.529329"></trkpt>
      <trkpt lat="23.909610" lon="121.528218"></trkpt>
      <trkpt lat="23.907790" lon="121.527514"></trkpt>
      <trkpt lat="23.906111" lon="121.526863"></trkpt>
      <trkpt lat="23.905692" lon="121.526693"></trkpt>
      <trkpt lat="23.904392" lon="121.526185"></trkpt>
      <trkpt lat="23.903653" lon="121.525890"></trkpt>
      <trkpt lat="23.901790" lon="121.525167"></trkpt>
      <trkpt lat="23.901026" lon="121.524862"></trkpt>
      <trkpt lat="23.900930" lon="121.524824"></trkpt>
      <trkpt lat="23.900037" lon="121.524487"></trkpt>
      <trkpt lat="23.899897" lon="121.524421"></trkpt>
      <trkpt lat="23.897451" lon="121.523471"></trkpt>
      <trkpt lat="23.894912" lon="121.522503"></trkpt>
      <trkpt lat="23.894794" lon="121.522452"></trkpt>
      <trkpt lat="23.893854" lon="121.522058"></trkpt>
      <trkpt lat="23.893342" lon="121.521859"></trkpt>
      <trkpt lat="23.892882" lon="121.521679"></trkpt>
      <trkpt lat="23.892841" lon="121.521667"></trkpt>
      <trkpt lat="23.890082" lon="121.520575"></trkpt>
      <trkpt lat="23.889574" lon="121.521371"></trkpt>
      <trkpt lat="23.889386" lon="121.521599"></trkpt>
      <trkpt lat="23.889093" lon="121.521798"></trkpt>
      <trkpt lat="23.888767" lon="121.521976"></trkpt>
      <trkpt lat="23.888692" lon="121.521967"></trkpt>
      <trkpt lat="23.888618" lon="121.521998"></trkpt>
      <trkpt lat="23.888377" lon="121.522054"></trkpt>
      <trkpt lat="23.888230" lon="121.522064"></trkpt>
      <trkpt lat="23.888058" lon="121.522075"></trkpt>
      <trkpt lat="23.887781" lon="121.522059"></trkpt>
      <trkpt lat="23.887608" lon="121.522021"></trkpt>
      <trkpt lat="23.887394" lon="121.521951"></trkpt>
      <trkpt lat="23.886483" lon="121.521639"></trkpt>
      <trkpt lat="23.886151" lon="121.521504"></trkpt>
      <trkpt lat="23.885440" lon="121.521259"></trkpt>
      <trkpt lat="23.885111" lon="121.521132"></trkpt>
      <trkpt lat="23.884455" lon="121.520915"></trkpt>
      <trkpt lat="23.884369" lon="121.520866"></trkpt>
      <trkpt lat="23.884312" lon="121.520848"></trkpt>
      <trkpt lat="23.884173" lon="121.520806"></trkpt>
      <trkpt lat="23.884059" lon="121.521085"></trkpt>
      <trkpt lat="23.884047" lon="121.521360"></trkpt>
      <trkpt lat="23.883981" lon="121.521625"></trkpt>
      <trkpt lat="23.883798" lon="121.521968"></trkpt>
      <trkpt lat="23.883614" lon="121.522276"></trkpt>
      <trkpt lat="23.883457" lon="121.522175"></trkpt>
      <trkpt lat="23.883372" lon="121.522105"></trkpt>
      <trkpt lat="23.883185" lon="121.521973"></trkpt>
      <trkpt lat="23.882710" lon="121.521636"></trkpt>
      <trkpt lat="23.882132" lon="121.521248"></trkpt>
      <trkpt lat="23.881291" lon="121.520635"></trkpt>
      <trkpt lat="23.881178" lon="121.520480"></trkpt>
      <trkpt lat="23.880824" lon="121.520132"></trkpt>
      <trkpt lat="23.880696" lon="121.520058"></trkpt>
      <trkpt lat="23.880531" lon="121.520030"></trkpt>
      <trkpt lat="23.880280" lon="121.520017"></trkpt>
      <trkpt lat="23.879747" lon="121.519595"></trkpt>
      <trkpt lat="23.879068" lon="121.519123"></trkpt>
      <trkpt lat="23.878956" lon="121.519045"></trkpt>
      <trkpt lat="23.877990" lon="121.518412"></trkpt>
      <trkpt lat="23.877034" lon="121.517716"></trkpt>
      <trkpt lat="23.876957" lon="121.517658"></trkpt>
      <trkpt lat="23.876460" lon="121.517306"></trkpt>
      <trkpt lat="23.876140" lon="121.517056"></trkpt>
      <trkpt lat="23.875835" lon="121.516718"></trkpt>
      <trkpt lat="23.875847" lon="121.516432"></trkpt>
      <trkpt lat="23.875839" lon="121.516230"></trkpt>
      <trkpt lat="23.875879" lon="121.516023"></trkpt>
      <trkpt lat="23.876007" lon="121.515649"></trkpt>
      <trkpt lat="23.876039" lon="121.515394"></trkpt>
      <trkpt lat="23.875995" lon="121.515332"></trkpt>
      <trkpt lat="23.875954" lon="121.515149"></trkpt>
      <trkpt lat="23.875882" lon="121.515013"></trkpt>
      <trkpt lat="23.875795" lon="121.514889"></trkpt>
      <trkpt lat="23.875687" lon="121.514790"></trkpt>
      <trkpt lat="23.875274" lon="121.514514"></trkpt>
      <trkpt lat="23.874710" lon="121.514125"></trkpt>
      <trkpt lat="23.873894" lon="121.513500"></trkpt>
      <trkpt lat="23.873623" lon="121.513297"></trkpt>
      <trkpt lat="23.873288" lon="121.513049"></trkpt>
      <trkpt lat="23.872698" lon="121.512626"></trkpt>
      <trkpt lat="23.872232" lon="121.512297"></trkpt>
      <trkpt lat="23.871744" lon="121.511948"></trkpt>
      <trkpt lat="23.871630" lon="121.511866"></trkpt>
      <trkpt lat="23.871602" lon="121.511844"></trkpt>
      <trkpt lat="23.871085" lon="121.511471"></trkpt>
      <trkpt lat="23.870167" lon="121.510835"></trkpt>
      <trkpt lat="23.870304" lon="121.510603"></trkpt>
      <trkpt lat="23.870167" lon="121.510835"></trkpt>
      <trkpt lat="23.871085" lon="121.511471"></trkpt>
      <trkpt lat="23.870801" lon="121.511915"></trkpt>
      <trkpt lat="23.870786" lon="121.511938"></trkpt>
      <trkpt lat="23.870645" lon="121.512181"></trkpt>
      <trkpt lat="23.870274" lon="121.512779"></trkpt>
      <trkpt lat="23.870233" lon="121.512847"></trkpt>
      <trkpt lat="23.870125" lon="121.513041"></trkpt>
      <trkpt lat="23.870027" lon="121.513115"></trkpt>
      <trkpt lat="23.869950" lon="121.513117"></trkpt>
      <trkpt lat="23.869764" lon="121.513120"></trkpt>
      <trkpt lat="23.869733" lon="121.513124"></trkpt>
      <trkpt lat="23.869498" lon="121.513151"></trkpt>
      <trkpt lat="23.869447" lon="121.513162"></trkpt>
      <trkpt lat="23.869094" lon="121.512894"></trkpt>
      <trkpt lat="23.868247" lon="121.512299"></trkpt>
      <trkpt lat="23.868206" lon="121.512270"></trkpt>
      <trkpt lat="23.867888" lon="121.512030"></trkpt>
      <trkpt lat="23.867703" lon="121.511889"></trkpt>
      <trkpt lat="23.867558" lon="121.511786"></trkpt>
      <trkpt lat="23.866963" lon="121.511368"></trkpt>
      <trkpt lat="23.866799" lon="121.511247"></trkpt>
      <trkpt lat="23.866593" lon="121.511101"></trkpt>
      <trkpt lat="23.866497" lon="121.511048"></trkpt>
      <trkpt lat="23.866220" lon="121.511023"></trkpt>
      <trkpt lat="23.866032" lon="121.510994"></trkpt>
      <trkpt lat="23.865872" lon="121.510936"></trkpt>
      <trkpt lat="23.865636" lon="121.510848"></trkpt>
      <trkpt lat="23.865138" lon="121.510659"></trkpt>
      <trkpt lat="23.864638" lon="121.510365"></trkpt>
      <trkpt lat="23.863728" lon="121.509720"></trkpt>
      <trkpt lat="23.863509" lon="121.509615"></trkpt>
      <trkpt lat="23.863372" lon="121.509564"></trkpt>
      <trkpt lat="23.862301" lon="121.508825"></trkpt>
      <trkpt lat="23.860671" lon="121.507625"></trkpt>
      <trkpt lat="23.858616" lon="121.506109"></trkpt>
      <trkpt lat="23.857049" lon="121.505146"></trkpt>
      <trkpt lat="23.853842" lon="121.503237"></trkpt>
      <trkpt lat="23.854314" lon="121.502464"></trkpt>
      <trkpt lat="23.854653" lon="121.501931"></trkpt>
      <trkpt lat="23.851281" lon="121.499509"></trkpt>
      <trkpt lat="23.849859" lon="121.498485"></trkpt>
      <trkpt lat="23.849590" lon="121.498294"></trkpt>
      <trkpt lat="23.847882" lon="121.497081"></trkpt>
      <trkpt lat="23.847017" lon="121.496429"></trkpt>
      <trkpt lat="23.846136" lon="121.495846"></trkpt>
      <trkpt lat="23.845666" lon="121.495473"></trkpt>
      <trkpt lat="23.844428" lon="121.494686"></trkpt>
      <trkpt lat="23.842836" lon="121.493387"></trkpt>
      <trkpt lat="23.839415" lon="121.490966"></trkpt>
      <trkpt lat="23.838796" lon="121.490498"></trkpt>
      <trkpt lat="23.838703" lon="121.490450"></trkpt>
      <trkpt lat="23.838637" lon="121.490422"></trkpt>
      <trkpt lat="23.838477" lon="121.490340"></trkpt>
      <trkpt lat="23.838159" lon="121.490086"></trkpt>
      <trkpt lat="23.837844" lon="121.489833"></trkpt>
      <trkpt lat="23.837760" lon="121.489762"></trkpt>
      <trkpt lat="23.837121" lon="121.489293"></trkpt>
      <trkpt lat="23.836998" lon="121.489200"></trkpt>
      <trkpt lat="23.836836" lon="121.489110"></trkpt>
      <trkpt lat="23.836774" lon="121.488908"></trkpt>
      <trkpt lat="23.836719" lon="121.488791"></trkpt>
      <trkpt lat="23.836387" lon="121.488536"></trkpt>
      <trkpt lat="23.835972" lon="121.488200"></trkpt>
      <trkpt lat="23.835685" lon="121.488090"></trkpt>
      <trkpt lat="23.835545" lon="121.488036"></trkpt>
      <trkpt lat="23.835470" lon="121.488021"></trkpt>
      <trkpt lat="23.835387" lon="121.488012"></trkpt>
      <trkpt lat="23.835757" lon="121.487164"></trkpt>
      <trkpt lat="23.835750" lon="121.487085"></trkpt>
      <trkpt lat="23.833349" lon="121.485309"></trkpt>
      <trkpt lat="23.832037" lon="121.484411"></trkpt>
      <trkpt lat="23.831734" lon="121.484667"></trkpt>
      <trkpt lat="23.831268" lon="121.485013"></trkpt>
      <trkpt lat="23.831232" lon="121.484947"></trkpt>
      <trkpt lat="23.829194" lon="121.483573"></trkpt>
      <trkpt lat="23.828206" lon="121.482871"></trkpt>
      <trkpt lat="23.828097" lon="121.482781"></trkpt>
      <trkpt lat="23.827994" lon="121.482696"></trkpt>
      <trkpt lat="23.827731" lon="121.482584"></trkpt>
      <trkpt lat="23.827644" lon="121.482521"></trkpt>
      <trkpt lat="23.827553" lon="121.482437"></trkpt>
      <trkpt lat="23.827438" lon="121.482335"></trkpt>
      <trkpt lat="23.827313" lon="121.482189"></trkpt>
      <trkpt lat="23.826825" lon="121.481756"></trkpt>
      <trkpt lat="23.825122" lon="121.480570"></trkpt>
      <trkpt lat="23.824594" lon="121.480196"></trkpt>
      <trkpt lat="23.823970" lon="121.479742"></trkpt>
      <trkpt lat="23.823537" lon="121.479441"></trkpt>
      <trkpt lat="23.823455" lon="121.479376"></trkpt>
      <trkpt lat="23.823076" lon="121.479096"></trkpt>
      <trkpt lat="23.822038" lon="121.478341"></trkpt>
      <trkpt lat="23.821487" lon="121.477928"></trkpt>
      <trkpt lat="23.820696" lon="121.477349"></trkpt>
      <trkpt lat="23.820552" lon="121.477244"></trkpt>
      <trkpt lat="23.819739" lon="121.476633"></trkpt>
      <trkpt lat="23.819566" lon="121.476484"></trkpt>
      <trkpt lat="23.819487" lon="121.476409"></trkpt>
      <trkpt lat="23.819389" lon="121.476316"></trkpt>
      <trkpt lat="23.819214" lon="121.476244"></trkpt>
      <trkpt lat="23.819157" lon="121.476227"></trkpt>
      <trkpt lat="23.819072" lon="121.476190"></trkpt>
      <trkpt lat="23.818945" lon="121.476124"></trkpt>
      <trkpt lat="23.818285" lon="121.475773"></trkpt>
      <trkpt lat="23.817197" lon="121.475200"></trkpt>
      <trkpt lat="23.816696" lon="121.474948"></trkpt>
      <trkpt lat="23.816487" lon="121.474840"></trkpt>
      <trkpt lat="23.816367" lon="121.474732"></trkpt>
      <trkpt lat="23.816012" lon="121.474329"></trkpt>
      <trkpt lat="23.815406" lon="121.473620"></trkpt>
      <trkpt lat="23.815327" lon="121.473549"></trkpt>
      <trkpt lat="23.814850" lon="121.473244"></trkpt>
      <trkpt lat="23.814542" lon="121.472989"></trkpt>
      <trkpt lat="23.814487" lon="121.472674"></trkpt>
      <trkpt lat="23.814501" lon="121.472525"></trkpt>
      <trkpt lat="23.814521" lon="121.472258"></trkpt>
      <trkpt lat="23.814519" lon="121.472182"></trkpt>
      <trkpt lat="23.814515" lon="121.471906"></trkpt>
      <trkpt lat="23.814532" lon="121.471441"></trkpt>
      <trkpt lat="23.814550" lon="121.471287"></trkpt>
      <trkpt lat="23.814578" lon="121.471170"></trkpt>
      <trkpt lat="23.814635" lon="121.471036"></trkpt>
      <trkpt lat="23.814716" lon="121.470925"></trkpt>
      <trkpt lat="23.814892" lon="121.470748"></trkpt>
      <trkpt lat="23.814949" lon="121.470650"></trkpt>
      <trkpt lat="23.814951" lon="121.470592"></trkpt>
      <trkpt lat="23.814870" lon="121.470441"></trkpt>
      <trkpt lat="23.814852" lon="121.470359"></trkpt>
      <trkpt lat="23.814918" lon="121.470329"></trkpt>
      <trkpt lat="23.814956" lon="121.470305"></trkpt>
      <trkpt lat="23.815081" lon="121.470223"></trkpt>
      <trkpt lat="23.815174" lon="121.470162"></trkpt>
      <trkpt lat="23.814790" lon="121.469569"></trkpt>
      <trkpt lat="23.814411" lon="121.468922"></trkpt>
      <trkpt lat="23.814192" lon="121.468537"></trkpt>
      <trkpt lat="23.813936" lon="121.468149"></trkpt>
      <trkpt lat="23.813595" lon="121.467642"></trkpt>
      <trkpt lat="23.813296" lon="121.467206"></trkpt>
      <trkpt lat="23.813030" lon="121.466912"></trkpt>
      <trkpt lat="23.812705" lon="121.466595"></trkpt>
      <trkpt lat="23.812492" lon="121.466407"></trkpt>
      <trkpt lat="23.812295" lon="121.466254"></trkpt>
      <trkpt lat="23.811885" lon="121.465955"></trkpt>
      <trkpt lat="23.811629" lon="121.465806"></trkpt>
      <trkpt lat="23.811279" lon="121.465615"></trkpt>
      <trkpt lat="23.804677" lon="121.462110"></trkpt>
      <trkpt lat="23.803996" lon="121.461731"></trkpt>
      <trkpt lat="23.803700" lon="121.461580"></trkpt>
      <trkpt lat="23.802864" lon="121.461226"></trkpt>
      <trkpt lat="23.802320" lon="121.461096"></trkpt>
      <trkpt lat="23.801863" lon="121.461078"></trkpt>
      <trkpt lat="23.801361" lon="121.461114"></trkpt>
      <trkpt lat="23.800649" lon="121.461248"></trkpt>
      <trkpt lat="23.800433" lon="121.461294"></trkpt>
      <trkpt lat="23.797389" lon="121.461944"></trkpt>
      <trkpt lat="23.795764" lon="121.458837"></trkpt>
      <trkpt lat="23.795746" lon="121.458809"></trkpt>
      <trkpt lat="23.795712" lon="121.458775"></trkpt>
      <trkpt lat="23.794962" lon="121.457287"></trkpt>
      <trkpt lat="23.793841" lon="121.455189"></trkpt>
      <trkpt lat="23.793004" lon="121.453615"></trkpt>
      <trkpt lat="23.790469" lon="121.455232"></trkpt>
      <trkpt lat="23.789841" lon="121.455632"></trkpt>
      <trkpt lat="23.789702" lon="121.455718"></trkpt>
      <trkpt lat="23.789643" lon="121.455710"></trkpt>
      <trkpt lat="23.789583" lon="121.455653"></trkpt>
      <trkpt lat="23.789551" lon="121.455503"></trkpt>
      <trkpt lat="23.789472" lon="121.455426"></trkpt>
      <trkpt lat="23.789200" lon="121.455225"></trkpt>
      <trkpt lat="23.789151" lon="121.455189"></trkpt>
      <trkpt lat="23.788813" lon="121.454979"></trkpt>
      <trkpt lat="23.788415" lon="121.454609"></trkpt>
      <trkpt lat="23.788312" lon="121.454550"></trkpt>
      <trkpt lat="23.786983" lon="121.454383"></trkpt>
      <trkpt lat="23.785664" lon="121.454217"></trkpt>
      <trkpt lat="23.783033" lon="121.453877"></trkpt>
      <trkpt lat="23.782943" lon="121.453913"></trkpt>
      <trkpt lat="23.782733" lon="121.454164"></trkpt>
      <trkpt lat="23.782309" lon="121.454731"></trkpt>
      <trkpt lat="23.782076" lon="121.455048"></trkpt>
      <trkpt lat="23.781607" lon="121.455666"></trkpt>
      <trkpt lat="23.781302" lon="121.455620"></trkpt>
      <trkpt lat="23.778938" lon="121.455268"></trkpt>
      <trkpt lat="23.775621" lon="121.454822"></trkpt>
      <trkpt lat="23.771925" lon="121.454308"></trkpt>
      <trkpt lat="23.771528" lon="121.454252"></trkpt>
      <trkpt lat="23.770300" lon="121.454084"></trkpt>
      <trkpt lat="23.768613" lon="121.453967"></trkpt>
      <trkpt lat="23.768578" lon="121.453965"></trkpt>
      <trkpt lat="23.766909" lon="121.453848"></trkpt>
      <trkpt lat="23.765061" lon="121.453737"></trkpt>
      <trkpt lat="23.763868" lon="121.453649"></trkpt>
      <trkpt lat="23.763240" lon="121.453624"></trkpt>
      <trkpt lat="23.762704" lon="121.453590"></trkpt>
      <trkpt lat="23.762243" lon="121.453576"></trkpt>
      <trkpt lat="23.762155" lon="121.453568"></trkpt>
      <trkpt lat="23.761126" lon="121.453481"></trkpt>
      <trkpt lat="23.761001" lon="121.453463"></trkpt>
      <trkpt lat="23.760881" lon="121.453411"></trkpt>
      <trkpt lat="23.760827" lon="121.453366"></trkpt>
      <trkpt lat="23.760713" lon="121.453188"></trkpt>
      <trkpt lat="23.760598" lon="121.453031"></trkpt>
      <trkpt lat="23.760522" lon="121.452946"></trkpt>
      <trkpt lat="23.760409" lon="121.452878"></trkpt>
      <trkpt lat="23.760208" lon="121.452785"></trkpt>
      <trkpt lat="23.760018" lon="121.452697"></trkpt>
      <trkpt lat="23.759531" lon="121.452481"></trkpt>
      <trkpt lat="23.757990" lon="121.451824"></trkpt>
      <trkpt lat="23.757864" lon="121.451740"></trkpt>
      <trkpt lat="23.757757" lon="121.451668"></trkpt>
      <trkpt lat="23.757625" lon="121.451554"></trkpt>
      <trkpt lat="23.757451" lon="121.451350"></trkpt>
      <trkpt lat="23.757303" lon="121.451130"></trkpt>
      <trkpt lat="23.756826" lon="121.450395"></trkpt>
      <trkpt lat="23.756326" lon="121.449599"></trkpt>
      <trkpt lat="23.755980" lon="121.449017"></trkpt>
      <trkpt lat="23.755772" lon="121.448560"></trkpt>
      <trkpt lat="23.755705" lon="121.448424"></trkpt>
      <trkpt lat="23.754918" lon="121.448211"></trkpt>
      <trkpt lat="23.754829" lon="121.448190"></trkpt>
      <trkpt lat="23.754766" lon="121.448190"></trkpt>
      <trkpt lat="23.754699" lon="121.448202"></trkpt>
      <trkpt lat="23.754650" lon="121.448242"></trkpt>
      <trkpt lat="23.754488" lon="121.448651"></trkpt>
      <trkpt lat="23.753784" lon="121.450424"></trkpt>
      <trkpt lat="23.753758" lon="121.450493"></trkpt>
      <trkpt lat="23.753741" lon="121.450540"></trkpt>
      <trkpt lat="23.753316" lon="121.451673"></trkpt>
      <trkpt lat="23.752945" lon="121.451506"></trkpt>
      <trkpt lat="23.752208" lon="121.451211"></trkpt>
      <trkpt lat="23.751539" lon="121.450922"></trkpt>
      <trkpt lat="23.750800" lon="121.450624"></trkpt>
      <trkpt lat="23.749417" lon="121.450049"></trkpt>
      <trkpt lat="23.748801" lon="121.449785"></trkpt>
      <trkpt lat="23.748505" lon="121.449675"></trkpt>
      <trkpt lat="23.747800" lon="121.449358"></trkpt>
      <trkpt lat="23.747398" lon="121.449189"></trkpt>
      <trkpt lat="23.746808" lon="121.448940"></trkpt>
      <trkpt lat="23.746262" lon="121.448713"></trkpt>
      <trkpt lat="23.746137" lon="121.448662"></trkpt>
      <trkpt lat="23.745995" lon="121.448592"></trkpt>
      <trkpt lat="23.745800" lon="121.448497"></trkpt>
      <trkpt lat="23.744788" lon="121.448081"></trkpt>
      <trkpt lat="23.743790" lon="121.447686"></trkpt>
      <trkpt lat="23.742856" lon="121.447288"></trkpt>
      <trkpt lat="23.742778" lon="121.447255"></trkpt>
      <trkpt lat="23.742024" lon="121.446929"></trkpt>
      <trkpt lat="23.741994" lon="121.446916"></trkpt>
      <trkpt lat="23.741463" lon="121.446692"></trkpt>
      <trkpt lat="23.740870" lon="121.446442"></trkpt>
      <trkpt lat="23.739535" lon="121.445879"></trkpt>
      <trkpt lat="23.739359" lon="121.445767"></trkpt>
      <trkpt lat="23.739071" lon="121.445636"></trkpt>
      <trkpt lat="23.738756" lon="121.445500"></trkpt>
      <trkpt lat="23.738004" lon="121.445183"></trkpt>
      <trkpt lat="23.737862" lon="121.445123"></trkpt>
      <trkpt lat="23.736243" lon="121.444446"></trkpt>
      <trkpt lat="23.735503" lon="121.444133"></trkpt>
      <trkpt lat="23.734879" lon="121.443876"></trkpt>
      <trkpt lat="23.732991" lon="121.443102"></trkpt>
      <trkpt lat="23.731898" lon="121.442656"></trkpt>
      <trkpt lat="23.731658" lon="121.442558"></trkpt>
      <trkpt lat="23.731555" lon="121.442517"></trkpt>
      <trkpt lat="23.731196" lon="121.442368"></trkpt>
      <trkpt lat="23.730993" lon="121.442271"></trkpt>
      <trkpt lat="23.730645" lon="121.442081"></trkpt>
      <trkpt lat="23.730181" lon="121.441635"></trkpt>
      <trkpt lat="23.729588" lon="121.441025"></trkpt>
      <trkpt lat="23.728601" lon="121.440050"></trkpt>
      <trkpt lat="23.728200" lon="121.439673"></trkpt>
      <trkpt lat="23.727680" lon="121.439166"></trkpt>
      <trkpt lat="23.727546" lon="121.439036"></trkpt>
      <trkpt lat="23.727235" lon="121.438688"></trkpt>
      <trkpt lat="23.726684" lon="121.438121"></trkpt>
      <trkpt lat="23.726190" lon="121.437613"></trkpt>
      <trkpt lat="23.726043" lon="121.437476"></trkpt>
      <trkpt lat="23.725815" lon="121.437242"></trkpt>
      <trkpt lat="23.725486" lon="121.436875"></trkpt>
      <trkpt lat="23.725243" lon="121.436556"></trkpt>
      <trkpt lat="23.725092" lon="121.436299"></trkpt>
      <trkpt lat="23.724924" lon="121.435958"></trkpt>
      <trkpt lat="23.724789" lon="121.435694"></trkpt>
      <trkpt lat="23.724635" lon="121.435262"></trkpt>
      <trkpt lat="23.724347" lon="121.434477"></trkpt>
      <trkpt lat="23.724283" lon="121.434280"></trkpt>
      <trkpt lat="23.723844" lon="121.432944"></trkpt>
      <trkpt lat="23.723724" lon="121.432592"></trkpt>
      <trkpt lat="23.723661" lon="121.432453"></trkpt>
      <trkpt lat="23.723220" lon="121.431202"></trkpt>
      <trkpt lat="23.723101" lon="121.430878"></trkpt>
      <trkpt lat="23.723036" lon="121.430684"></trkpt>
      <trkpt lat="23.722848" lon="121.430117"></trkpt>
      <trkpt lat="23.722788" lon="121.429922"></trkpt>
      <trkpt lat="23.722680" lon="121.429610"></trkpt>
      <trkpt lat="23.722508" lon="121.429267"></trkpt>
      <trkpt lat="23.722450" lon="121.429160"></trkpt>
      <trkpt lat="23.722358" lon="121.428988"></trkpt>
      <trkpt lat="23.722251" lon="121.428838"></trkpt>
      <trkpt lat="23.721993" lon="121.428559"></trkpt>
      <trkpt lat="23.721070" lon="121.427701"></trkpt>
      <trkpt lat="23.718767" lon="121.425576"></trkpt>
      <trkpt lat="23.718140" lon="121.425016"></trkpt>
      <trkpt lat="23.717899" lon="121.424782"></trkpt>
      <trkpt lat="23.717299" lon="121.424235"></trkpt>
      <trkpt lat="23.716993" lon="121.423967"></trkpt>
      <trkpt lat="23.716294" lon="121.423436"></trkpt>
      <trkpt lat="23.715814" lon="121.423192"></trkpt>
      <trkpt lat="23.715651" lon="121.423099"></trkpt>
      <trkpt lat="23.714763" lon="121.422452"></trkpt>
      <trkpt lat="23.714168" lon="121.421871"></trkpt>
      <trkpt lat="23.713671" lon="121.421474"></trkpt>
      <trkpt lat="23.713189" lon="121.421068"></trkpt>
      <trkpt lat="23.712232" lon="121.420302"></trkpt>
      <trkpt lat="23.711767" lon="121.419929"></trkpt>
      <trkpt lat="23.711654" lon="121.419851"></trkpt>
      <trkpt lat="23.711505" lon="121.419764"></trkpt>
      <trkpt lat="23.711211" lon="121.419674"></trkpt>
      <trkpt lat="23.710710" lon="121.419631"></trkpt>
      <trkpt lat="23.710588" lon="121.419620"></trkpt>
      <trkpt lat="23.710103" lon="121.419502"></trkpt>
      <trkpt lat="23.709946" lon="121.419489"></trkpt>
      <trkpt lat="23.709321" lon="121.419370"></trkpt>
      <trkpt lat="23.708413" lon="121.419214"></trkpt>
      <trkpt lat="23.707724" lon="121.419097"></trkpt>
      <trkpt lat="23.707311" lon="121.418962"></trkpt>
      <trkpt lat="23.707098" lon="121.418864"></trkpt>
      <trkpt lat="23.706885" lon="121.418721"></trkpt>
      <trkpt lat="23.706779" lon="121.418409"></trkpt>
      <trkpt lat="23.706715" lon="121.418195"></trkpt>
      <trkpt lat="23.706651" lon="121.418002"></trkpt>
      <trkpt lat="23.706329" lon="121.416607"></trkpt>
      <trkpt lat="23.706243" lon="121.416306"></trkpt>
      <trkpt lat="23.706127" lon="121.416038"></trkpt>
      <trkpt lat="23.705998" lon="121.415802"></trkpt>
      <trkpt lat="23.705830" lon="121.415604"></trkpt>
      <trkpt lat="23.705617" lon="121.415424"></trkpt>
      <trkpt lat="23.705365" lon="121.415167"></trkpt>
      <trkpt lat="23.705099" lon="121.414957"></trkpt>
      <trkpt lat="23.704927" lon="121.414821"></trkpt>
      <trkpt lat="23.704621" lon="121.414609"></trkpt>
      <trkpt lat="23.704040" lon="121.414232"></trkpt>
      <trkpt lat="23.703509" lon="121.413898"></trkpt>
      <trkpt lat="23.702844" lon="121.413482"></trkpt>
      <trkpt lat="23.702287" lon="121.413098"></trkpt>
      <trkpt lat="23.700930" lon="121.412228"></trkpt>
      <trkpt lat="23.699584" lon="121.411342"></trkpt>
      <trkpt lat="23.699172" lon="121.411068"></trkpt>
      <trkpt lat="23.698158" lon="121.410434"></trkpt>
      <trkpt lat="23.697724" lon="121.410102"></trkpt>
      <trkpt lat="23.697629" lon="121.410041"></trkpt>
      <trkpt lat="23.697367" lon="121.409855"></trkpt>
      <trkpt lat="23.696980" lon="121.409594"></trkpt>
      <trkpt lat="23.696300" lon="121.409208"></trkpt>
      <trkpt lat="23.695891" lon="121.408990"></trkpt>
      <trkpt lat="23.695153" lon="121.408731"></trkpt>
      <trkpt lat="23.694793" lon="121.408664"></trkpt>
      <trkpt lat="23.694588" lon="121.408648"></trkpt>
      <trkpt lat="23.694159" lon="121.408624"></trkpt>
      <trkpt lat="23.693463" lon="121.408665"></trkpt>
      <trkpt lat="23.692368" lon="121.408781"></trkpt>
      <trkpt lat="23.691351" lon="121.408705"></trkpt>
      <trkpt lat="23.690647" lon="121.408698"></trkpt>
      <trkpt lat="23.686726" lon="121.409039"></trkpt>
      <trkpt lat="23.685853" lon="121.409311"></trkpt>
      <trkpt lat="23.685469" lon="121.409374"></trkpt>
      <trkpt lat="23.685009" lon="121.409484"></trkpt>
      <trkpt lat="23.684776" lon="121.409615"></trkpt>
      <trkpt lat="23.684612" lon="121.409764"></trkpt>
      <trkpt lat="23.684415" lon="121.409984"></trkpt>
      <trkpt lat="23.684090" lon="121.410449"></trkpt>
      <trkpt lat="23.683959" lon="121.410669"></trkpt>
      <trkpt lat="23.683915" lon="121.410741"></trkpt>
      <trkpt lat="23.683479" lon="121.411449"></trkpt>
      <trkpt lat="23.683059" lon="121.412037"></trkpt>
      <trkpt lat="23.682924" lon="121.412226"></trkpt>
      <trkpt lat="23.682686" lon="121.412557"></trkpt>
      <trkpt lat="23.682347" lon="121.413029"></trkpt>
      <trkpt lat="23.682192" lon="121.413295"></trkpt>
      <trkpt lat="23.682017" lon="121.413624"></trkpt>
      <trkpt lat="23.681900" lon="121.413890"></trkpt>
      <trkpt lat="23.681820" lon="121.414187"></trkpt>
      <trkpt lat="23.681773" lon="121.414440"></trkpt>
      <trkpt lat="23.681555" lon="121.415576"></trkpt>
      <trkpt lat="23.681431" lon="121.416237"></trkpt>
      <trkpt lat="23.681323" lon="121.416862"></trkpt>
      <trkpt lat="23.681256" lon="121.417098"></trkpt>
      <trkpt lat="23.681175" lon="121.417295"></trkpt>
      <trkpt lat="23.681012" lon="121.417574"></trkpt>
      <trkpt lat="23.680815" lon="121.417825"></trkpt>
      <trkpt lat="23.680609" lon="121.418017"></trkpt>
      <trkpt lat="23.680376" lon="121.418186"></trkpt>
      <trkpt lat="23.679430" lon="121.418807"></trkpt>
      <trkpt lat="23.678539" lon="121.419367"></trkpt>
      <trkpt lat="23.677518" lon="121.420038"></trkpt>
      <trkpt lat="23.676038" lon="121.420940"></trkpt>
      <trkpt lat="23.674556" lon="121.421897"></trkpt>
      <trkpt lat="23.673936" lon="121.422363"></trkpt>
      <trkpt lat="23.672950" lon="121.422998"></trkpt>
      <trkpt lat="23.672711" lon="121.423138"></trkpt>
      <trkpt lat="23.672424" lon="121.423222"></trkpt>
      <trkpt lat="23.672241" lon="121.423233"></trkpt>
      <trkpt lat="23.672096" lon="121.423226"></trkpt>
      <trkpt lat="23.671935" lon="121.423218"></trkpt>
      <trkpt lat="23.671833" lon="121.423208"></trkpt>
      <trkpt lat="23.671651" lon="121.423174"></trkpt>
      <trkpt lat="23.669407" lon="121.422544"></trkpt>
      <trkpt lat="23.669595" lon="121.422101"></trkpt>
      <trkpt lat="23.668622" lon="121.421793"></trkpt>
      <trkpt lat="23.668011" lon="121.421600"></trkpt>
      <trkpt lat="23.667887" lon="121.421578"></trkpt>
      <trkpt lat="23.667801" lon="121.421587"></trkpt>
      <trkpt lat="23.667665" lon="121.421609"></trkpt>
      <trkpt lat="23.667408" lon="121.421671"></trkpt>
      <trkpt lat="23.667308" lon="121.421585"></trkpt>
      <trkpt lat="23.667243" lon="121.421532"></trkpt>
      <trkpt lat="23.666459" lon="121.421313"></trkpt>
      <trkpt lat="23.666264" lon="121.421262"></trkpt>
      <trkpt lat="23.666196" lon="121.421244"></trkpt>
      <trkpt lat="23.666106" lon="121.421631"></trkpt>
      <trkpt lat="23.665660" lon="121.421511"></trkpt>
      <trkpt lat="23.664639" lon="121.421203"></trkpt>
      <trkpt lat="23.663634" lon="121.420923"></trkpt>
      <trkpt lat="23.662803" lon="121.420697"></trkpt>
      <trkpt lat="23.662422" lon="121.420597"></trkpt>
      <trkpt lat="23.662386" lon="121.420680"></trkpt>
      <trkpt lat="23.662282" lon="121.420766"></trkpt>
      <trkpt lat="23.661387" lon="121.421044"></trkpt>
      <trkpt lat="23.661283" lon="121.420900"></trkpt>
      <trkpt lat="23.661204" lon="121.420834"></trkpt>
      <trkpt lat="23.660988" lon="121.420756"></trkpt>
      <trkpt lat="23.660799" lon="121.420775"></trkpt>
      <trkpt lat="23.660778" lon="121.420776"></trkpt>
      <trkpt lat="23.660602" lon="121.420776"></trkpt>
      <trkpt lat="23.660153" lon="121.420769"></trkpt>
      <trkpt lat="23.660124" lon="121.420768"></trkpt>
      <trkpt lat="23.659986" lon="121.420762"></trkpt>
      <trkpt lat="23.659809" lon="121.420702"></trkpt>
      <trkpt lat="23.659328" lon="121.420457"></trkpt>
      <trkpt lat="23.658990" lon="121.420286"></trkpt>
      <trkpt lat="23.658630" lon="121.420099"></trkpt>
      <trkpt lat="23.658564" lon="121.420070"></trkpt>
      <trkpt lat="23.658366" lon="121.419975"></trkpt>
      <trkpt lat="23.658323" lon="121.419955"></trkpt>
      <trkpt lat="23.658102" lon="121.419848"></trkpt>
      <trkpt lat="23.657915" lon="121.419758"></trkpt>
      <trkpt lat="23.657644" lon="121.419626"></trkpt>
      <trkpt lat="23.657128" lon="121.419367"></trkpt>
      <trkpt lat="23.656544" lon="121.419074"></trkpt>
      <trkpt lat="23.656484" lon="121.419056"></trkpt>
      <trkpt lat="23.655356" lon="121.418511"></trkpt>
      <trkpt lat="23.654489" lon="121.418093"></trkpt>
      <trkpt lat="23.654193" lon="121.418773"></trkpt>
      <trkpt lat="23.653808" lon="121.419719"></trkpt>
      <trkpt lat="23.653788" lon="121.419769"></trkpt>
      <trkpt lat="23.653695" lon="121.419725"></trkpt>
      <trkpt lat="23.653507" lon="121.419619"></trkpt>
      <trkpt lat="23.653198" lon="121.419446"></trkpt>
      <trkpt lat="23.653030" lon="121.419381"></trkpt>
      <trkpt lat="23.652947" lon="121.419366"></trkpt>
      <trkpt lat="23.652888" lon="121.419356"></trkpt>
      <trkpt lat="23.652642" lon="121.419338"></trkpt>
      <trkpt lat="23.652226" lon="121.419308"></trkpt>
      <trkpt lat="23.651955" lon="121.419265"></trkpt>
      <trkpt lat="23.651728" lon="121.419199"></trkpt>
      <trkpt lat="23.651320" lon="121.419022"></trkpt>
      <trkpt lat="23.650580" lon="121.418633"></trkpt>
      <trkpt lat="23.650280" lon="121.418518"></trkpt>
      <trkpt lat="23.649831" lon="121.418302"></trkpt>
      <trkpt lat="23.649539" lon="121.418930"></trkpt>
      <trkpt lat="23.649202" lon="121.419589"></trkpt>
      <trkpt lat="23.648409" lon="121.421526"></trkpt>
      <trkpt lat="23.648277" lon="121.421768"></trkpt>
      <trkpt lat="23.647989" lon="121.421603"></trkpt>
      <trkpt lat="23.647930" lon="121.421554"></trkpt>
      <trkpt lat="23.647861" lon="121.421436"></trkpt>
      <trkpt lat="23.647752" lon="121.421318"></trkpt>
      <trkpt lat="23.647629" lon="121.421258"></trkpt>
      <trkpt lat="23.647433" lon="121.421195"></trkpt>
      <trkpt lat="23.647221" lon="121.421125"></trkpt>
      <trkpt lat="23.647126" lon="121.421095"></trkpt>
      <trkpt lat="23.646784" lon="121.421130"></trkpt>
      <trkpt lat="23.646558" lon="121.421141"></trkpt>
      <trkpt lat="23.645558" lon="121.421039"></trkpt>
      <trkpt lat="23.645410" lon="121.420991"></trkpt>
      <trkpt lat="23.645246" lon="121.420959"></trkpt>
      <trkpt lat="23.645036" lon="121.420974"></trkpt>
      <trkpt lat="23.644844" lon="121.421008"></trkpt>
      <trkpt lat="23.644665" lon="121.421062"></trkpt>
      <trkpt lat="23.644527" lon="121.421089"></trkpt>
      <trkpt lat="23.644409" lon="121.421062"></trkpt>
      <trkpt lat="23.644346" lon="121.421007"></trkpt>
      <trkpt lat="23.644268" lon="121.420943"></trkpt>
      <trkpt lat="23.643991" lon="121.420630"></trkpt>
      <trkpt lat="23.643792" lon="121.421044"></trkpt>
      <trkpt lat="23.643606" lon="121.421324"></trkpt>
      <trkpt lat="23.643436" lon="121.421526"></trkpt>
      <trkpt lat="23.643381" lon="121.421584"></trkpt>
      <trkpt lat="23.642738" lon="121.422473"></trkpt>
      <trkpt lat="23.642676" lon="121.422551"></trkpt>
      <trkpt lat="23.642607" lon="121.422478"></trkpt>
      <trkpt lat="23.642583" lon="121.422421"></trkpt>
      <trkpt lat="23.642163" lon="121.421988"></trkpt>
      <trkpt lat="23.641387" lon="121.421207"></trkpt>
      <trkpt lat="23.640622" lon="121.420425"></trkpt>
      <trkpt lat="23.640301" lon="121.420278"></trkpt>
      <trkpt lat="23.640062" lon="121.420195"></trkpt>
      <trkpt lat="23.639615" lon="121.420018"></trkpt>
      <trkpt lat="23.639122" lon="121.419967"></trkpt>
      <trkpt lat="23.638583" lon="121.419911"></trkpt>
      <trkpt lat="23.638409" lon="121.419893"></trkpt>
      <trkpt lat="23.638274" lon="121.419848"></trkpt>
      <trkpt lat="23.638139" lon="121.419784"></trkpt>
      <trkpt lat="23.637940" lon="121.419639"></trkpt>
      <trkpt lat="23.637760" lon="121.419545"></trkpt>
      <trkpt lat="23.637597" lon="121.419464"></trkpt>
      <trkpt lat="23.636991" lon="121.419255"></trkpt>
      <trkpt lat="23.635360" lon="121.418807"></trkpt>
      <trkpt lat="23.635151" lon="121.418738"></trkpt>
      <trkpt lat="23.634996" lon="121.418730"></trkpt>
      <trkpt lat="23.634900" lon="121.418727"></trkpt>
      <trkpt lat="23.634690" lon="121.418809"></trkpt>
      <trkpt lat="23.633643" lon="121.420898"></trkpt>
      <trkpt lat="23.633314" lon="121.421553"></trkpt>
      <trkpt lat="23.632229" lon="121.423784"></trkpt>
      <trkpt lat="23.631962" lon="121.424322"></trkpt>
      <trkpt lat="23.631417" lon="121.425376"></trkpt>
      <trkpt lat="23.630979" lon="121.426105"></trkpt>
      <trkpt lat="23.629507" lon="121.425259"></trkpt>
      <trkpt lat="23.626493" lon="121.423506"></trkpt>
      <trkpt lat="23.625218" lon="121.422749"></trkpt>
      <trkpt lat="23.624987" lon="121.422612"></trkpt>
      <trkpt lat="23.623533" lon="121.421714"></trkpt>
      <trkpt lat="23.622070" lon="121.420829"></trkpt>
      <trkpt lat="23.619315" lon="121.419188"></trkpt>
      <trkpt lat="23.617604" lon="121.418151"></trkpt>
      <trkpt lat="23.617183" lon="121.417894"></trkpt>
      <trkpt lat="23.616924" lon="121.417336"></trkpt>
      <trkpt lat="23.616382" lon="121.416163"></trkpt>
      <trkpt lat="23.615822" lon="121.414951"></trkpt>
      <trkpt lat="23.615607" lon="121.414487"></trkpt>
      <trkpt lat="23.615112" lon="121.413450"></trkpt>
      <trkpt lat="23.613923" lon="121.410770"></trkpt>
      <trkpt lat="23.613757" lon="121.410127"></trkpt>
      <trkpt lat="23.613717" lon="121.410041"></trkpt>
      <trkpt lat="23.613301" lon="121.409333"></trkpt>
      <trkpt lat="23.613240" lon="121.409273"></trkpt>
      <trkpt lat="23.611574" lon="121.407200"></trkpt>
      <trkpt lat="23.609469" lon="121.404663"></trkpt>
      <trkpt lat="23.609003" lon="121.404100"></trkpt>
      <trkpt lat="23.606788" lon="121.401420"></trkpt>
      <trkpt lat="23.605974" lon="121.400436"></trkpt>
      <trkpt lat="23.605298" lon="121.399972"></trkpt>
      <trkpt lat="23.605041" lon="121.399794"></trkpt>
      <trkpt lat="23.604007" lon="121.399187"></trkpt>
      <trkpt lat="23.603944" lon="121.399131"></trkpt>
      <trkpt lat="23.603706" lon="121.398973"></trkpt>
      <trkpt lat="23.603313" lon="121.398758"></trkpt>
      <trkpt lat="23.602600" lon="121.398325"></trkpt>
      <trkpt lat="23.601211" lon="121.397474"></trkpt>
      <trkpt lat="23.600958" lon="121.397335"></trkpt>
      <trkpt lat="23.600302" lon="121.396981"></trkpt>
      <trkpt lat="23.599643" lon="121.396541"></trkpt>
      <trkpt lat="23.598132" lon="121.395636"></trkpt>
      <trkpt lat="23.596707" lon="121.394778"></trkpt>
      <trkpt lat="23.595473" lon="121.394010"></trkpt>
      <trkpt lat="23.595144" lon="121.393828"></trkpt>
      <trkpt lat="23.592238" lon="121.392102"></trkpt>
      <trkpt lat="23.588813" lon="121.389998"></trkpt>
      <trkpt lat="23.588774" lon="121.389987"></trkpt>
      <trkpt lat="23.586209" lon="121.388403"></trkpt>
      <trkpt lat="23.585141" lon="121.387776"></trkpt>
      <trkpt lat="23.584325" lon="121.387341"></trkpt>
      <trkpt lat="23.583577" lon="121.387243"></trkpt>
      <trkpt lat="23.581925" lon="121.386821"></trkpt>
      <trkpt lat="23.579401" lon="121.386254"></trkpt>
      <trkpt lat="23.578425" lon="121.386028"></trkpt>
      <trkpt lat="23.577708" lon="121.385826"></trkpt>
      <trkpt lat="23.577339" lon="121.385778"></trkpt>
      <trkpt lat="23.573895" lon="121.385760"></trkpt>
      <trkpt lat="23.573380" lon="121.385753"></trkpt>
      <trkpt lat="23.572923" lon="121.385752"></trkpt>
      <trkpt lat="23.572346" lon="121.385752"></trkpt>
      <trkpt lat="23.571802" lon="121.385747"></trkpt>
      <trkpt lat="23.571302" lon="121.385743"></trkpt>
      <trkpt lat="23.570360" lon="121.385732"></trkpt>
      <trkpt lat="23.569663" lon="121.385732"></trkpt>
      <trkpt lat="23.568717" lon="121.385731"></trkpt>
      <trkpt lat="23.567902" lon="121.385721"></trkpt>
      <trkpt lat="23.567018" lon="121.385713"></trkpt>
      <trkpt lat="23.566360" lon="121.385736"></trkpt>
      <trkpt lat="23.566280" lon="121.385597"></trkpt>
      <trkpt lat="23.566209" lon="121.385428"></trkpt>
      <trkpt lat="23.566144" lon="121.385253"></trkpt>
      <trkpt lat="23.566119" lon="121.385213"></trkpt>
      <trkpt lat="23.566095" lon="121.385176"></trkpt>
      <trkpt lat="23.566039" lon="121.385098"></trkpt>
      <trkpt lat="23.565950" lon="121.384983"></trkpt>
      <trkpt lat="23.565855" lon="121.384864"></trkpt>
      <trkpt lat="23.565821" lon="121.384809"></trkpt>
      <trkpt lat="23.565800" lon="121.384742"></trkpt>
      <trkpt lat="23.565789" lon="121.384663"></trkpt>
      <trkpt lat="23.565785" lon="121.384538"></trkpt>
      <trkpt lat="23.565752" lon="121.384435"></trkpt>
      <trkpt lat="23.565708" lon="121.384323"></trkpt>
      <trkpt lat="23.565664" lon="121.384211"></trkpt>
      <trkpt lat="23.565619" lon="121.384098"></trkpt>
      <trkpt lat="23.565589" lon="121.384050"></trkpt>
      <trkpt lat="23.565504" lon="121.383912"></trkpt>
      <trkpt lat="23.565391" lon="121.383735"></trkpt>
      <trkpt lat="23.565327" lon="121.383613"></trkpt>
      <trkpt lat="23.565269" lon="121.383491"></trkpt>
      <trkpt lat="23.565246" lon="121.383407"></trkpt>
      <trkpt lat="23.565243" lon="121.383328"></trkpt>
      <trkpt lat="23.565256" lon="121.383258"></trkpt>
      <trkpt lat="23.565271" lon="121.383211"></trkpt>
      <trkpt lat="23.565274" lon="121.383100"></trkpt>
      <trkpt lat="23.565271" lon="121.382992"></trkpt>
      <trkpt lat="23.565237" lon="121.382877"></trkpt>
      <trkpt lat="23.565187" lon="121.382713"></trkpt>
      <trkpt lat="23.565173" lon="121.382564"></trkpt>
      <trkpt lat="23.565184" lon="121.382449"></trkpt>
      <trkpt lat="23.565186" lon="121.382368"></trkpt>
      <trkpt lat="23.565224" lon="121.382161"></trkpt>
      <trkpt lat="23.565262" lon="121.381960"></trkpt>
      <trkpt lat="23.565286" lon="121.381802"></trkpt>
      <trkpt lat="23.565304" lon="121.381679"></trkpt>
      <trkpt lat="23.565327" lon="121.381595"></trkpt>
      <trkpt lat="23.565351" lon="121.381522"></trkpt>
      <trkpt lat="23.565460" lon="121.381273"></trkpt>
      <trkpt lat="23.565486" lon="121.381192"></trkpt>
      <trkpt lat="23.565498" lon="121.381092"></trkpt>
      <trkpt lat="23.565504" lon="121.380873"></trkpt>
      <trkpt lat="23.565556" lon="121.380783"></trkpt>
      <trkpt lat="23.565406" lon="121.380838"></trkpt>
      <trkpt lat="23.565298" lon="121.380865"></trkpt>
      <trkpt lat="23.565140" lon="121.380888"></trkpt>
      <trkpt lat="23.564929" lon="121.380889"></trkpt>
      <trkpt lat="23.564674" lon="121.380865"></trkpt>
      <trkpt lat="23.564344" lon="121.380790"></trkpt>
      <trkpt lat="23.564116" lon="121.380736"></trkpt>
      <trkpt lat="23.563933" lon="121.380628"></trkpt>
      <trkpt lat="23.563430" lon="121.379800"></trkpt>
      <trkpt lat="23.563420" lon="121.377998"></trkpt>
      <trkpt lat="23.563422" lon="121.377904"></trkpt>
      <trkpt lat="23.563323" lon="121.377876"></trkpt>
      <trkpt lat="23.561534" lon="121.377891"></trkpt>
      <trkpt lat="23.560535" lon="121.377844"></trkpt>
      <trkpt lat="23.560443" lon="121.377827"></trkpt>
      <trkpt lat="23.559678" lon="121.377664"></trkpt>
      <trkpt lat="23.559126" lon="121.377467"></trkpt>
      <trkpt lat="23.558617" lon="121.377234"></trkpt>
      <trkpt lat="23.557159" lon="121.376416"></trkpt>
      <trkpt lat="23.557083" lon="121.376363"></trkpt>
      <trkpt lat="23.555879" lon="121.375682"></trkpt>
      <trkpt lat="23.555622" lon="121.375563"></trkpt>
      <trkpt lat="23.555325" lon="121.375476"></trkpt>
      <trkpt lat="23.555150" lon="121.375442"></trkpt>
      <trkpt lat="23.554801" lon="121.375425"></trkpt>
      <trkpt lat="23.554394" lon="121.375429"></trkpt>
      <trkpt lat="23.553976" lon="121.375515"></trkpt>
      <trkpt lat="23.553582" lon="121.375631"></trkpt>
      <trkpt lat="23.549641" lon="121.376494"></trkpt>
      <trkpt lat="23.548979" lon="121.376611"></trkpt>
      <trkpt lat="23.548642" lon="121.376661"></trkpt>
      <trkpt lat="23.548222" lon="121.376696"></trkpt>
      <trkpt lat="23.543770" lon="121.376867"></trkpt>
      <trkpt lat="23.543785" lon="121.376587"></trkpt>
      <trkpt lat="23.543721" lon="121.376587"></trkpt>
      <trkpt lat="23.543636" lon="121.376587"></trkpt>
      <trkpt lat="23.543529" lon="121.376654"></trkpt>
      <trkpt lat="23.543101" lon="121.376770"></trkpt>
      <trkpt lat="23.541617" lon="121.376807"></trkpt>
      <trkpt lat="23.541495" lon="121.376811"></trkpt>
      <trkpt lat="23.541375" lon="121.376756"></trkpt>
      <trkpt lat="23.541325" lon="121.376675"></trkpt>
      <trkpt lat="23.541272" lon="121.376572"></trkpt>
      <trkpt lat="23.541214" lon="121.376474"></trkpt>
      <trkpt lat="23.540894" lon="121.375953"></trkpt>
      <trkpt lat="23.540600" lon="121.375966"></trkpt>
      <trkpt lat="23.540134" lon="121.375983"></trkpt>
      <trkpt lat="23.539633" lon="121.376063"></trkpt>
      <trkpt lat="23.539469" lon="121.376098"></trkpt>
      <trkpt lat="23.539330" lon="121.376182"></trkpt>
      <trkpt lat="23.539223" lon="121.376264"></trkpt>
      <trkpt lat="23.539082" lon="121.376327"></trkpt>
      <trkpt lat="23.538780" lon="121.376422"></trkpt>
      <trkpt lat="23.538530" lon="121.376476"></trkpt>
      <trkpt lat="23.538305" lon="121.376501"></trkpt>
      <trkpt lat="23.538095" lon="121.376531"></trkpt>
      <trkpt lat="23.537842" lon="121.376590"></trkpt>
      <trkpt lat="23.537522" lon="121.376706"></trkpt>
      <trkpt lat="23.537199" lon="121.376830"></trkpt>
      <trkpt lat="23.536906" lon="121.376982"></trkpt>
      <trkpt lat="23.536758" lon="121.376929"></trkpt>
      <trkpt lat="23.536575" lon="121.376989"></trkpt>
      <trkpt lat="23.536363" lon="121.376989"></trkpt>
      <trkpt lat="23.536283" lon="121.376988"></trkpt>
      <trkpt lat="23.536189" lon="121.376988"></trkpt>
      <trkpt lat="23.535911" lon="121.376981"></trkpt>
      <trkpt lat="23.535607" lon="121.376985"></trkpt>
      <trkpt lat="23.535301" lon="121.376995"></trkpt>
      <trkpt lat="23.534905" lon="121.377006"></trkpt>
      <trkpt lat="23.534523" lon="121.377026"></trkpt>
      <trkpt lat="23.534268" lon="121.377027"></trkpt>
      <trkpt lat="23.534000" lon="121.377023"></trkpt>
      <trkpt lat="23.533730" lon="121.377022"></trkpt>
      <trkpt lat="23.533573" lon="121.376996"></trkpt>
      <trkpt lat="23.532757" lon="121.376994"></trkpt>
      <trkpt lat="23.531634" lon="121.377065"></trkpt>
      <trkpt lat="23.530894" lon="121.377060"></trkpt>
      <trkpt lat="23.530812" lon="121.377059"></trkpt>
      <trkpt lat="23.530635" lon="121.377058"></trkpt>
      <trkpt lat="23.530541" lon="121.377058"></trkpt>
      <trkpt lat="23.530028" lon="121.377251"></trkpt>
      <trkpt lat="23.529902" lon="121.377258"></trkpt>
      <trkpt lat="23.529130" lon="121.377304"></trkpt>
      <trkpt lat="23.528884" lon="121.377273"></trkpt>
      <trkpt lat="23.528786" lon="121.377254"></trkpt>
      <trkpt lat="23.528710" lon="121.377240"></trkpt>
      <trkpt lat="23.528535" lon="121.377231"></trkpt>
      <trkpt lat="23.528174" lon="121.377249"></trkpt>
      <trkpt lat="23.527846" lon="121.377330"></trkpt>
      <trkpt lat="23.526558" lon="121.377349"></trkpt>
      <trkpt lat="23.526539" lon="121.377444"></trkpt>
      <trkpt lat="23.526135" lon="121.377404"></trkpt>
      <trkpt lat="23.517197" lon="121.376207"></trkpt>
      <trkpt lat="23.514423" lon="121.375815"></trkpt>
      <trkpt lat="23.514231" lon="121.376106"></trkpt>
      <trkpt lat="23.514162" lon="121.376214"></trkpt>
      <trkpt lat="23.514148" lon="121.376238"></trkpt>
      <trkpt lat="23.513876" lon="121.376197"></trkpt>
      <trkpt lat="23.513283" lon="121.376122"></trkpt>
      <trkpt lat="23.512986" lon="121.376092"></trkpt>
      <trkpt lat="23.512226" lon="121.376005"></trkpt>
      <trkpt lat="23.511894" lon="121.375970"></trkpt>
      <trkpt lat="23.511673" lon="121.375957"></trkpt>
      <trkpt lat="23.511248" lon="121.375953"></trkpt>
      <trkpt lat="23.510747" lon="121.375969"></trkpt>
      <trkpt lat="23.510228" lon="121.375993"></trkpt>
      <trkpt lat="23.510130" lon="121.375998"></trkpt>
      <trkpt lat="23.509967" lon="121.376014"></trkpt>
      <trkpt lat="23.509576" lon="121.376054"></trkpt>
      <trkpt lat="23.509042" lon="121.376131"></trkpt>
      <trkpt lat="23.506730" lon="121.376465"></trkpt>
      <trkpt lat="23.505844" lon="121.376592"></trkpt>
      <trkpt lat="23.504061" lon="121.376839"></trkpt>
      <trkpt lat="23.503525" lon="121.376917"></trkpt>
      <trkpt lat="23.502681" lon="121.377095"></trkpt>
      <trkpt lat="23.502253" lon="121.377144"></trkpt>
      <trkpt lat="23.501068" lon="121.377242"></trkpt>
      <trkpt lat="23.500860" lon="121.377259"></trkpt>
      <trkpt lat="23.500427" lon="121.377295"></trkpt>
      <trkpt lat="23.499904" lon="121.377349"></trkpt>
      <trkpt lat="23.499849" lon="121.376753"></trkpt>
      <trkpt lat="23.499835" lon="121.376535"></trkpt>
      <trkpt lat="23.499819" lon="121.376270"></trkpt>
      <trkpt lat="23.499794" lon="121.375965"></trkpt>
      <trkpt lat="23.499732" lon="121.375891"></trkpt>
      <trkpt lat="23.497597" lon="121.376052"></trkpt>
      <trkpt lat="23.497262" lon="121.376077"></trkpt>
      <trkpt lat="23.496047" lon="121.376274"></trkpt>
      <trkpt lat="23.495811" lon="121.376253"></trkpt>
      <trkpt lat="23.495624" lon="121.376221"></trkpt>
      <trkpt lat="23.494488" lon="121.375815"></trkpt>
      <trkpt lat="23.494314" lon="121.376851"></trkpt>
      <trkpt lat="23.494301" lon="121.376918"></trkpt>
      <trkpt lat="23.494121" lon="121.377735"></trkpt>
      <trkpt lat="23.493419" lon="121.377369"></trkpt>
      <trkpt lat="23.492854" lon="121.377069"></trkpt>
      <trkpt lat="23.492779" lon="121.377032"></trkpt>
      <trkpt lat="23.490736" lon="121.376103"></trkpt>
      <trkpt lat="23.489835" lon="121.375695"></trkpt>
      <trkpt lat="23.488480" lon="121.375057"></trkpt>
      <trkpt lat="23.487736" lon="121.374664"></trkpt>
      <trkpt lat="23.486518" lon="121.374112"></trkpt>
      <trkpt lat="23.486122" lon="121.373916"></trkpt>
      <trkpt lat="23.485683" lon="121.373712"></trkpt>
      <trkpt lat="23.485265" lon="121.373509"></trkpt>
      <trkpt lat="23.484961" lon="121.373286"></trkpt>
      <trkpt lat="23.484676" lon="121.372973"></trkpt>
      <trkpt lat="23.484501" lon="121.372744"></trkpt>
      <trkpt lat="23.484328" lon="121.372469"></trkpt>
      <trkpt lat="23.483940" lon="121.371565"></trkpt>
      <trkpt lat="23.482341" lon="121.367610"></trkpt>
      <trkpt lat="23.481628" lon="121.365940"></trkpt>
      <trkpt lat="23.480936" lon="121.364281"></trkpt>
      <trkpt lat="23.480674" lon="121.363639"></trkpt>
      <trkpt lat="23.480563" lon="121.363366"></trkpt>
      <trkpt lat="23.480193" lon="121.362457"></trkpt>
      <trkpt lat="23.479902" lon="121.361791"></trkpt>
      <trkpt lat="23.479711" lon="121.361355"></trkpt>
      <trkpt lat="23.479422" lon="121.360576"></trkpt>
      <trkpt lat="23.479226" lon="121.360126"></trkpt>
      <trkpt lat="23.479083" lon="121.359894"></trkpt>
      <trkpt lat="23.478944" lon="121.359688"></trkpt>
      <trkpt lat="23.478799" lon="121.359526"></trkpt>
      <trkpt lat="23.478663" lon="121.359331"></trkpt>
      <trkpt lat="23.478523" lon="121.359153"></trkpt>
      <trkpt lat="23.478372" lon="121.358987"></trkpt>
      <trkpt lat="23.478185" lon="121.358864"></trkpt>
      <trkpt lat="23.477789" lon="121.358626"></trkpt>
      <trkpt lat="23.477221" lon="121.358418"></trkpt>
      <trkpt lat="23.476848" lon="121.358211"></trkpt>
      <trkpt lat="23.476110" lon="121.357830"></trkpt>
      <trkpt lat="23.474532" lon="121.356936"></trkpt>
      <trkpt lat="23.474372" lon="121.356843"></trkpt>
      <trkpt lat="23.474256" lon="121.356772"></trkpt>
      <trkpt lat="23.473957" lon="121.356676"></trkpt>
      <trkpt lat="23.473913" lon="121.356575"></trkpt>
      <trkpt lat="23.473686" lon="121.356533"></trkpt>
      <trkpt lat="23.473490" lon="121.356466"></trkpt>
      <trkpt lat="23.473381" lon="121.356395"></trkpt>
      <trkpt lat="23.473233" lon="121.356212"></trkpt>
      <trkpt lat="23.473070" lon="121.356135"></trkpt>
      <trkpt lat="23.472930" lon="121.356076"></trkpt>
      <trkpt lat="23.472799" lon="121.356043"></trkpt>
      <trkpt lat="23.472674" lon="121.356061"></trkpt>
      <trkpt lat="23.472509" lon="121.356084"></trkpt>
      <trkpt lat="23.472337" lon="121.356084"></trkpt>
      <trkpt lat="23.472166" lon="121.356078"></trkpt>
      <trkpt lat="23.471992" lon="121.356035"></trkpt>
      <trkpt lat="23.471785" lon="121.355950"></trkpt>
      <trkpt lat="23.471568" lon="121.355919"></trkpt>
      <trkpt lat="23.471278" lon="121.355866"></trkpt>
      <trkpt lat="23.470705" lon="121.355813"></trkpt>
      <trkpt lat="23.469903" lon="121.355706"></trkpt>
      <trkpt lat="23.469427" lon="121.355660"></trkpt>
      <trkpt lat="23.468795" lon="121.355612"></trkpt>
      <trkpt lat="23.468496" lon="121.355555"></trkpt>
      <trkpt lat="23.468455" lon="121.355549"></trkpt>
      <trkpt lat="23.468028" lon="121.355482"></trkpt>
      <trkpt lat="23.467181" lon="121.355321"></trkpt>
      <trkpt lat="23.466834" lon="121.355237"></trkpt>
      <trkpt lat="23.466597" lon="121.355161"></trkpt>
      <trkpt lat="23.466334" lon="121.355041"></trkpt>
      <trkpt lat="23.466087" lon="121.354920"></trkpt>
      <trkpt lat="23.466039" lon="121.354891"></trkpt>
      <trkpt lat="23.465615" lon="121.354656"></trkpt>
      <trkpt lat="23.465242" lon="121.354425"></trkpt>
      <trkpt lat="23.464409" lon="121.353910"></trkpt>
      <trkpt lat="23.462811" lon="121.352884"></trkpt>
      <trkpt lat="23.462565" lon="121.352717"></trkpt>
      <trkpt lat="23.462159" lon="121.352529"></trkpt>
      <trkpt lat="23.461043" lon="121.351928"></trkpt>
      <trkpt lat="23.460177" lon="121.351441"></trkpt>
      <trkpt lat="23.459933" lon="121.351297"></trkpt>
      <trkpt lat="23.459445" lon="121.351067"></trkpt>
      <trkpt lat="23.459012" lon="121.350882"></trkpt>
      <trkpt lat="23.458601" lon="121.350650"></trkpt>
      <trkpt lat="23.458451" lon="121.350569"></trkpt>
      <trkpt lat="23.458220" lon="121.350487"></trkpt>
      <trkpt lat="23.458220" lon="121.350565"></trkpt>
      <trkpt lat="23.458215" lon="121.350703"></trkpt>
      <trkpt lat="23.458165" lon="121.351106"></trkpt>
      <trkpt lat="23.458073" lon="121.351502"></trkpt>
      <trkpt lat="23.457847" lon="121.352402"></trkpt>
      <trkpt lat="23.457490" lon="121.352397"></trkpt>
      <trkpt lat="23.456918" lon="121.352410"></trkpt>
      <trkpt lat="23.456819" lon="121.352412"></trkpt>
      <trkpt lat="23.455816" lon="121.352425"></trkpt>
      <trkpt lat="23.455491" lon="121.352469"></trkpt>
      <trkpt lat="23.455316" lon="121.352512"></trkpt>
      <trkpt lat="23.454640" lon="121.352756"></trkpt>
      <trkpt lat="23.453995" lon="121.353001"></trkpt>
      <trkpt lat="23.453839" lon="121.353078"></trkpt>
      <trkpt lat="23.453754" lon="121.353172"></trkpt>
      <trkpt lat="23.453565" lon="121.353170"></trkpt>
      <trkpt lat="23.453083" lon="121.353215"></trkpt>
      <trkpt lat="23.452515" lon="121.353260"></trkpt>
      <trkpt lat="23.452121" lon="121.353310"></trkpt>
      <trkpt lat="23.451878" lon="121.353367"></trkpt>
      <trkpt lat="23.451625" lon="121.353465"></trkpt>
      <trkpt lat="23.451442" lon="121.353570"></trkpt>
      <trkpt lat="23.451332" lon="121.353639"></trkpt>
      <trkpt lat="23.451211" lon="121.353713"></trkpt>
      <trkpt lat="23.450880" lon="121.353913"></trkpt>
      <trkpt lat="23.450415" lon="121.354192"></trkpt>
      <trkpt lat="23.450297" lon="121.354262"></trkpt>
      <trkpt lat="23.449964" lon="121.354444"></trkpt>
      <trkpt lat="23.449861" lon="121.354484"></trkpt>
      <trkpt lat="23.449790" lon="121.354512"></trkpt>
      <trkpt lat="23.449509" lon="121.354570"></trkpt>
      <trkpt lat="23.449325" lon="121.354603"></trkpt>
      <trkpt lat="23.449015" lon="121.354635"></trkpt>
      <trkpt lat="23.448941" lon="121.354643"></trkpt>
      <trkpt lat="23.448021" lon="121.354743"></trkpt>
      <trkpt lat="23.447790" lon="121.354768"></trkpt>
      <trkpt lat="23.446886" lon="121.354874"></trkpt>
      <trkpt lat="23.446502" lon="121.354914"></trkpt>
      <trkpt lat="23.446175" lon="121.354933"></trkpt>
      <trkpt lat="23.445924" lon="121.354938"></trkpt>
      <trkpt lat="23.445737" lon="121.354917"></trkpt>
      <trkpt lat="23.445420" lon="121.354814"></trkpt>
      <trkpt lat="23.445150" lon="121.354666"></trkpt>
      <trkpt lat="23.444906" lon="121.354514"></trkpt>
      <trkpt lat="23.444655" lon="121.354330"></trkpt>
      <trkpt lat="23.444527" lon="121.354190"></trkpt>
      <trkpt lat="23.444440" lon="121.354068"></trkpt>
      <trkpt lat="23.444357" lon="121.353926"></trkpt>
      <trkpt lat="23.444318" lon="121.353761"></trkpt>
      <trkpt lat="23.444312" lon="121.353593"></trkpt>
      <trkpt lat="23.444325" lon="121.353437"></trkpt>
      <trkpt lat="23.444373" lon="121.353245"></trkpt>
      <trkpt lat="23.444473" lon="121.353006"></trkpt>
      <trkpt lat="23.444592" lon="121.352791"></trkpt>
      <trkpt lat="23.444668" lon="121.352681"></trkpt>
      <trkpt lat="23.444778" lon="121.352582"></trkpt>
      <trkpt lat="23.444873" lon="121.352525"></trkpt>
      <trkpt lat="23.445004" lon="121.352480"></trkpt>
      <trkpt lat="23.445132" lon="121.352468"></trkpt>
      <trkpt lat="23.445270" lon="121.352470"></trkpt>
      <trkpt lat="23.445380" lon="121.352476"></trkpt>
      <trkpt lat="23.445522" lon="121.352525"></trkpt>
      <trkpt lat="23.445688" lon="121.352628"></trkpt>
      <trkpt lat="23.445867" lon="121.352763"></trkpt>
      <trkpt lat="23.445989" lon="121.352857"></trkpt>
      <trkpt lat="23.446081" lon="121.352899"></trkpt>
      <trkpt lat="23.446202" lon="121.352923"></trkpt>
      <trkpt lat="23.446322" lon="121.352923"></trkpt>
      <trkpt lat="23.446450" lon="121.352885"></trkpt>
      <trkpt lat="23.446543" lon="121.352809"></trkpt>
      <trkpt lat="23.446620" lon="121.352743"></trkpt>
      <trkpt lat="23.446715" lon="121.352589"></trkpt>
      <trkpt lat="23.446798" lon="121.352391"></trkpt>
      <trkpt lat="23.446961" lon="121.351896"></trkpt>
      <trkpt lat="23.447038" lon="121.351701"></trkpt>
      <trkpt lat="23.447096" lon="121.351560"></trkpt>
      <trkpt lat="23.447151" lon="121.351446"></trkpt>
      <trkpt lat="23.447219" lon="121.351355"></trkpt>
      <trkpt lat="23.447362" lon="121.351244"></trkpt>
      <trkpt lat="23.447491" lon="121.351193"></trkpt>
      <trkpt lat="23.447635" lon="121.351153"></trkpt>
      <trkpt lat="23.447867" lon="121.351134"></trkpt>
      <trkpt lat="23.448101" lon="121.351104"></trkpt>
      <trkpt lat="23.448213" lon="121.351068"></trkpt>
      <trkpt lat="23.448310" lon="121.351023"></trkpt>
      <trkpt lat="23.448382" lon="121.350966"></trkpt>
      <trkpt lat="23.448447" lon="121.350887"></trkpt>
      <trkpt lat="23.448494" lon="121.350803"></trkpt>
      <trkpt lat="23.448522" lon="121.350682"></trkpt>
      <trkpt lat="23.448512" lon="121.350513"></trkpt>
      <trkpt lat="23.448479" lon="121.350386"></trkpt>
      <trkpt lat="23.448404" lon="121.350253"></trkpt>
      <trkpt lat="23.448260" lon="121.350104"></trkpt>
      <trkpt lat="23.447979" lon="121.349893"></trkpt>
      <trkpt lat="23.447700" lon="121.349753"></trkpt>
      <trkpt lat="23.447513" lon="121.349692"></trkpt>
      <trkpt lat="23.447278" lon="121.349667"></trkpt>
      <trkpt lat="23.447047" lon="121.349669"></trkpt>
      <trkpt lat="23.446856" lon="121.349714"></trkpt>
      <trkpt lat="23.446596" lon="121.349808"></trkpt>
      <trkpt lat="23.446376" lon="121.349900"></trkpt>
      <trkpt lat="23.446166" lon="121.349952"></trkpt>
      <trkpt lat="23.445923" lon="121.349966"></trkpt>
      <trkpt lat="23.445628" lon="121.349899"></trkpt>
      <trkpt lat="23.445291" lon="121.349767"></trkpt>
      <trkpt lat="23.445197" lon="121.349732"></trkpt>
      <trkpt lat="23.445018" lon="121.349691"></trkpt>
      <trkpt lat="23.444862" lon="121.349679"></trkpt>
      <trkpt lat="23.444639" lon="121.349709"></trkpt>
      <trkpt lat="23.444488" lon="121.349754"></trkpt>
      <trkpt lat="23.444256" lon="121.349866"></trkpt>
      <trkpt lat="23.443988" lon="121.350037"></trkpt>
      <trkpt lat="23.443821" lon="121.350191"></trkpt>
      <trkpt lat="23.443661" lon="121.350406"></trkpt>
      <trkpt lat="23.443449" lon="121.350750"></trkpt>
      <trkpt lat="23.443353" lon="121.350886"></trkpt>
      <trkpt lat="23.443255" lon="121.350996"></trkpt>
      <trkpt lat="23.443177" lon="121.351067"></trkpt>
      <trkpt lat="23.443100" lon="121.351114"></trkpt>
      <trkpt lat="23.443216" lon="121.350864"></trkpt>
      <trkpt lat="23.443340" lon="121.350659"></trkpt>
      <trkpt lat="23.443388" lon="121.350505"></trkpt>
      <trkpt lat="23.443423" lon="121.350080"></trkpt>
      <trkpt lat="23.443442" lon="121.349985"></trkpt>
      <trkpt lat="23.442747" lon="121.349812"></trkpt>
      <trkpt lat="23.442663" lon="121.349418"></trkpt>
      <trkpt lat="23.442567" lon="121.349310"></trkpt>
      <trkpt lat="23.442363" lon="121.349321"></trkpt>
      <trkpt lat="23.442141" lon="121.349442"></trkpt>
      <trkpt lat="23.441767" lon="121.349769"></trkpt>
      <trkpt lat="23.440891" lon="121.349320"></trkpt>
      <trkpt lat="23.440659" lon="121.349147"></trkpt>
      <trkpt lat="23.440581" lon="121.349088"></trkpt>
      <trkpt lat="23.440521" lon="121.349075"></trkpt>
      <trkpt lat="23.440435" lon="121.349073"></trkpt>
      <trkpt lat="23.440328" lon="121.349075"></trkpt>
      <trkpt lat="23.440239" lon="121.349071"></trkpt>
      <trkpt lat="23.440090" lon="121.349084"></trkpt>
      <trkpt lat="23.439853" lon="121.349130"></trkpt>
      <trkpt lat="23.439522" lon="121.349199"></trkpt>
      <trkpt lat="23.439369" lon="121.349227"></trkpt>
      <trkpt lat="23.439252" lon="121.349260"></trkpt>
      <trkpt lat="23.439141" lon="121.349284"></trkpt>
      <trkpt lat="23.439048" lon="121.349278"></trkpt>
      <trkpt lat="23.438950" lon="121.349254"></trkpt>
      <trkpt lat="23.438744" lon="121.349210"></trkpt>
      <trkpt lat="23.438572" lon="121.349160"></trkpt>
      <trkpt lat="23.438425" lon="121.349069"></trkpt>
      <trkpt lat="23.438318" lon="121.349002"></trkpt>
      <trkpt lat="23.438220" lon="121.348957"></trkpt>
      <trkpt lat="23.438131" lon="121.348950"></trkpt>
      <trkpt lat="23.438017" lon="121.348942"></trkpt>
      <trkpt lat="23.437886" lon="121.348940"></trkpt>
      <trkpt lat="23.437713" lon="121.348962"></trkpt>
      <trkpt lat="23.437533" lon="121.348919"></trkpt>
      <trkpt lat="23.437189" lon="121.348847"></trkpt>
      <trkpt lat="23.436941" lon="121.348813"></trkpt>
      <trkpt lat="23.436799" lon="121.348777"></trkpt>
      <trkpt lat="23.436649" lon="121.348731"></trkpt>
      <trkpt lat="23.436320" lon="121.348624"></trkpt>
      <trkpt lat="23.436165" lon="121.348577"></trkpt>
      <trkpt lat="23.436065" lon="121.348562"></trkpt>
      <trkpt lat="23.435983" lon="121.348561"></trkpt>
      <trkpt lat="23.435913" lon="121.348561"></trkpt>
      <trkpt lat="23.435824" lon="121.348628"></trkpt>
      <trkpt lat="23.435755" lon="121.348674"></trkpt>
      <trkpt lat="23.435661" lon="121.348696"></trkpt>
      <trkpt lat="23.435482" lon="121.348656"></trkpt>
      <trkpt lat="23.435150" lon="121.348585"></trkpt>
      <trkpt lat="23.434645" lon="121.348489"></trkpt>
      <trkpt lat="23.434420" lon="121.348432"></trkpt>
      <trkpt lat="23.434017" lon="121.348336"></trkpt>
      <trkpt lat="23.433746" lon="121.348267"></trkpt>
      <trkpt lat="23.433662" lon="121.348227"></trkpt>
      <trkpt lat="23.433666" lon="121.348170"></trkpt>
      <trkpt lat="23.433686" lon="121.348136"></trkpt>
      <trkpt lat="23.433749" lon="121.348088"></trkpt>
      <trkpt lat="23.433887" lon="121.347976"></trkpt>
      <trkpt lat="23.434131" lon="121.347794"></trkpt>
      <trkpt lat="23.434356" lon="121.347644"></trkpt>
      <trkpt lat="23.434442" lon="121.347562"></trkpt>
      <trkpt lat="23.434475" lon="121.347380"></trkpt>
      <trkpt lat="23.434504" lon="121.347315"></trkpt>
      <trkpt lat="23.434003" lon="121.347416"></trkpt>
      <trkpt lat="23.433206" lon="121.347495"></trkpt>
      <trkpt lat="23.432722" lon="121.347595"></trkpt>
      <trkpt lat="23.432261" lon="121.347628"></trkpt>
      <trkpt lat="23.432224" lon="121.347630"></trkpt>
      <trkpt lat="23.431974" lon="121.347624"></trkpt>
      <trkpt lat="23.431852" lon="121.347605"></trkpt>
      <trkpt lat="23.431727" lon="121.347572"></trkpt>
      <trkpt lat="23.431566" lon="121.347564"></trkpt>
      <trkpt lat="23.431526" lon="121.347338"></trkpt>
      <trkpt lat="23.431281" lon="121.346867"></trkpt>
      <trkpt lat="23.431038" lon="121.346521"></trkpt>
      <trkpt lat="23.430760" lon="121.346902"></trkpt>
      <trkpt lat="23.430440" lon="121.346998"></trkpt>
      <trkpt lat="23.430350" lon="121.347001"></trkpt>
      <trkpt lat="23.430270" lon="121.346973"></trkpt>
      <trkpt lat="23.430234" lon="121.346898"></trkpt>
      <trkpt lat="23.429994" lon="121.346593"></trkpt>
      <trkpt lat="23.429553" lon="121.346089"></trkpt>
      <trkpt lat="23.429482" lon="121.345991"></trkpt>
      <trkpt lat="23.429000" lon="121.345462"></trkpt>
      <trkpt lat="23.428962" lon="121.345438"></trkpt>
      <trkpt lat="23.428936" lon="121.345421"></trkpt>
      <trkpt lat="23.428865" lon="121.345425"></trkpt>
      <trkpt lat="23.428750" lon="121.345452"></trkpt>
      <trkpt lat="23.428653" lon="121.345505"></trkpt>
      <trkpt lat="23.428579" lon="121.345586"></trkpt>
      <trkpt lat="23.428472" lon="121.345843"></trkpt>
      <trkpt lat="23.428088" lon="121.345688"></trkpt>
      <trkpt lat="23.427893" lon="121.345613"></trkpt>
      <trkpt lat="23.427762" lon="121.345585"></trkpt>
      <trkpt lat="23.427450" lon="121.345541"></trkpt>
      <trkpt lat="23.427192" lon="121.345489"></trkpt>
      <trkpt lat="23.427090" lon="121.345468"></trkpt>
      <trkpt lat="23.426962" lon="121.345426"></trkpt>
      <trkpt lat="23.426799" lon="121.345185"></trkpt>
      <trkpt lat="23.426396" lon="121.344794"></trkpt>
      <trkpt lat="23.426232" lon="121.344658"></trkpt>
      <trkpt lat="23.426150" lon="121.344573"></trkpt>
      <trkpt lat="23.426060" lon="121.344495"></trkpt>
      <trkpt lat="23.425977" lon="121.344414"></trkpt>
      <trkpt lat="23.425873" lon="121.344333"></trkpt>
      <trkpt lat="23.425818" lon="121.344279"></trkpt>
      <trkpt lat="23.425669" lon="121.344201"></trkpt>
      <trkpt lat="23.425253" lon="121.344087"></trkpt>
      <trkpt lat="23.425066" lon="121.344010"></trkpt>
      <trkpt lat="23.424875" lon="121.343926"></trkpt>
      <trkpt lat="23.424635" lon="121.343851"></trkpt>
      <trkpt lat="23.424529" lon="121.343835"></trkpt>
      <trkpt lat="23.424438" lon="121.343843"></trkpt>
      <trkpt lat="23.424273" lon="121.343954"></trkpt>
      <trkpt lat="23.424146" lon="121.344050"></trkpt>
      <trkpt lat="23.423986" lon="121.344176"></trkpt>
      <trkpt lat="23.423872" lon="121.344236"></trkpt>
      <trkpt lat="23.423791" lon="121.344232"></trkpt>
      <trkpt lat="23.423701" lon="121.344220"></trkpt>
      <trkpt lat="23.423636" lon="121.344188"></trkpt>
      <trkpt lat="23.423583" lon="121.344161"></trkpt>
      <trkpt lat="23.423504" lon="121.344084"></trkpt>
      <trkpt lat="23.423418" lon="121.343996"></trkpt>
      <trkpt lat="23.423271" lon="121.343862"></trkpt>
      <trkpt lat="23.423128" lon="121.343758"></trkpt>
      <trkpt lat="23.422985" lon="121.343655"></trkpt>
      <trkpt lat="23.422868" lon="121.343580"></trkpt>
      <trkpt lat="23.422766" lon="121.343530"></trkpt>
      <trkpt lat="23.422665" lon="121.343469"></trkpt>
      <trkpt lat="23.422624" lon="121.343386"></trkpt>
      <trkpt lat="23.422601" lon="121.343272"></trkpt>
      <trkpt lat="23.422597" lon="121.343180"></trkpt>
      <trkpt lat="23.422584" lon="121.343113"></trkpt>
      <trkpt lat="23.422522" lon="121.343049"></trkpt>
      <trkpt lat="23.422381" lon="121.342871"></trkpt>
      <trkpt lat="23.422327" lon="121.342789"></trkpt>
      <trkpt lat="23.422312" lon="121.342730"></trkpt>
      <trkpt lat="23.422307" lon="121.342651"></trkpt>
      <trkpt lat="23.422354" lon="121.342436"></trkpt>
      <trkpt lat="23.422342" lon="121.342326"></trkpt>
      <trkpt lat="23.422275" lon="121.342002"></trkpt>
      <trkpt lat="23.422199" lon="121.341923"></trkpt>
      <trkpt lat="23.422084" lon="121.341853"></trkpt>
      <trkpt lat="23.421938" lon="121.341786"></trkpt>
      <trkpt lat="23.421795" lon="121.341747"></trkpt>
      <trkpt lat="23.421673" lon="121.341728"></trkpt>
      <trkpt lat="23.421561" lon="121.341703"></trkpt>
      <trkpt lat="23.421457" lon="121.341668"></trkpt>
      <trkpt lat="23.421379" lon="121.341660"></trkpt>
      <trkpt lat="23.421311" lon="121.341684"></trkpt>
      <trkpt lat="23.421284" lon="121.341751"></trkpt>
      <trkpt lat="23.421239" lon="121.342048"></trkpt>
      <trkpt lat="23.421212" lon="121.342134"></trkpt>
      <trkpt lat="23.421171" lon="121.342228"></trkpt>
      <trkpt lat="23.421129" lon="121.342278"></trkpt>
      <trkpt lat="23.421066" lon="121.342307"></trkpt>
      <trkpt lat="23.420957" lon="121.342321"></trkpt>
      <trkpt lat="23.420851" lon="121.342323"></trkpt>
      <trkpt lat="23.420789" lon="121.342319"></trkpt>
      <trkpt lat="23.420722" lon="121.342307"></trkpt>
      <trkpt lat="23.420667" lon="121.342250"></trkpt>
      <trkpt lat="23.420509" lon="121.341953"></trkpt>
      <trkpt lat="23.420470" lon="121.341912"></trkpt>
      <trkpt lat="23.420396" lon="121.341888"></trkpt>
      <trkpt lat="23.420262" lon="121.341870"></trkpt>
      <trkpt lat="23.420201" lon="121.341884"></trkpt>
      <trkpt lat="23.420092" lon="121.341952"></trkpt>
      <trkpt lat="23.419956" lon="121.342069"></trkpt>
      <trkpt lat="23.419864" lon="121.342134"></trkpt>
      <trkpt lat="23.419793" lon="121.342173"></trkpt>
      <trkpt lat="23.419708" lon="121.342200"></trkpt>
      <trkpt lat="23.419635" lon="121.342203"></trkpt>
      <trkpt lat="23.419547" lon="121.342179"></trkpt>
      <trkpt lat="23.419491" lon="121.342171"></trkpt>
      <trkpt lat="23.419430" lon="121.342163"></trkpt>
      <trkpt lat="23.419333" lon="121.342110"></trkpt>
      <trkpt lat="23.419218" lon="121.342046"></trkpt>
      <trkpt lat="23.419070" lon="121.341953"></trkpt>
      <trkpt lat="23.418808" lon="121.341830"></trkpt>
      <trkpt lat="23.418741" lon="121.341790"></trkpt>
      <trkpt lat="23.418691" lon="121.341751"></trkpt>
      <trkpt lat="23.418603" lon="121.341700"></trkpt>
      <trkpt lat="23.418471" lon="121.341642"></trkpt>
      <trkpt lat="23.418272" lon="121.341574"></trkpt>
      <trkpt lat="23.418192" lon="121.341536"></trkpt>
      <trkpt lat="23.418124" lon="121.341500"></trkpt>
      <trkpt lat="23.418024" lon="121.341416"></trkpt>
      <trkpt lat="23.417842" lon="121.341273"></trkpt>
      <trkpt lat="23.417712" lon="121.341184"></trkpt>
      <trkpt lat="23.417336" lon="121.340846"></trkpt>
      <trkpt lat="23.416992" lon="121.340563"></trkpt>
      <trkpt lat="23.416864" lon="121.340428"></trkpt>
      <trkpt lat="23.416554" lon="121.340187"></trkpt>
      <trkpt lat="23.416354" lon="121.339923"></trkpt>
      <trkpt lat="23.416273" lon="121.339821"></trkpt>
      <trkpt lat="23.416208" lon="121.339711"></trkpt>
      <trkpt lat="23.416167" lon="121.339632"></trkpt>
      <trkpt lat="23.416098" lon="121.339495"></trkpt>
      <trkpt lat="23.416060" lon="121.339429"></trkpt>
      <trkpt lat="23.415980" lon="121.339325"></trkpt>
      <trkpt lat="23.415723" lon="121.339113"></trkpt>
      <trkpt lat="23.415488" lon="121.338892"></trkpt>
      <trkpt lat="23.415122" lon="121.338563"></trkpt>
      <trkpt lat="23.414858" lon="121.338324"></trkpt>
      <trkpt lat="23.414540" lon="121.338078"></trkpt>
      <trkpt lat="23.414485" lon="121.338005"></trkpt>
      <trkpt lat="23.414480" lon="121.337922"></trkpt>
      <trkpt lat="23.414512" lon="121.337851"></trkpt>
      <trkpt lat="23.414528" lon="121.337783"></trkpt>
      <trkpt lat="23.414537" lon="121.337718"></trkpt>
      <trkpt lat="23.414535" lon="121.337650"></trkpt>
      <trkpt lat="23.414522" lon="121.337585"></trkpt>
      <trkpt lat="23.414489" lon="121.337478"></trkpt>
      <trkpt lat="23.414351" lon="121.337274"></trkpt>
      <trkpt lat="23.414263" lon="121.337189"></trkpt>
      <trkpt lat="23.414246" lon="121.337170"></trkpt>
      <trkpt lat="23.413764" lon="121.336848"></trkpt>
      <trkpt lat="23.413605" lon="121.336719"></trkpt>
      <trkpt lat="23.413313" lon="121.336519"></trkpt>
      <trkpt lat="23.413130" lon="121.336396"></trkpt>
      <trkpt lat="23.412937" lon="121.336248"></trkpt>
      <trkpt lat="23.412338" lon="121.335825"></trkpt>
      <trkpt lat="23.412199" lon="121.335715"></trkpt>
      <trkpt lat="23.412130" lon="121.335666"></trkpt>
      <trkpt lat="23.411657" lon="121.335344"></trkpt>
      <trkpt lat="23.411339" lon="121.335247"></trkpt>
      <trkpt lat="23.411132" lon="121.335192"></trkpt>
      <trkpt lat="23.411024" lon="121.335186"></trkpt>
      <trkpt lat="23.410916" lon="121.335230"></trkpt>
      <trkpt lat="23.410829" lon="121.335360"></trkpt>
      <trkpt lat="23.410749" lon="121.335466"></trkpt>
      <trkpt lat="23.410654" lon="121.335527"></trkpt>
      <trkpt lat="23.410565" lon="121.335549"></trkpt>
      <trkpt lat="23.410496" lon="121.335494"></trkpt>
      <trkpt lat="23.410432" lon="121.335418"></trkpt>
      <trkpt lat="23.410365" lon="121.335329"></trkpt>
      <trkpt lat="23.410320" lon="121.335239"></trkpt>
      <trkpt lat="23.410257" lon="121.335160"></trkpt>
      <trkpt lat="23.410179" lon="121.335130"></trkpt>
      <trkpt lat="23.410057" lon="121.335089"></trkpt>
      <trkpt lat="23.409924" lon="121.335047"></trkpt>
      <trkpt lat="23.409701" lon="121.334842"></trkpt>
      <trkpt lat="23.409511" lon="121.334615"></trkpt>
      <trkpt lat="23.409323" lon="121.334412"></trkpt>
      <trkpt lat="23.409155" lon="121.334270"></trkpt>
      <trkpt lat="23.408927" lon="121.334179"></trkpt>
      <trkpt lat="23.408817" lon="121.334162"></trkpt>
      <trkpt lat="23.408685" lon="121.334176"></trkpt>
      <trkpt lat="23.408523" lon="121.334224"></trkpt>
      <trkpt lat="23.408387" lon="121.334272"></trkpt>
      <trkpt lat="23.408295" lon="121.334254"></trkpt>
      <trkpt lat="23.408067" lon="121.334152"></trkpt>
      <trkpt lat="23.407832" lon="121.334074"></trkpt>
      <trkpt lat="23.407741" lon="121.334044"></trkpt>
      <trkpt lat="23.407535" lon="121.333955"></trkpt>
      <trkpt lat="23.407444" lon="121.333932"></trkpt>
      <trkpt lat="23.407309" lon="121.333915"></trkpt>
      <trkpt lat="23.407127" lon="121.333927"></trkpt>
      <trkpt lat="23.406973" lon="121.333930"></trkpt>
      <trkpt lat="23.406798" lon="121.333925"></trkpt>
      <trkpt lat="23.406685" lon="121.333899"></trkpt>
      <trkpt lat="23.406597" lon="121.333781"></trkpt>
      <trkpt lat="23.406481" lon="121.333622"></trkpt>
      <trkpt lat="23.406381" lon="121.333444"></trkpt>
      <trkpt lat="23.406270" lon="121.333314"></trkpt>
      <trkpt lat="23.405968" lon="121.333046"></trkpt>
      <trkpt lat="23.405846" lon="121.332913"></trkpt>
      <trkpt lat="23.405695" lon="121.332807"></trkpt>
      <trkpt lat="23.405640" lon="121.332808"></trkpt>
      <trkpt lat="23.405486" lon="121.332827"></trkpt>
      <trkpt lat="23.405332" lon="121.332841"></trkpt>
      <trkpt lat="23.405201" lon="121.332815"></trkpt>
      <trkpt lat="23.405114" lon="121.332702"></trkpt>
      <trkpt lat="23.405071" lon="121.332601"></trkpt>
      <trkpt lat="23.405002" lon="121.332423"></trkpt>
      <trkpt lat="23.404873" lon="121.332285"></trkpt>
      <trkpt lat="23.404433" lon="121.331900"></trkpt>
      <trkpt lat="23.404218" lon="121.331704"></trkpt>
      <trkpt lat="23.404028" lon="121.331494"></trkpt>
      <trkpt lat="23.403864" lon="121.331380"></trkpt>
      <trkpt lat="23.403701" lon="121.331351"></trkpt>
      <trkpt lat="23.403488" lon="121.331316"></trkpt>
      <trkpt lat="23.403341" lon="121.331285"></trkpt>
      <trkpt lat="23.403308" lon="121.331281"></trkpt>
      <trkpt lat="23.403257" lon="121.331296"></trkpt>
      <trkpt lat="23.403215" lon="121.331312"></trkpt>
      <trkpt lat="23.403123" lon="121.331336"></trkpt>
      <trkpt lat="23.403001" lon="121.331359"></trkpt>
      <trkpt lat="23.402906" lon="121.331379"></trkpt>
      <trkpt lat="23.402800" lon="121.331416"></trkpt>
      <trkpt lat="23.402727" lon="121.331503"></trkpt>
      <trkpt lat="23.402542" lon="121.331780"></trkpt>
      <trkpt lat="23.402462" lon="121.331929"></trkpt>
      <trkpt lat="23.402387" lon="121.331979"></trkpt>
      <trkpt lat="23.402138" lon="121.332057"></trkpt>
      <trkpt lat="23.401766" lon="121.332308"></trkpt>
      <trkpt lat="23.399984" lon="121.329138"></trkpt>
      <trkpt lat="23.399501" lon="121.328493"></trkpt>
      <trkpt lat="23.399000" lon="121.328029"></trkpt>
      <trkpt lat="23.398424" lon="121.327692"></trkpt>
      <trkpt lat="23.397526" lon="121.327325"></trkpt>
      <trkpt lat="23.396481" lon="121.326927"></trkpt>
      <trkpt lat="23.395997" lon="121.326721"></trkpt>
      <trkpt lat="23.394541" lon="121.326162"></trkpt>
      <trkpt lat="23.392477" lon="121.325368"></trkpt>
      <trkpt lat="23.391924" lon="121.325151"></trkpt>
      <trkpt lat="23.391792" lon="121.325124"></trkpt>
      <trkpt lat="23.391511" lon="121.325114"></trkpt>
      <trkpt lat="23.391248" lon="121.325169"></trkpt>
      <trkpt lat="23.391001" lon="121.325337"></trkpt>
      <trkpt lat="23.390685" lon="121.325551"></trkpt>
      <trkpt lat="23.388939" lon="121.326865"></trkpt>
      <trkpt lat="23.388468" lon="121.327193"></trkpt>
      <trkpt lat="23.388355" lon="121.327033"></trkpt>
      <trkpt lat="23.388269" lon="121.326839"></trkpt>
      <trkpt lat="23.388253" lon="121.326739"></trkpt>
      <trkpt lat="23.388234" lon="121.326469"></trkpt>
      <trkpt lat="23.387795" lon="121.326542"></trkpt>
      <trkpt lat="23.387233" lon="121.326509"></trkpt>
      <trkpt lat="23.386974" lon="121.326465"></trkpt>
      <trkpt lat="23.386831" lon="121.326467"></trkpt>
      <trkpt lat="23.386743" lon="121.326490"></trkpt>
      <trkpt lat="23.386581" lon="121.326567"></trkpt>
      <trkpt lat="23.386444" lon="121.326601"></trkpt>
      <trkpt lat="23.386365" lon="121.326606"></trkpt>
      <trkpt lat="23.386250" lon="121.326549"></trkpt>
      <trkpt lat="23.386220" lon="121.326539"></trkpt>
      <trkpt lat="23.386090" lon="121.326462"></trkpt>
      <trkpt lat="23.385982" lon="121.326368"></trkpt>
      <trkpt lat="23.385801" lon="121.326143"></trkpt>
      <trkpt lat="23.385747" lon="121.326094"></trkpt>
      <trkpt lat="23.385657" lon="121.326048"></trkpt>
      <trkpt lat="23.385510" lon="121.326011"></trkpt>
      <trkpt lat="23.385413" lon="121.326020"></trkpt>
      <trkpt lat="23.385256" lon="121.326045"></trkpt>
      <trkpt lat="23.385153" lon="121.326081"></trkpt>
      <trkpt lat="23.384851" lon="121.326160"></trkpt>
      <trkpt lat="23.384455" lon="121.326247"></trkpt>
      <trkpt lat="23.384391" lon="121.326261"></trkpt>
      <trkpt lat="23.384172" lon="121.326271"></trkpt>
      <trkpt lat="23.384102" lon="121.326256"></trkpt>
      <trkpt lat="23.383896" lon="121.326167"></trkpt>
      <trkpt lat="23.383843" lon="121.326142"></trkpt>
      <trkpt lat="23.383803" lon="121.326146"></trkpt>
      <trkpt lat="23.383556" lon="121.326140"></trkpt>
      <trkpt lat="23.383515" lon="121.326128"></trkpt>
      <trkpt lat="23.383470" lon="121.326083"></trkpt>
      <trkpt lat="23.383343" lon="121.325860"></trkpt>
      <trkpt lat="23.383291" lon="121.325750"></trkpt>
      <trkpt lat="23.383221" lon="121.325463"></trkpt>
      <trkpt lat="23.383131" lon="121.325254"></trkpt>
      <trkpt lat="23.382998" lon="121.325113"></trkpt>
      <trkpt lat="23.382912" lon="121.325061"></trkpt>
      <trkpt lat="23.382808" lon="121.325033"></trkpt>
      <trkpt lat="23.382710" lon="121.325040"></trkpt>
      <trkpt lat="23.382543" lon="121.325050"></trkpt>
      <trkpt lat="23.382394" lon="121.325059"></trkpt>
      <trkpt lat="23.382182" lon="121.325051"></trkpt>
      <trkpt lat="23.382018" lon="121.325007"></trkpt>
      <trkpt lat="23.381839" lon="121.324952"></trkpt>
      <trkpt lat="23.381780" lon="121.324946"></trkpt>
      <trkpt lat="23.381709" lon="121.324970"></trkpt>
      <trkpt lat="23.381568" lon="121.325076"></trkpt>
      <trkpt lat="23.381459" lon="121.325130"></trkpt>
      <trkpt lat="23.381319" lon="121.325133"></trkpt>
      <trkpt lat="23.381213" lon="121.325084"></trkpt>
      <trkpt lat="23.381000" lon="121.324961"></trkpt>
      <trkpt lat="23.380702" lon="121.324765"></trkpt>
      <trkpt lat="23.380452" lon="121.324626"></trkpt>
      <trkpt lat="23.379779" lon="121.324376"></trkpt>
      <trkpt lat="23.379679" lon="121.324702"></trkpt>
      <trkpt lat="23.379451" lon="121.325447"></trkpt>
      <trkpt lat="23.379388" lon="121.325665"></trkpt>
      <trkpt lat="23.379315" lon="121.325902"></trkpt>
      <trkpt lat="23.379274" lon="121.325999"></trkpt>
      <trkpt lat="23.379200" lon="121.326072"></trkpt>
      <trkpt lat="23.378989" lon="121.326087"></trkpt>
      <trkpt lat="23.378631" lon="121.326099"></trkpt>
      <trkpt lat="23.378572" lon="121.326108"></trkpt>
      <trkpt lat="23.378521" lon="121.326139"></trkpt>
      <trkpt lat="23.378480" lon="121.326206"></trkpt>
      <trkpt lat="23.378451" lon="121.326284"></trkpt>
      <trkpt lat="23.378408" lon="121.326572"></trkpt>
      <trkpt lat="23.378225" lon="121.326467"></trkpt>
      <trkpt lat="23.378108" lon="121.326497"></trkpt>
      <trkpt lat="23.378062" lon="121.326466"></trkpt>
      <trkpt lat="23.377788" lon="121.326294"></trkpt>
      <trkpt lat="23.377618" lon="121.326249"></trkpt>
      <trkpt lat="23.375713" lon="121.325891"></trkpt>
      <trkpt lat="23.374471" lon="121.325661"></trkpt>
      <trkpt lat="23.373454" lon="121.325484"></trkpt>
      <trkpt lat="23.372574" lon="121.325347"></trkpt>
      <trkpt lat="23.372234" lon="121.325307"></trkpt>
      <trkpt lat="23.372030" lon="121.325283"></trkpt>
      <trkpt lat="23.371693" lon="121.325189"></trkpt>
      <trkpt lat="23.370725" lon="121.324952"></trkpt>
      <trkpt lat="23.369942" lon="121.324800"></trkpt>
      <trkpt lat="23.363176" lon="121.323552"></trkpt>
      <trkpt lat="23.362305" lon="121.325022"></trkpt>
      <trkpt lat="23.362215" lon="121.324995"></trkpt>
      <trkpt lat="23.362085" lon="121.324948"></trkpt>
      <trkpt lat="23.361796" lon="121.324848"></trkpt>
      <trkpt lat="23.361359" lon="121.324703"></trkpt>
      <trkpt lat="23.361291" lon="121.324681"></trkpt>
      <trkpt lat="23.361210" lon="121.324655"></trkpt>
      <trkpt lat="23.358856" lon="121.323863"></trkpt>
      <trkpt lat="23.358493" lon="121.323763"></trkpt>
      <trkpt lat="23.358384" lon="121.323722"></trkpt>
      <trkpt lat="23.358267" lon="121.323684"></trkpt>
      <trkpt lat="23.357142" lon="121.323329"></trkpt>
      <trkpt lat="23.355743" lon="121.322801"></trkpt>
      <trkpt lat="23.355490" lon="121.322703"></trkpt>
      <trkpt lat="23.355118" lon="121.322505"></trkpt>
      <trkpt lat="23.354291" lon="121.322009"></trkpt>
      <trkpt lat="23.353941" lon="121.321759"></trkpt>
      <trkpt lat="23.353591" lon="121.321520"></trkpt>
      <trkpt lat="23.353246" lon="121.321238"></trkpt>
      <trkpt lat="23.352646" lon="121.320732"></trkpt>
      <trkpt lat="23.352473" lon="121.320601"></trkpt>
      <trkpt lat="23.352131" lon="121.320416"></trkpt>
      <trkpt lat="23.350008" lon="121.319656"></trkpt>
      <trkpt lat="23.349268" lon="121.319374"></trkpt>
      <trkpt lat="23.348131" lon="121.318955"></trkpt>
      <trkpt lat="23.348024" lon="121.318915"></trkpt>
      <trkpt lat="23.347038" lon="121.318571"></trkpt>
      <trkpt lat="23.346923" lon="121.318528"></trkpt>
    </trkseg>
  </trk>
</gpx>
