<?xml version="1.0" encoding="UTF-8"?>
<gpx version="1.1" creator="2026-routes" xmlns="http://www.topografix.com/GPX/1/1">
  <metadata>
    <name>新城到中原國小</name>
    <desc>羅東==== 新城車站→台8→太魯閣遊客中心→台8→新城→台9→縣道193→七星潭→台9→中原國小</desc>
  </metadata>
  <trk>
    <name>Day 5 新城到中原國小</name>
    <trkseg>
      <trkpt lat="24.126759" lon="121.640531"></trkpt>
      <trkpt lat="24.126757" lon="121.640557"></trkpt>
      <trkpt lat="24.126474" lon="121.641203"></trkpt>
      <trkpt lat="24.127047" lon="121.641534"></trkpt>
      <trkpt lat="24.127159" lon="121.641591"></trkpt>
      <trkpt lat="24.127243" lon="121.641652"></trkpt>
      <trkpt lat="24.127427" lon="121.641768"></trkpt>
      <trkpt lat="24.128088" lon="121.642132"></trkpt>
      <trkpt lat="24.128405" lon="121.642318"></trkpt>
      <trkpt lat="24.128543" lon="121.642400"></trkpt>
      <trkpt lat="24.129925" lon="121.643173"></trkpt>
      <trkpt lat="24.130511" lon="121.643501"></trkpt>
      <trkpt lat="24.130863" lon="121.643697"></trkpt>
      <trkpt lat="24.131045" lon="121.643795"></trkpt>
      <trkpt lat="24.131450" lon="121.644022"></trkpt>
      <trkpt lat="24.131581" lon="121.644091"></trkpt>
      <trkpt lat="24.132152" lon="121.643084"></trkpt>
      <trkpt lat="24.132336" lon="121.642762"></trkpt>
      <trkpt lat="24.132581" lon="121.642260"></trkpt>
      <trkpt lat="24.132721" lon="121.642020"></trkpt>
      <trkpt lat="24.132756" lon="121.641953"></trkpt>
      <trkpt lat="24.132932" lon="121.641678"></trkpt>
      <trkpt lat="24.133266" lon="121.641123"></trkpt>
      <trkpt lat="24.133416" lon="121.641219"></trkpt>
      <trkpt lat="24.133464" lon="121.641224"></trkpt>
      <trkpt lat="24.133828" lon="121.640642"></trkpt>
      <trkpt lat="24.134054" lon="121.640400"></trkpt>
      <trkpt lat="24.134505" lon="121.639949"></trkpt>
      <trkpt lat="24.134541" lon="121.639914"></trkpt>
      <trkpt lat="24.135140" lon="121.639303"></trkpt>
      <trkpt lat="24.135843" lon="121.638731"></trkpt>
      <trkpt lat="24.136578" lon="121.638107"></trkpt>
      <trkpt lat="24.137229" lon="121.637473"></trkpt>
      <trkpt lat="24.137460" lon="121.637319"></trkpt>
      <trkpt lat="24.137681" lon="121.637153"></trkpt>
      <trkpt lat="24.137872" lon="121.637032"></trkpt>
      <trkpt lat="24.138099" lon="121.636906"></trkpt>
      <trkpt lat="24.138519" lon="121.636654"></trkpt>
      <trkpt lat="24.138914" lon="121.636504"></trkpt>
      <trkpt lat="24.139351" lon="121.636352"></trkpt>
      <trkpt lat="24.140662" lon="121.635607"></trkpt>
      <trkpt lat="24.140760" lon="121.635561"></trkpt>
      <trkpt lat="24.141225" lon="121.635428"></trkpt>
      <trkpt lat="24.141453" lon="121.635377"></trkpt>
      <trkpt lat="24.141559" lon="121.635311"></trkpt>
      <trkpt lat="24.141713" lon="121.635089"></trkpt>
      <trkpt lat="24.141770" lon="121.635015"></trkpt>
      <trkpt lat="24.141894" lon="121.634795"></trkpt>
      <trkpt lat="24.142254" lon="121.634528"></trkpt>
      <trkpt lat="24.142544" lon="121.634262"></trkpt>
      <trkpt lat="24.142986" lon="121.633877"></trkpt>
      <trkpt lat="24.143237" lon="121.633661"></trkpt>
      <trkpt lat="24.143454" lon="121.633461"></trkpt>
      <trkpt lat="24.143879" lon="121.633104"></trkpt>
      <trkpt lat="24.144174" lon="121.632840"></trkpt>
      <trkpt lat="24.145389" lon="121.631776"></trkpt>
      <trkpt lat="24.145454" lon="121.631678"></trkpt>
      <trkpt lat="24.145422" lon="121.631517"></trkpt>
      <trkpt lat="24.145168" lon="121.630834"></trkpt>
      <trkpt lat="24.145314" lon="121.630739"></trkpt>
      <trkpt lat="24.145529" lon="121.630539"></trkpt>
      <trkpt lat="24.145700" lon="121.630386"></trkpt>
      <trkpt lat="24.145739" lon="121.630369"></trkpt>
      <trkpt lat="24.145893" lon="121.630224"></trkpt>
      <trkpt lat="24.147264" lon="121.629071"></trkpt>
      <trkpt lat="24.147829" lon="121.628567"></trkpt>
      <trkpt lat="24.148109" lon="121.628344"></trkpt>
      <trkpt lat="24.149206" lon="121.627381"></trkpt>
      <trkpt lat="24.149280" lon="121.627321"></trkpt>
      <trkpt lat="24.149707" lon="121.626932"></trkpt>
      <trkpt lat="24.151325" lon="121.625540"></trkpt>
      <trkpt lat="24.151905" lon="121.625021"></trkpt>
      <trkpt lat="24.152222" lon="121.624738"></trkpt>
      <trkpt lat="24.152665" lon="121.624349"></trkpt>
      <trkpt lat="24.153119" lon="121.623950"></trkpt>
      <trkpt lat="24.153820" lon="121.623297"></trkpt>
      <trkpt lat="24.154157" lon="121.622976"></trkpt>
      <trkpt lat="24.155636" lon="121.621544"></trkpt>
      <trkpt lat="24.155980" lon="121.621701"></trkpt>
      <trkpt lat="24.156244" lon="121.621814"></trkpt>
      <trkpt lat="24.156578" lon="121.621958"></trkpt>
      <trkpt lat="24.156777" lon="121.622041"></trkpt>
      <trkpt lat="24.156958" lon="121.622110"></trkpt>
      <trkpt lat="24.157068" lon="121.622046"></trkpt>
      <trkpt lat="24.157228" lon="121.621917"></trkpt>
      <trkpt lat="24.157437" lon="121.621767"></trkpt>
      <trkpt lat="24.157766" lon="121.621365"></trkpt>
      <trkpt lat="24.157907" lon="121.621183"></trkpt>
      <trkpt lat="24.158090" lon="121.621047"></trkpt>
      <trkpt lat="24.158287" lon="121.620902"></trkpt>
      <trkpt lat="24.158514" lon="121.620661"></trkpt>
      <trkpt lat="24.158758" lon="121.620472"></trkpt>
      <trkpt lat="24.158688" lon="121.620781"></trkpt>
      <trkpt lat="24.158645" lon="121.621051"></trkpt>
      <trkpt lat="24.158725" lon="121.621027"></trkpt>
      <trkpt lat="24.158790" lon="121.621068"></trkpt>
      <trkpt lat="24.158805" lon="121.621097"></trkpt>
      <trkpt lat="24.158790" lon="121.621068"></trkpt>
      <trkpt lat="24.158725" lon="121.621027"></trkpt>
      <trkpt lat="24.158645" lon="121.621051"></trkpt>
      <trkpt lat="24.158549" lon="121.620974"></trkpt>
      <trkpt lat="24.158448" lon="121.620918"></trkpt>
      <trkpt lat="24.158287" lon="121.620902"></trkpt>
      <trkpt lat="24.158090" lon="121.621047"></trkpt>
      <trkpt lat="24.157907" lon="121.621183"></trkpt>
      <trkpt lat="24.157766" lon="121.621365"></trkpt>
      <trkpt lat="24.157437" lon="121.621767"></trkpt>
      <trkpt lat="24.157228" lon="121.621917"></trkpt>
      <trkpt lat="24.157068" lon="121.622046"></trkpt>
      <trkpt lat="24.156958" lon="121.622110"></trkpt>
      <trkpt lat="24.156777" lon="121.622041"></trkpt>
      <trkpt lat="24.156578" lon="121.621958"></trkpt>
      <trkpt lat="24.156244" lon="121.621814"></trkpt>
      <trkpt lat="24.155980" lon="121.621701"></trkpt>
      <trkpt lat="24.155636" lon="121.621544"></trkpt>
      <trkpt lat="24.155551" lon="121.621575"></trkpt>
      <trkpt lat="24.154117" lon="121.622924"></trkpt>
      <trkpt lat="24.153706" lon="121.623279"></trkpt>
      <trkpt lat="24.153067" lon="121.623868"></trkpt>
      <trkpt lat="24.152175" lon="121.624663"></trkpt>
      <trkpt lat="24.151280" lon="121.625458"></trkpt>
      <trkpt lat="24.149694" lon="121.626838"></trkpt>
      <trkpt lat="24.149222" lon="121.627243"></trkpt>
      <trkpt lat="24.149155" lon="121.627305"></trkpt>
      <trkpt lat="24.148034" lon="121.628261"></trkpt>
      <trkpt lat="24.147770" lon="121.628484"></trkpt>
      <trkpt lat="24.147164" lon="121.629001"></trkpt>
      <trkpt lat="24.146714" lon="121.629394"></trkpt>
      <trkpt lat="24.145872" lon="121.630168"></trkpt>
      <trkpt lat="24.145667" lon="121.630344"></trkpt>
      <trkpt lat="24.145492" lon="121.630483"></trkpt>
      <trkpt lat="24.145368" lon="121.630596"></trkpt>
      <trkpt lat="24.145279" lon="121.630678"></trkpt>
      <trkpt lat="24.145168" lon="121.630834"></trkpt>
      <trkpt lat="24.145422" lon="121.631517"></trkpt>
      <trkpt lat="24.145454" lon="121.631678"></trkpt>
      <trkpt lat="24.145389" lon="121.631776"></trkpt>
      <trkpt lat="24.144174" lon="121.632840"></trkpt>
      <trkpt lat="24.143879" lon="121.633104"></trkpt>
      <trkpt lat="24.143454" lon="121.633461"></trkpt>
      <trkpt lat="24.143237" lon="121.633661"></trkpt>
      <trkpt lat="24.142986" lon="121.633877"></trkpt>
      <trkpt lat="24.142544" lon="121.634262"></trkpt>
      <trkpt lat="24.142254" lon="121.634528"></trkpt>
      <trkpt lat="24.141894" lon="121.634795"></trkpt>
      <trkpt lat="24.141770" lon="121.635015"></trkpt>
      <trkpt lat="24.141713" lon="121.635089"></trkpt>
      <trkpt lat="24.141559" lon="121.635311"></trkpt>
      <trkpt lat="24.141453" lon="121.635377"></trkpt>
      <trkpt lat="24.141225" lon="121.635428"></trkpt>
      <trkpt lat="24.140760" lon="121.635561"></trkpt>
      <trkpt lat="24.140662" lon="121.635607"></trkpt>
      <trkpt lat="24.139351" lon="121.636352"></trkpt>
      <trkpt lat="24.138914" lon="121.636504"></trkpt>
      <trkpt lat="24.138519" lon="121.636654"></trkpt>
      <trkpt lat="24.138099" lon="121.636906"></trkpt>
      <trkpt lat="24.137872" lon="121.637032"></trkpt>
      <trkpt lat="24.137681" lon="121.637153"></trkpt>
      <trkpt lat="24.137460" lon="121.637319"></trkpt>
      <trkpt lat="24.137229" lon="121.637473"></trkpt>
      <trkpt lat="24.136578" lon="121.638107"></trkpt>
      <trkpt lat="24.135843" lon="121.638731"></trkpt>
      <trkpt lat="24.135140" lon="121.639303"></trkpt>
      <trkpt lat="24.134541" lon="121.639914"></trkpt>
      <trkpt lat="24.134505" lon="121.639949"></trkpt>
      <trkpt lat="24.134054" lon="121.640400"></trkpt>
      <trkpt lat="24.133828" lon="121.640642"></trkpt>
      <trkpt lat="24.133464" lon="121.641224"></trkpt>
      <trkpt lat="24.133416" lon="121.641219"></trkpt>
      <trkpt lat="24.133266" lon="121.641123"></trkpt>
      <trkpt lat="24.133265" lon="121.640946"></trkpt>
      <trkpt lat="24.133143" lon="121.641015"></trkpt>
      <trkpt lat="24.132664" lon="121.641891"></trkpt>
      <trkpt lat="24.132625" lon="121.641951"></trkpt>
      <trkpt lat="24.132343" lon="121.642413"></trkpt>
      <trkpt lat="24.132197" lon="121.642687"></trkpt>
      <trkpt lat="24.132016" lon="121.643018"></trkpt>
      <trkpt lat="24.131864" lon="121.643283"></trkpt>
      <trkpt lat="24.131450" lon="121.644022"></trkpt>
      <trkpt lat="24.131308" lon="121.644268"></trkpt>
      <trkpt lat="24.130889" lon="121.645002"></trkpt>
      <trkpt lat="24.130666" lon="121.645401"></trkpt>
      <trkpt lat="24.130366" lon="121.645917"></trkpt>
      <trkpt lat="24.130214" lon="121.646172"></trkpt>
      <trkpt lat="24.130059" lon="121.646423"></trkpt>
      <trkpt lat="24.129875" lon="121.646719"></trkpt>
      <trkpt lat="24.129933" lon="121.646839"></trkpt>
      <trkpt lat="24.129810" lon="121.647085"></trkpt>
      <trkpt lat="24.129447" lon="121.647739"></trkpt>
      <trkpt lat="24.128949" lon="121.648634"></trkpt>
      <trkpt lat="24.128443" lon="121.649623"></trkpt>
      <trkpt lat="24.128252" lon="121.649886"></trkpt>
      <trkpt lat="24.128053" lon="121.650091"></trkpt>
      <trkpt lat="24.127926" lon="121.650216"></trkpt>
      <trkpt lat="24.128401" lon="121.650805"></trkpt>
      <trkpt lat="24.127926" lon="121.650216"></trkpt>
      <trkpt lat="24.127193" lon="121.649342"></trkpt>
      <trkpt lat="24.127557" lon="121.648969"></trkpt>
      <trkpt lat="24.127713" lon="121.648824"></trkpt>
      <trkpt lat="24.128009" lon="121.648564"></trkpt>
      <trkpt lat="24.128046" lon="121.648500"></trkpt>
      <trkpt lat="24.127879" lon="121.648309"></trkpt>
      <trkpt lat="24.127842" lon="121.648193"></trkpt>
      <trkpt lat="24.126869" lon="121.646774"></trkpt>
      <trkpt lat="24.126469" lon="121.646195"></trkpt>
      <trkpt lat="24.126062" lon="121.645594"></trkpt>
      <trkpt lat="24.125895" lon="121.645348"></trkpt>
      <trkpt lat="24.125265" lon="121.644421"></trkpt>
      <trkpt lat="24.125189" lon="121.644306"></trkpt>
      <trkpt lat="24.124884" lon="121.643853"></trkpt>
      <trkpt lat="24.124352" lon="121.643074"></trkpt>
      <trkpt lat="24.124329" lon="121.643044"></trkpt>
      <trkpt lat="24.123504" lon="121.641815"></trkpt>
      <trkpt lat="24.122769" lon="121.640782"></trkpt>
      <trkpt lat="24.122660" lon="121.640672"></trkpt>
      <trkpt lat="24.122494" lon="121.640427"></trkpt>
      <trkpt lat="24.121984" lon="121.640546"></trkpt>
      <trkpt lat="24.121544" lon="121.640495"></trkpt>
      <trkpt lat="24.120915" lon="121.640439"></trkpt>
      <trkpt lat="24.120250" lon="121.640467"></trkpt>
      <trkpt lat="24.120113" lon="121.640482"></trkpt>
      <trkpt lat="24.119845" lon="121.640554"></trkpt>
      <trkpt lat="24.119322" lon="121.640699"></trkpt>
      <trkpt lat="24.119142" lon="121.640757"></trkpt>
      <trkpt lat="24.118553" lon="121.641115"></trkpt>
      <trkpt lat="24.117984" lon="121.640170"></trkpt>
      <trkpt lat="24.117821" lon="121.639953"></trkpt>
      <trkpt lat="24.117568" lon="121.639521"></trkpt>
      <trkpt lat="24.117270" lon="121.639047"></trkpt>
      <trkpt lat="24.116846" lon="121.638370"></trkpt>
      <trkpt lat="24.116575" lon="121.637935"></trkpt>
      <trkpt lat="24.116093" lon="121.637143"></trkpt>
      <trkpt lat="24.115497" lon="121.636155"></trkpt>
      <trkpt lat="24.114997" lon="121.635345"></trkpt>
      <trkpt lat="24.114956" lon="121.635286"></trkpt>
      <trkpt lat="24.114929" lon="121.635241"></trkpt>
      <trkpt lat="24.114907" lon="121.635203"></trkpt>
      <trkpt lat="24.113655" lon="121.633268"></trkpt>
      <trkpt lat="24.112997" lon="121.632213"></trkpt>
      <trkpt lat="24.112466" lon="121.631315"></trkpt>
      <trkpt lat="24.112106" lon="121.630610"></trkpt>
      <trkpt lat="24.111703" lon="121.629828"></trkpt>
      <trkpt lat="24.111229" lon="121.628941"></trkpt>
      <trkpt lat="24.111070" lon="121.628643"></trkpt>
      <trkpt lat="24.110433" lon="121.627429"></trkpt>
      <trkpt lat="24.110046" lon="121.626692"></trkpt>
      <trkpt lat="24.109907" lon="121.626427"></trkpt>
      <trkpt lat="24.109498" lon="121.625635"></trkpt>
      <trkpt lat="24.109323" lon="121.625295"></trkpt>
      <trkpt lat="24.108588" lon="121.623874"></trkpt>
      <trkpt lat="24.107806" lon="121.622361"></trkpt>
      <trkpt lat="24.107309" lon="121.621473"></trkpt>
      <trkpt lat="24.106975" lon="121.620800"></trkpt>
      <trkpt lat="24.106938" lon="121.620714"></trkpt>
      <trkpt lat="24.106478" lon="121.619692"></trkpt>
      <trkpt lat="24.106360" lon="121.619464"></trkpt>
      <trkpt lat="24.105974" lon="121.618722"></trkpt>
      <trkpt lat="24.105587" lon="121.618142"></trkpt>
      <trkpt lat="24.105538" lon="121.618072"></trkpt>
      <trkpt lat="24.105271" lon="121.617780"></trkpt>
      <trkpt lat="24.104958" lon="121.617459"></trkpt>
      <trkpt lat="24.104746" lon="121.617283"></trkpt>
      <trkpt lat="24.104568" lon="121.617133"></trkpt>
      <trkpt lat="24.104224" lon="121.616881"></trkpt>
      <trkpt lat="24.103876" lon="121.616642"></trkpt>
      <trkpt lat="24.103557" lon="121.616464"></trkpt>
      <trkpt lat="24.103341" lon="121.616346"></trkpt>
      <trkpt lat="24.102974" lon="121.616191"></trkpt>
      <trkpt lat="24.102083" lon="121.615979"></trkpt>
      <trkpt lat="24.099063" lon="121.615257"></trkpt>
      <trkpt lat="24.098103" lon="121.614972"></trkpt>
      <trkpt lat="24.097177" lon="121.614749"></trkpt>
      <trkpt lat="24.095678" lon="121.614393"></trkpt>
      <trkpt lat="24.094372" lon="121.614063"></trkpt>
      <trkpt lat="24.094010" lon="121.613961"></trkpt>
      <trkpt lat="24.093496" lon="121.613778"></trkpt>
      <trkpt lat="24.093450" lon="121.613906"></trkpt>
      <trkpt lat="24.093312" lon="121.614058"></trkpt>
      <trkpt lat="24.092407" lon="121.614860"></trkpt>
      <trkpt lat="24.091641" lon="121.615506"></trkpt>
      <trkpt lat="24.091002" lon="121.615884"></trkpt>
      <trkpt lat="24.090576" lon="121.616072"></trkpt>
      <trkpt lat="24.090199" lon="121.616126"></trkpt>
      <trkpt lat="24.089366" lon="121.616110"></trkpt>
      <trkpt lat="24.088793" lon="121.615919"></trkpt>
      <trkpt lat="24.086118" lon="121.614717"></trkpt>
      <trkpt lat="24.083389" lon="121.613833"></trkpt>
      <trkpt lat="24.082635" lon="121.613533"></trkpt>
      <trkpt lat="24.081717" lon="121.613167"></trkpt>
      <trkpt lat="24.081559" lon="121.613112"></trkpt>
      <trkpt lat="24.080861" lon="121.612866"></trkpt>
      <trkpt lat="24.080832" lon="121.612855"></trkpt>
      <trkpt lat="24.079020" lon="121.612287"></trkpt>
      <trkpt lat="24.078401" lon="121.612116"></trkpt>
      <trkpt lat="24.077700" lon="121.612011"></trkpt>
      <trkpt lat="24.075442" lon="121.611974"></trkpt>
      <trkpt lat="24.073986" lon="121.611950"></trkpt>
      <trkpt lat="24.073768" lon="121.611949"></trkpt>
      <trkpt lat="24.073415" lon="121.611949"></trkpt>
      <trkpt lat="24.073348" lon="121.611948"></trkpt>
      <trkpt lat="24.069560" lon="121.611829"></trkpt>
      <trkpt lat="24.067420" lon="121.611861"></trkpt>
      <trkpt lat="24.065705" lon="121.612033"></trkpt>
      <trkpt lat="24.063491" lon="121.612365"></trkpt>
      <trkpt lat="24.062852" lon="121.612494"></trkpt>
      <trkpt lat="24.062672" lon="121.612569"></trkpt>
      <trkpt lat="24.062254" lon="121.612769"></trkpt>
      <trkpt lat="24.062071" lon="121.612832"></trkpt>
      <trkpt lat="24.061894" lon="121.612942"></trkpt>
      <trkpt lat="24.061272" lon="121.613578"></trkpt>
      <trkpt lat="24.061010" lon="121.613779"></trkpt>
      <trkpt lat="24.060802" lon="121.613835"></trkpt>
      <trkpt lat="24.060579" lon="121.613859"></trkpt>
      <trkpt lat="24.060391" lon="121.613859"></trkpt>
      <trkpt lat="24.060240" lon="121.613836"></trkpt>
      <trkpt lat="24.059318" lon="121.613784"></trkpt>
      <trkpt lat="24.058877" lon="121.613811"></trkpt>
      <trkpt lat="24.058681" lon="121.613846"></trkpt>
      <trkpt lat="24.057867" lon="121.614011"></trkpt>
      <trkpt lat="24.056232" lon="121.614543"></trkpt>
      <trkpt lat="24.052197" lon="121.615604"></trkpt>
      <trkpt lat="24.052119" lon="121.615617"></trkpt>
      <trkpt lat="24.048108" lon="121.616426"></trkpt>
      <trkpt lat="24.047809" lon="121.616500"></trkpt>
      <trkpt lat="24.047674" lon="121.616548"></trkpt>
      <trkpt lat="24.047120" lon="121.616833"></trkpt>
      <trkpt lat="24.046759" lon="121.617100"></trkpt>
      <trkpt lat="24.046435" lon="121.617328"></trkpt>
      <trkpt lat="24.046159" lon="121.617518"></trkpt>
      <trkpt lat="24.045777" lon="121.617733"></trkpt>
      <trkpt lat="24.045385" lon="121.617987"></trkpt>
      <trkpt lat="24.043839" lon="121.618640"></trkpt>
      <trkpt lat="24.041363" lon="121.619832"></trkpt>
      <trkpt lat="24.041223" lon="121.619899"></trkpt>
      <trkpt lat="24.041047" lon="121.620046"></trkpt>
      <trkpt lat="24.040991" lon="121.620134"></trkpt>
      <trkpt lat="24.040934" lon="121.620241"></trkpt>
      <trkpt lat="24.040853" lon="121.620490"></trkpt>
      <trkpt lat="24.040950" lon="121.620628"></trkpt>
      <trkpt lat="24.040992" lon="121.620672"></trkpt>
      <trkpt lat="24.041294" lon="121.621194"></trkpt>
      <trkpt lat="24.041349" lon="121.621276"></trkpt>
      <trkpt lat="24.041402" lon="121.621453"></trkpt>
      <trkpt lat="24.041361" lon="121.621798"></trkpt>
      <trkpt lat="24.041464" lon="121.622172"></trkpt>
      <trkpt lat="24.041501" lon="121.622228"></trkpt>
      <trkpt lat="24.041614" lon="121.622400"></trkpt>
      <trkpt lat="24.041654" lon="121.622443"></trkpt>
      <trkpt lat="24.041314" lon="121.622656"></trkpt>
      <trkpt lat="24.041103" lon="121.622733"></trkpt>
      <trkpt lat="24.040828" lon="121.622836"></trkpt>
      <trkpt lat="24.040309" lon="121.622986"></trkpt>
      <trkpt lat="24.040082" lon="121.623205"></trkpt>
      <trkpt lat="24.039864" lon="121.623382"></trkpt>
      <trkpt lat="24.039576" lon="121.623563"></trkpt>
      <trkpt lat="24.039433" lon="121.623574"></trkpt>
      <trkpt lat="24.039306" lon="121.623597"></trkpt>
      <trkpt lat="24.039145" lon="121.623742"></trkpt>
      <trkpt lat="24.038840" lon="121.624004"></trkpt>
      <trkpt lat="24.038790" lon="121.624113"></trkpt>
      <trkpt lat="24.038700" lon="121.624211"></trkpt>
      <trkpt lat="24.038641" lon="121.624202"></trkpt>
      <trkpt lat="24.038607" lon="121.624110"></trkpt>
      <trkpt lat="24.038586" lon="121.624102"></trkpt>
      <trkpt lat="24.038195" lon="121.624312"></trkpt>
      <trkpt lat="24.038086" lon="121.624190"></trkpt>
      <trkpt lat="24.038013" lon="121.624153"></trkpt>
      <trkpt lat="24.037700" lon="121.624288"></trkpt>
      <trkpt lat="24.037620" lon="121.624322"></trkpt>
      <trkpt lat="24.037469" lon="121.624650"></trkpt>
      <trkpt lat="24.037279" lon="121.624911"></trkpt>
      <trkpt lat="24.037149" lon="121.625070"></trkpt>
      <trkpt lat="24.037057" lon="121.625130"></trkpt>
      <trkpt lat="24.036905" lon="121.625196"></trkpt>
      <trkpt lat="24.036736" lon="121.625196"></trkpt>
      <trkpt lat="24.036695" lon="121.625218"></trkpt>
      <trkpt lat="24.036655" lon="121.625270"></trkpt>
      <trkpt lat="24.036620" lon="121.625347"></trkpt>
      <trkpt lat="24.035946" lon="121.625675"></trkpt>
      <trkpt lat="24.035796" lon="121.625789"></trkpt>
      <trkpt lat="24.035443" lon="121.626083"></trkpt>
      <trkpt lat="24.035317" lon="121.626147"></trkpt>
      <trkpt lat="24.035021" lon="121.626284"></trkpt>
      <trkpt lat="24.034429" lon="121.626663"></trkpt>
      <trkpt lat="24.034234" lon="121.626754"></trkpt>
      <trkpt lat="24.032993" lon="121.627376"></trkpt>
      <trkpt lat="24.032557" lon="121.627519"></trkpt>
      <trkpt lat="24.032055" lon="121.627746"></trkpt>
      <trkpt lat="24.031964" lon="121.627722"></trkpt>
      <trkpt lat="24.031918" lon="121.627729"></trkpt>
      <trkpt lat="24.031876" lon="121.627813"></trkpt>
      <trkpt lat="24.031693" lon="121.627986"></trkpt>
      <trkpt lat="24.031484" lon="121.628152"></trkpt>
      <trkpt lat="24.030900" lon="121.628622"></trkpt>
      <trkpt lat="24.030560" lon="121.628861"></trkpt>
      <trkpt lat="24.030447" lon="121.628914"></trkpt>
      <trkpt lat="24.030333" lon="121.628989"></trkpt>
      <trkpt lat="24.029983" lon="121.629306"></trkpt>
      <trkpt lat="24.029138" lon="121.629985"></trkpt>
      <trkpt lat="24.029069" lon="121.630007"></trkpt>
      <trkpt lat="24.028861" lon="121.629972"></trkpt>
      <trkpt lat="24.028718" lon="121.629995"></trkpt>
      <trkpt lat="24.028416" lon="121.629598"></trkpt>
      <trkpt lat="24.028108" lon="121.629206"></trkpt>
      <trkpt lat="24.028005" lon="121.629074"></trkpt>
      <trkpt lat="24.027590" lon="121.628638"></trkpt>
      <trkpt lat="24.028619" lon="121.627826"></trkpt>
      <trkpt lat="24.028768" lon="121.627709"></trkpt>
      <trkpt lat="24.028907" lon="121.627475"></trkpt>
      <trkpt lat="24.028605" lon="121.627591"></trkpt>
      <trkpt lat="24.028530" lon="121.627648"></trkpt>
      <trkpt lat="24.027494" lon="121.628427"></trkpt>
      <trkpt lat="24.027266" lon="121.628598"></trkpt>
      <trkpt lat="24.027092" lon="121.628746"></trkpt>
      <trkpt lat="24.026839" lon="121.628914"></trkpt>
      <trkpt lat="24.026699" lon="121.629114"></trkpt>
      <trkpt lat="24.026669" lon="121.629207"></trkpt>
      <trkpt lat="24.026612" lon="121.629353"></trkpt>
      <trkpt lat="24.026546" lon="121.629450"></trkpt>
      <trkpt lat="24.026507" lon="121.629658"></trkpt>
      <trkpt lat="24.026498" lon="121.630060"></trkpt>
      <trkpt lat="24.026501" lon="121.630390"></trkpt>
      <trkpt lat="24.026510" lon="121.630476"></trkpt>
      <trkpt lat="24.026520" lon="121.630512"></trkpt>
      <trkpt lat="24.026548" lon="121.630584"></trkpt>
      <trkpt lat="24.026469" lon="121.630608"></trkpt>
      <trkpt lat="24.026384" lon="121.630615"></trkpt>
      <trkpt lat="24.026321" lon="121.630587"></trkpt>
      <trkpt lat="24.026236" lon="121.630541"></trkpt>
      <trkpt lat="24.026230" lon="121.630538"></trkpt>
      <trkpt lat="24.026158" lon="121.630463"></trkpt>
      <trkpt lat="24.026101" lon="121.630404"></trkpt>
      <trkpt lat="24.025873" lon="121.630135"></trkpt>
      <trkpt lat="24.025826" lon="121.630046"></trkpt>
      <trkpt lat="24.025699" lon="121.629807"></trkpt>
      <trkpt lat="24.025563" lon="121.629660"></trkpt>
      <trkpt lat="24.025433" lon="121.629590"></trkpt>
      <trkpt lat="24.025114" lon="121.629555"></trkpt>
      <trkpt lat="24.024866" lon="121.629548"></trkpt>
      <trkpt lat="24.024596" lon="121.629554"></trkpt>
      <trkpt lat="24.024153" lon="121.629643"></trkpt>
      <trkpt lat="24.024069" lon="121.629685"></trkpt>
      <trkpt lat="24.022813" lon="121.628673"></trkpt>
      <trkpt lat="24.020655" lon="121.626935"></trkpt>
      <trkpt lat="24.018941" lon="121.625576"></trkpt>
      <trkpt lat="24.018551" lon="121.625274"></trkpt>
      <trkpt lat="24.017858" lon="121.624708"></trkpt>
      <trkpt lat="24.016298" lon="121.623263"></trkpt>
      <trkpt lat="24.015752" lon="121.622735"></trkpt>
      <trkpt lat="24.014802" lon="121.621885"></trkpt>
      <trkpt lat="24.014105" lon="121.621253"></trkpt>
      <trkpt lat="24.011562" lon="121.618959"></trkpt>
      <trkpt lat="24.009942" lon="121.617427"></trkpt>
      <trkpt lat="24.008339" lon="121.615915"></trkpt>
      <trkpt lat="24.008302" lon="121.615870"></trkpt>
      <trkpt lat="24.007663" lon="121.615617"></trkpt>
      <trkpt lat="24.006958" lon="121.615344"></trkpt>
      <trkpt lat="24.006779" lon="121.615274"></trkpt>
      <trkpt lat="24.006347" lon="121.615108"></trkpt>
      <trkpt lat="24.005865" lon="121.614915"></trkpt>
      <trkpt lat="24.005494" lon="121.614755"></trkpt>
      <trkpt lat="24.005083" lon="121.614556"></trkpt>
      <trkpt lat="24.004532" lon="121.614288"></trkpt>
      <trkpt lat="24.004301" lon="121.614178"></trkpt>
      <trkpt lat="24.003914" lon="121.613987"></trkpt>
      <trkpt lat="24.003618" lon="121.613803"></trkpt>
      <trkpt lat="24.003397" lon="121.613707"></trkpt>
      <trkpt lat="24.003152" lon="121.613653"></trkpt>
      <trkpt lat="24.002956" lon="121.613663"></trkpt>
      <trkpt lat="24.002648" lon="121.613679"></trkpt>
      <trkpt lat="24.002443" lon="121.613676"></trkpt>
      <trkpt lat="24.001754" lon="121.613535"></trkpt>
      <trkpt lat="24.001596" lon="121.613505"></trkpt>
      <trkpt lat="24.001245" lon="121.613439"></trkpt>
      <trkpt lat="24.000891" lon="121.613335"></trkpt>
      <trkpt lat="23.999835" lon="121.613075"></trkpt>
      <trkpt lat="23.998470" lon="121.612601"></trkpt>
      <trkpt lat="23.997531" lon="121.612275"></trkpt>
      <trkpt lat="23.995532" lon="121.611628"></trkpt>
      <trkpt lat="23.995449" lon="121.611587"></trkpt>
      <trkpt lat="23.995404" lon="121.611436"></trkpt>
      <trkpt lat="23.995278" lon="121.611333"></trkpt>
      <trkpt lat="23.995050" lon="121.611155"></trkpt>
      <trkpt lat="23.994879" lon="121.611035"></trkpt>
      <trkpt lat="23.994718" lon="121.610921"></trkpt>
      <trkpt lat="23.994558" lon="121.610813"></trkpt>
      <trkpt lat="23.994385" lon="121.610719"></trkpt>
      <trkpt lat="23.994114" lon="121.610569"></trkpt>
      <trkpt lat="23.993522" lon="121.610247"></trkpt>
      <trkpt lat="23.992287" lon="121.609500"></trkpt>
      <trkpt lat="23.991637" lon="121.609101"></trkpt>
      <trkpt lat="23.991205" lon="121.608857"></trkpt>
      <trkpt lat="23.990903" lon="121.608685"></trkpt>
      <trkpt lat="23.990696" lon="121.608586"></trkpt>
      <trkpt lat="23.990370" lon="121.608457"></trkpt>
      <trkpt lat="23.990206" lon="121.608402"></trkpt>
      <trkpt lat="23.990060" lon="121.608368"></trkpt>
      <trkpt lat="23.989927" lon="121.608347"></trkpt>
      <trkpt lat="23.989845" lon="121.608334"></trkpt>
      <trkpt lat="23.989739" lon="121.608343"></trkpt>
      <trkpt lat="23.989621" lon="121.608360"></trkpt>
      <trkpt lat="23.989508" lon="121.608398"></trkpt>
      <trkpt lat="23.989382" lon="121.608450"></trkpt>
      <trkpt lat="23.989029" lon="121.608591"></trkpt>
      <trkpt lat="23.988798" lon="121.608695"></trkpt>
      <trkpt lat="23.986697" lon="121.609612"></trkpt>
      <trkpt lat="23.986664" lon="121.609703"></trkpt>
      <trkpt lat="23.986636" lon="121.609746"></trkpt>
      <trkpt lat="23.986632" lon="121.609905"></trkpt>
      <trkpt lat="23.985944" lon="121.610267"></trkpt>
      <trkpt lat="23.985804" lon="121.610317"></trkpt>
      <trkpt lat="23.985458" lon="121.610431"></trkpt>
      <trkpt lat="23.985176" lon="121.610516"></trkpt>
      <trkpt lat="23.984919" lon="121.610580"></trkpt>
      <trkpt lat="23.984858" lon="121.610500"></trkpt>
      <trkpt lat="23.983823" lon="121.608943"></trkpt>
      <trkpt lat="23.983065" lon="121.607878"></trkpt>
      <trkpt lat="23.982964" lon="121.607716"></trkpt>
      <trkpt lat="23.982716" lon="121.607364"></trkpt>
      <trkpt lat="23.982545" lon="121.607112"></trkpt>
      <trkpt lat="23.982352" lon="121.606822"></trkpt>
      <trkpt lat="23.982127" lon="121.606489"></trkpt>
      <trkpt lat="23.982077" lon="121.606418"></trkpt>
      <trkpt lat="23.981859" lon="121.606101"></trkpt>
      <trkpt lat="23.981625" lon="121.605749"></trkpt>
      <trkpt lat="23.981221" lon="121.605128"></trkpt>
      <trkpt lat="23.980792" lon="121.604478"></trkpt>
      <trkpt lat="23.980461" lon="121.603962"></trkpt>
      <trkpt lat="23.980357" lon="121.603797"></trkpt>
      <trkpt lat="23.980224" lon="121.603611"></trkpt>
      <trkpt lat="23.979972" lon="121.603261"></trkpt>
      <trkpt lat="23.979915" lon="121.603187"></trkpt>
      <trkpt lat="23.979619" lon="121.602744"></trkpt>
      <trkpt lat="23.979352" lon="121.602328"></trkpt>
      <trkpt lat="23.979079" lon="121.601904"></trkpt>
      <trkpt lat="23.978907" lon="121.601649"></trkpt>
      <trkpt lat="23.978795" lon="121.601441"></trkpt>
      <trkpt lat="23.978611" lon="121.601150"></trkpt>
      <trkpt lat="23.978488" lon="121.600974"></trkpt>
      <trkpt lat="23.978337" lon="121.600729"></trkpt>
      <trkpt lat="23.978038" lon="121.600305"></trkpt>
      <trkpt lat="23.977317" lon="121.599189"></trkpt>
      <trkpt lat="23.977066" lon="121.598851"></trkpt>
      <trkpt lat="23.976919" lon="121.598613"></trkpt>
      <trkpt lat="23.976776" lon="121.598389"></trkpt>
      <trkpt lat="23.976597" lon="121.598106"></trkpt>
      <trkpt lat="23.976119" lon="121.597523"></trkpt>
      <trkpt lat="23.975842" lon="121.597183"></trkpt>
      <trkpt lat="23.975677" lon="121.597004"></trkpt>
      <trkpt lat="23.974976" lon="121.596253"></trkpt>
      <trkpt lat="23.974788" lon="121.596253"></trkpt>
      <trkpt lat="23.974751" lon="121.596366"></trkpt>
      <trkpt lat="23.974698" lon="121.596412"></trkpt>
      <trkpt lat="23.974282" lon="121.596863"></trkpt>
      <trkpt lat="23.973986" lon="121.597188"></trkpt>
      <trkpt lat="23.973826" lon="121.597350"></trkpt>
      <trkpt lat="23.973429" lon="121.596952"></trkpt>
      <trkpt lat="23.973282" lon="121.596786"></trkpt>
      <trkpt lat="23.972615" lon="121.596174"></trkpt>
      <trkpt lat="23.971828" lon="121.595400"></trkpt>
    </trkseg>
  </trk>
</gpx>
